shelter_id,shelter_name,sido,sigungu,address,lon,lat,shelter_type,area,category
1,동작고등학교 운동장,서울특별시,동작구,서울특별시 동작구 솔밭로 51(사당동),126.9655,37.482,실내대피소,3246.0,지진실내구호소
2,동작초등학교 운동장,서울특별시,동작구,서울특별시 동작구 동작대로29길 214(사당동),126.9768,37.494,실내대피소,2763.0,지진실내구호소
3,창림초등학교 운동장,서울특별시,도봉구,서울특별시 도봉구 덕릉로63길 46(창동),127.0417,37.6431,실내대피소,2584.0,지진실내구호소
4,창원초등학교 운동장,서울특별시,도봉구,서울특별시 도봉구 해등로 103(창동),127.0407,37.6521,실내대피소,2704.0,지진실내구호소
5,창일중학교 운동장,서울특별시,도봉구,서울특별시 도봉구 노해로66길 60(창동),127.0471,37.6484,실내대피소,4800.0,지진실내구호소
6,갈대밭어린이공원,서울특별시,도봉구,서울특별시 도봉구 도봉동 625-123,127.0457,37.6743,실내대피소,433.0,지진실내구호소
7,누원어린이공원,서울특별시,도봉구,서울특별시 도봉구 도봉동 653,127.05,37.6803,실내대피소,400.0,지진실내구호소
8,무수어린이공원,서울특별시,도봉구,서울특별시 도봉구 도봉동 585-2,127.0426,37.6805,실내대피소,350.0,지진실내구호소
9,무지개어린이공원,서울특별시,도봉구,서울특별시 도봉구 도봉동 570-13,127.045,37.6856,실내대피소,385.0,지진실내구호소
10,새동네어린이공원,서울특별시,도봉구,서울특별시 도봉구 도봉동 289-5,127.0431,37.6889,실내대피소,670.0,지진실내구호소
11,서원어린이공원,서울특별시,도봉구,서울특별시 도봉구 도봉동 576-13,127.0432,37.6838,실내대피소,355.0,지진실내구호소
12,해태어린이공원,서울특별시,도봉구,서울특별시 도봉구 도봉동 614-37,127.0411,37.672,실내대피소,458.0,지진실내구호소
13,누원고등학교 운동장,서울특별시,도봉구,서울특별시 도봉구 마들로 849(도봉동),127.0506,37.6849,실내대피소,400.0,지진실내구호소
14,도봉중학교 운동장,서울특별시,도봉구,서울특별시 도봉구 마들로 671(도봉동),127.0455,37.6701,실내대피소,3184.0,지진실내구호소
15,북서울중학교 운동장,서울특별시,도봉구,서울특별시 도봉구 도봉로169가길 33(도봉동),127.043,37.6811,실내대피소,2029.0,지진실내구호소
16,오봉초등학교 운동장,서울특별시,도봉구,서울특별시 도봉구 시루봉로 285(도봉동),127.0404,37.6714,실내대피소,1704.0,지진실내구호소
17,한내근린공원,서울특별시,노원구,서울특별시 노원구 월계동 1-1,127.0694,37.6221,실내대피소,1740.0,지진실내구호소
18,광운전자공업고등학교 운동장,서울특별시,노원구,서울특별시 노원구 월계동 500-0,127.0561,37.6201,실내대피소,9540.0,지진실내구호소
19,녹천중학교 운동장,서울특별시,노원구,서울특별시 노원구 월계로 376(월계동),127.0623,37.631,실내대피소,4670.0,지진실내구호소
20,녹천초등학교 운동장,서울특별시,노원구,서울특별시 노원구 마들로3길 34(월계동),127.0635,37.6284,실내대피소,2740.0,지진실내구호소
21,선곡초등학교 운동장,서울특별시,노원구,서울특별시 노원구 월계동 446-0,127.058,37.6183,실내대피소,3400.0,지진실내구호소
22,신계초등학교 운동장,서울특별시,노원구,서울특별시 노원구 월계동 602-0,127.0532,37.6298,실내대피소,3470.0,지진실내구호소
23,신창중학교 운동장,서울특별시,노원구,서울특별시 노원구 월계로45길 92(월계동),127.0479,37.6282,실내대피소,2540.0,지진실내구호소
24,연지초등학교 운동장,서울특별시,노원구,서울특별시 노원구 월계로55길 48(월계동),127.0597,37.6332,실내대피소,2020.0,지진실내구호소
25,월계고등학교 운동장,서울특별시,노원구,서울특별시 노원구 초안산로5길 66(월계동),127.0489,37.6314,실내대피소,1760.0,지진실내구호소
26,월계중학교 운동장,서울특별시,노원구,서울특별시 노원구 월계로45가길 54(월계동),127.0517,37.6302,실내대피소,4360.0,지진실내구호소
27,월계초등학교 운동장,서울특별시,노원구,서울특별시 노원구 월계로45가길 10(월계동),127.0508,37.6275,실내대피소,3950.0,지진실내구호소
28,한천초등학교 운동장,서울특별시,노원구,서울특별시 노원구 마들로 45(월계동),127.069,37.6201,실내대피소,4430.0,지진실내구호소
29,공릉중학교 운동장,서울특별시,노원구,서울특별시 노원구 노원로1길 42(공릉동),127.0841,37.6218,실내대피소,4590.0,지진실내구호소
30,공릉초등학교 운동장,서울특별시,노원구,서울특별시 노원구 공릉동 610-1,127.0744,37.6189,실내대피소,4540.0,지진실내구호소
31,공연초등학교 운동장,서울특별시,노원구,서울특별시 노원구 동일로192가길 16(공릉동),127.0744,37.6269,실내대피소,3800.0,지진실내구호소
32,용원초등학교 운동장,서울특별시,노원구,서울특별시 노원구 섬밭로 144(공릉동),127.0691,37.6289,실내대피소,3490.0,지진실내구호소
33,태랑중학교 운동장,서울특별시,노원구,서울특별시 노원구 화랑로51나길 51(공릉동),127.0917,37.6265,실내대피소,4870.0,지진실내구호소
34,태랑초등학교 운동장,서울특별시,노원구,서울특별시 노원구 화랑로51나길 31(공릉동),127.0909,37.6258,실내대피소,2020.0,지진실내구호소
35,태릉초등학교 운동장,서울특별시,노원구,서울특별시 노원구 노원로1길 36(공릉동),127.0849,37.6224,실내대피소,4630.0,지진실내구호소
36,한천중학교 운동장,서울특별시,노원구,서울특별시 노원구 공릉로 265(공릉동),127.0728,37.6309,실내대피소,3580.0,지진실내구호소
37,중현어린이공원,서울특별시,노원구,서울특별시 노원구 하계동 272-1,127.0655,37.6318,실내대피소,3780.0,지진실내구호소
38,하계어린이공원,서울특별시,노원구,서울특별시 노원구 하계동 273-3,127.069,37.6322,실내대피소,1150.0,지진실내구호소
39,경기기계공업고등학교 운동장,서울특별시,노원구,서울특별시 노원구 하계동 78-0,127.0746,37.6314,실내대피소,12900.0,지진실내구호소
40,불암중학교 운동장,서울특별시,노원구,서울특별시 노원구 한글비석로5길 45(하계동),127.0738,37.6455,실내대피소,3680.0,지진실내구호소
41,연촌초등학교 운동장,서울특별시,노원구,서울특별시 노원구 공릉로58길 36(하계동),127.0731,37.6345,실내대피소,3680.0,지진실내구호소
42,중평중학교 운동장,서울특별시,노원구,서울특별시 노원구 동일로203길 87(하계동),127.0624,37.6366,실내대피소,2870.0,지진실내구호소
43,중평초등학교 운동장,서울특별시,노원구,서울특별시 노원구 섬밭로 241(하계동),127.0642,37.6372,실내대피소,2660.0,지진실내구호소
44,중현초등학교 운동장,서울특별시,노원구,서울특별시 노원구 섬밭로 181(하계동),127.0666,37.6319,실내대피소,3220.0,지진실내구호소
45,하계중학교 운동장,서울특별시,노원구,서울특별시 노원구 노원로 261-8 (하계동),127.0715,37.6407,실내대피소,4890.0,지진실내구호소
46,혜성여자고등학교 운동장,서울특별시,노원구,서울특별시 노원구 하계동 산16-38,127.074,37.6412,실내대피소,8880.0,지진실내구호소
47,갈울근린공원,서울특별시,노원구,서울특별시 노원구 상계동 644-0,127.061,37.6668,실내대피소,3200.0,지진실내구호소
48,상계근린공원,서울특별시,노원구,서울특별시 노원구 상계동 620-0,127.0508,37.6697,실내대피소,4860.0,지진실내구호소
49,온수근린공원,서울특별시,노원구,서울특별시 노원구 상계동 686-0,127.0637,37.6609,실내대피소,550.0,지진실내구호소
50,계상초등학교 운동장,서울특별시,노원구,서울특별시 노원구 한글비석로41가길 24(상계동),127.0676,37.663,실내대피소,4270.0,지진실내구호소
51,노원고등학교 운동장,서울특별시,노원구,서울특별시 노원구 노원로 586(상계동),127.0533,37.6622,실내대피소,2930.0,지진실내구호소
52,노원중학교 운동장,서울특별시,노원구,서울특별시 노원구 동일로213길 26(상계동),127.0598,37.649,실내대피소,2540.0,지진실내구호소
53,노원초등학교 운동장,서울특별시,노원구,서울특별시 노원구 동일로230나길 32(상계동),127.0582,37.6728,실내대피소,4010.0,지진실내구호소
54,노일중학교 운동장,서울특별시,노원구,서울특별시 노원구 동일로231길 24(상계동),127.0539,37.6728,실내대피소,4580.0,지진실내구호소
55,노일초등학교 운동장,서울특별시,노원구,서울특별시 노원구 동일로 1625(상계동),127.0547,37.673,실내대피소,2360.0,지진실내구호소
56,당현초등학교 운동장,서울특별시,노원구,서울특별시 노원구 동일로213길 52(상계동),127.0583,37.6485,실내대피소,3580.0,지진실내구호소
57,덕암초등학교 운동장,서울특별시,노원구,서울특별시 노원구 상계동 1274-0,127.0808,37.6663,실내대피소,1790.0,지진실내구호소
58,동일초등학교 운동장,서울특별시,노원구,서울특별시 노원구 한글비석로 566(상계동),127.0546,37.6648,실내대피소,2380.0,지진실내구호소
59,상경중학교 운동장,서울특별시,노원구,서울특별시 노원구 동일로227길 61(상계동),127.0535,37.6664,실내대피소,3530.0,지진실내구호소
60,상경초등학교 운동장,서울특별시,노원구,서울특별시 노원구 수락산로 237(상계동),127.0517,37.6701,실내대피소,2660.0,지진실내구호소
61,상계중학교 운동장,서울특별시,노원구,서울특별시 노원구 상계동 195-5,127.0689,37.6518,실내대피소,7190.0,지진실내구호소
62,상계초등학교 운동장,서울특별시,노원구,서울특별시 노원구 상계동 402-1,127.0659,37.659,실내대피소,1830.0,지진실내구호소
63,상곡초등학교 운동장,서울특별시,노원구,서울특별시 노원구 노원로38길 34(상계동),127.0623,37.6623,실내대피소,2640.0,지진실내구호소
64,상수초등학교 운동장,서울특별시,노원구,서울특별시 노원구 동일로216길 66(상계동),127.0648,37.6514,실내대피소,2230.0,지진실내구호소
65,상원중학교 운동장,서울특별시,노원구,서울특별시 노원구 수락산로 182(상계동),127.0594,37.6712,실내대피소,2180.0,지진실내구호소
66,상원초등학교 운동장,서울특별시,노원구,서울특별시 노원구 한글비석로54길 119(상계동),127.0602,37.6676,실내대피소,3970.0,지진실내구호소
67,상월초등학교 운동장,서울특별시,노원구,서울특별시 노원구 동일로221길 27(상계동),127.0572,37.6582,실내대피소,4330.0,지진실내구호소
68,상천초등학교 운동장,서울특별시,노원구,서울특별시 노원구 덕릉로 443(상계동),127.0578,37.6459,실내대피소,3500.0,지진실내구호소
69,수락중학교 운동장,서울특별시,노원구,서울특별시 노원구 동일로 1729(상계동),127.0545,37.6826,실내대피소,4030.0,지진실내구호소
70,수락초등학교 운동장,서울특별시,노원구,서울특별시 노원구 동일로 1745(상계동),127.0545,37.6837,실내대피소,4930.0,지진실내구호소
71,신상계초등학교 운동장,서울특별시,노원구,서울특별시 노원구 상계로 267(상계동),127.0761,37.6677,실내대피소,2560.0,지진실내구호소
72,신상중학교 운동장,서울특별시,노원구,서울특별시 노원구 동일로216길 42(상계동),127.0635,37.6511,실내대피소,4220.0,지진실내구호소
73,온곡중학교 운동장,서울특별시,노원구,서울특별시 노원구 노원로 492(상계동),127.0646,37.66,실내대피소,7090.0,지진실내구호소
74,온곡초등학교 운동장,서울특별시,노원구,서울특별시 노원구 한글비석로52길 59(상계동),127.0661,37.6673,실내대피소,1580.0,지진실내구호소
75,용화여자고등학교 운동장,서울특별시,노원구,서울특별시 노원구 동일로 1461(상계동),127.0585,37.6587,실내대피소,3370.0,지진실내구호소
76,청원초등학교 운동장,서울특별시,노원구,서울특별시 노원구 한글비석로 506(상계동),127.0613,37.6657,실내대피소,3140.0,지진실내구호소
77,불암고등학교 운동장,서울특별시,노원구,서울특별시 노원구 중계로 155(중계동),127.0801,37.6484,실내대피소,3220.0,지진실내구호소
78,불암초등학교 운동장,서울특별시,노원구,서울특별시 노원구 중계로 178(중계동),127.0801,37.651,실내대피소,2590.0,지진실내구호소
79,상계제일중학교 운동장,서울특별시,노원구,서울특별시 노원구 중계동 132-0,127.0773,37.6611,실내대피소,3470.0,지진실내구호소
80,상명초등학교 운동장,서울특별시,노원구,서울특별시 노원구 덕릉로 541(중계동),127.0675,37.6482,실내대피소,1700.0,지진실내구호소
81,서라벌고등학교운동장,서울특별시,노원구,서울특별시 노원구 한글비석로5길 18(중계동),127.0752,37.6451,실내대피소,5010.0,지진실내구호소
82,수암초등학교 운동장,서울특별시,노원구,서울특별시 노원구 중계로12길 9(중계동),127.0819,37.6477,실내대피소,2700.0,지진실내구호소
83,영신여자고등학교 운동장,서울특별시,노원구,서울특별시 노원구 중계로16나길 13(중계동),127.0829,37.652,실내대피소,2970.0,지진실내구호소
84,용동초등학교 운동장,서울특별시,노원구,서울특별시 노원구 한글비석로1길 81-11 (중계동),127.0694,37.6414,실내대피소,3270.0,지진실내구호소
85,원광초등학교 운동장,서울특별시,노원구,서울특별시 노원구 중계동 359-0,127.0748,37.6537,실내대피소,2280.0,지진실내구호소
86,을지중학교 운동장,서울특별시,노원구,서울특별시 노원구 덕릉로 580(중계동),127.0721,37.6501,실내대피소,2950.0,지진실내구호소
87,을지초등학교 운동장,서울특별시,노원구,서울특별시 노원구 중계로 239(중계동),127.0725,37.6506,실내대피소,2910.0,지진실내구호소
88,경기상업고등학교 운동장,서울특별시,종로구,서울특별시 종로구 자하문로 136(청운동),126.97,37.5881,실내대피소,10629.0,지진실내구호소
89,경복고등학교 운동장,서울특별시,종로구,서울특별시 종로구 자하문로28가길 9(청운동),126.9706,37.587,실내대피소,11577.0,지진실내구호소
90,청운중학교 운동장,서울특별시,종로구,서울특별시 종로구 창의문로 51(청운동),126.9709,37.5887,실내대피소,4133.0,지진실내구호소
91,청운초등학교 운동장,서울특별시,종로구,서울특별시 종로구 자하문로 105(청운동),126.9696,37.5855,실내대피소,1993.0,지진실내구호소
92,서울농학교 운동장,서울특별시,종로구,서울특별시 종로구 필운대로 103(신교동),126.9691,37.5844,실내대피소,4144.0,지진실내구호소
93,매동초등학교 운동장,서울특별시,종로구,서울특별시 종로구 사직로9길 19(필운동),126.9668,37.5772,실내대피소,2593.0,지진실내구호소
94,배화여자고등학교 운동장,서울특별시,종로구,서울특별시 종로구 필운대로1길 34(필운동),126.9677,37.5783,실내대피소,2432.0,지진실내구호소
95,사직공원,서울특별시,종로구,서울특별시 종로구 사직로 89(사직동),126.9683,37.5758,실내대피소,26523.0,지진실내구호소
96,내수1근린공원,서울특별시,종로구,서울특별시 종로구 내수동 71-2,126.9705,37.5735,실내대피소,2703.0,지진실내구호소
97,내수2근린공원,서울특별시,종로구,서울특별시 종로구 내수동 73-3,126.9716,37.5723,실내대피소,2310.0,지진실내구호소
98,길음중학교 운동장,서울특별시,성북구,서울특별시 성북구 길음로 144(길음동),127.0183,37.6136,실내대피소,2062.0,지진실내구호소
99,길음초등학교 운동장,서울특별시,성북구,서울특별시 성북구 길음동 635-7,127.017,37.6131,실내대피소,3479.0,지진실내구호소
100,미아초등학교 운동장,서울특별시,성북구,서울특별시 성북구 길음동 1168-0,127.0219,37.6102,실내대피소,4310.0,지진실내구호소
101,종암 5-1 어린이 공원,서울특별시,성북구,서울특별시 성북구 종암동 134-3,127.0366,37.5996,실내대피소,1965.0,지진실내구호소
102,서울대학교 사범대학 부설 고등학교 운동장,서울특별시,성북구,서울특별시 성북구 월곡로 6(종암동),127.0378,37.5927,실내대피소,12736.0,지진실내구호소
103,서울대학교 사범대학 부설 중학교 운동장,서울특별시,성북구,서울특별시 성북구 월곡로 36(종암동),127.0389,37.5958,실내대피소,18452.0,지진실내구호소
104,서울일신초등학교 운동장,서울특별시,성북구,서울특별시 성북구 월곡로 74(종암동),127.0401,37.5991,실내대피소,2360.0,지진실내구호소
105,숭례초등학교 운동장,서울특별시,성북구,서울특별시 성북구 종암동 22-1,127.035,37.5948,실내대피소,3968.0,지진실내구호소
106,종암중학교 운동장,서울특별시,성북구,서울특별시 성북구 종암동 32-3,127.0323,37.5928,실내대피소,3676.0,지진실내구호소
107,월곡인조잔디구장,서울특별시,성북구,서울특별시 성북구 화랑로13길 144(하월곡동),127.0423,37.6086,실내대피소,17309.0,지진실내구호소
108,오동공원 놀이마당,서울특별시,성북구,서울특별시 성북구 하월곡동 228-4,127.0393,37.6092,실내대피소,10034.0,지진실내구호소
109,도시공단 주차장,서울특별시,성북구,서울특별시 성북구 하월곡동 226-4,127.0411,37.6003,실내대피소,1453.0,지진실내구호소
110,서울도시과학기술고등학교 운동장,서울특별시,성북구,서울특별시 성북구 하월곡동 90-1,127.0316,37.6071,실내대피소,6398.0,지진실내구호소
111,숭곡중학교 운동장,서울특별시,성북구,서울특별시 성북구 종암로 208(하월곡동),127.0316,37.608,실내대피소,2789.0,지진실내구호소
112,숭곡초등학교 운동장,서울특별시,성북구,서울특별시 성북구 하월곡동 84-86,127.0323,37.6084,실내대피소,4106.0,지진실내구호소
113,숭인초등학교 운동장,서울특별시,성북구,서울특별시 성북구 하월곡동 222-4,127.0388,37.6089,실내대피소,2042.0,지진실내구호소
114,월곡중학교 운동장,서울특별시,성북구,서울특별시 성북구 상월곡동 35-1,127.0481,37.6065,실내대피소,2308.0,지진실내구호소
115,상길례 근린공원,서울특별시,성북구,"서울특별시 성북구 돌곶이로 220(장위동, 꿈의숲코오롱하늘채아파트)",127.0453,37.6196,실내대피소,4281.0,지진실내구호소
116,광운초등학교 운동장,서울특별시,성북구,서울특별시 성북구 장위동 128-0,127.0546,37.6188,실내대피소,4464.0,지진실내구호소
117,남대문중학교 운동장,서울특별시,성북구,서울특별시 성북구 한천로 660-30 (장위동),127.0556,37.6183,실내대피소,2734.0,지진실내구호소
118,월곡초등학교 운동장,서울특별시,성북구,서울특별시 성북구 장위동 246-194,127.046,37.6097,실내대피소,4327.0,지진실내구호소
119,장곡초등학교 운동장,서울특별시,성북구,서울특별시 성북구 장위동 235-0,127.0481,37.6165,실내대피소,2084.0,지진실내구호소
120,장월초등학교 운동장,서울특별시,성북구,서울특별시 성북구 장위동 316-0,127.0468,37.622,실내대피소,1452.0,지진실내구호소
121,장위중학교 운동장,서울특별시,성북구,서울특별시 성북구 장위동 231-623,127.0409,37.6116,실내대피소,2911.0,지진실내구호소
122,장위초등학교 운동장,서울특별시,성북구,서울특별시 성북구 장위동 68-8,127.05,37.6116,실내대피소,3462.0,지진실내구호소
123,의릉 주차장,서울특별시,성북구,서울특별시 성북구 석관동 333-1,127.0585,37.6048,실내대피소,1171.0,지진실내구호소
124,석계초등학교 운동장,서울특별시,성북구,서울특별시 성북구 석관동 27-3,127.0696,37.608,실내대피소,2890.0,지진실내구호소
125,석관고등학교 운동장,서울특별시,성북구,서울특별시 성북구 석관동 77-1,127.0666,37.6089,실내대피소,6064.0,지진실내구호소
126,석관중학교 운동장,서울특별시,성북구,서울특별시 성북구 석관동 88-2,127.0665,37.6076,실내대피소,4760.0,지진실내구호소
127,석관초등학교 운동장,서울특별시,성북구,서울특별시 성북구 석관동 205-0,127.0589,37.6107,실내대피소,2434.0,지진실내구호소
128,고갯마루공원,서울특별시,강북구,서울특별시 강북구 미아동 811-13,127.0169,37.6164,실내대피소,2185.0,지진실내구호소
129,구세군길 마을마당,서울특별시,강북구,서울특별시 강북구 미아동 791-1343,127.0147,37.6267,실내대피소,524.0,지진실내구호소
130,늘푸른공원,서울특별시,강북구,서울특별시 강북구 미아동 797-9,127.0196,37.6254,실내대피소,646.0,지진실내구호소
131,벽오산어린이공원,서울특별시,강북구,서울특별시 강북구 미아동 258-56,127.0302,37.6276,실내대피소,1250.0,지진실내구호소
132,세일어린이공원,서울특별시,강북구,서울특별시 강북구 미아동 162-1,127.0252,37.6335,실내대피소,849.0,지진실내구호소
133,솔샘어린이공원,서울특별시,강북구,서울특별시 강북구 솔샘로65길 19(미아동),127.027,37.6181,실내대피소,1264.1,지진실내구호소
134,송월어린이공원,서울특별시,강북구,서울특별시 강북구 미아동 89-6,127.0321,37.6161,실내대피소,807.0,지진실내구호소
135,오패어린이공원,서울특별시,강북구,서울특별시 강북구 미아동 258-236,127.0323,37.6223,실내대피소,993.0,지진실내구호소
136,운산어린이공원,서울특별시,강북구,서울특별시 강북구 미아동 165-3,127.0255,37.632,실내대피소,995.0,지진실내구호소
137,응달마루공원,서울특별시,강북구,서울특별시 강북구 미아동 860-116,127.0243,37.6182,실내대피소,866.0,지진실내구호소
138,청암어린이공원,서울특별시,강북구,서울특별시 강북구 미아동 776-17,127.0171,37.6241,실내대피소,579.0,지진실내구호소
139,체류지 마을마당(미아마을마당),서울특별시,강북구,서울특별시 강북구 오현로6길 106(미아동),127.0329,37.6119,실내대피소,1158.0,지진실내구호소
140,하늘어린이공원,서울특별시,강북구,서울특별시 강북구 미아동 791-3853,127.0129,37.6245,실내대피소,3268.0,지진실내구호소
141,한빛어린이공원,서울특별시,강북구,서울특별시 강북구 미아동 222-20,127.0228,37.6277,실내대피소,1055.0,지진실내구호소
142,미양초등학교 운동장,서울특별시,강북구,서울특별시 강북구 솔샘로 195(미아동),127.0137,37.6208,실내대피소,2660.0,지진실내구호소
143,삼각산고등학교 운동장,서울특별시,강북구,서울특별시 강북구 삼양로19길 40(미아동),127.0204,37.6156,실내대피소,1572.0,지진실내구호소
144,삼양초등학교 운동장,서울특별시,강북구,서울특별시 강북구 삼양로49길 17(미아동),127.0167,37.6234,실내대피소,3315.0,지진실내구호소
145,송중초등학교운동장,서울특별시,강북구,서울특별시 강북구 오현로 9(미아동),127.0316,37.6168,실내대피소,2495.0,지진실내구호소
146,영훈고등학교운동장,서울특별시,강북구,서울특별시 강북구 도봉로13가길 19(미아동),127.0279,37.6139,실내대피소,4975.0,지진실내구호소
147,창문여자고등학교운동장,서울특별시,강북구,서울특별시 강북구 월계로 61(미아동),127.0366,37.6129,실내대피소,2324.0,지진실내구호소
148,화계초등학교운동장,서울특별시,강북구,서울특별시 강북구 솔매로50가길 25(미아동),127.0291,37.6238,실내대피소,2135.0,지진실내구호소
149,강북구민운동장,서울특별시,강북구,서울특별시 강북구 오현로 187-25 (번동),127.0372,37.6293,실내대피소,6514.0,지진실내구호소
150,논골어린이공원,서울특별시,강북구,서울특별시 강북구 덕릉로41길 92(번동),127.028,37.6383,실내대피소,845.0,지진실내구호소
151,번남어린이공원,서울특별시,강북구,서울특별시 강북구 번동 447-1,127.0249,37.6357,실내대피소,1003.0,지진실내구호소
152,벌리어린이공원,서울특별시,강북구,서울특별시 강북구 번동 240,127.0444,37.6275,실내대피소,4083.5,지진실내구호소
153,벌말어린이공원,서울특별시,강북구,서울특별시 강북구 번동 235,127.0398,37.6297,실내대피소,4840.0,지진실내구호소
154,샛강어린이공원,서울특별시,강북구,서울특별시 강북구 번동 472-39,127.0329,37.6393,실내대피소,634.0,지진실내구호소
155,오얏골공원,서울특별시,강북구,서울특별시 강북구 번동 228,127.0342,37.634,실내대피소,5070.0,지진실내구호소
156,오현어린이공원,서울특별시,강북구,"서울특별시 강북구 한천로105길 23(번동, 번동1단지주공아파트)",127.0464,37.6237,실내대피소,3661.0,지진실내구호소
157,번동중학교운동장,서울특별시,강북구,서울특별시 강북구 오현로35길 87(번동),127.0368,37.6321,실내대피소,4356.0,지진실내구호소
158,번동초등학교운동장,서울특별시,강북구,서울특별시 강북구 오현로 204(번동),127.0407,37.6289,실내대피소,3329.0,지진실내구호소
159,수송중학교운동장,서울특별시,강북구,서울특별시 강북구 번동 456-1,127.0333,37.6362,실내대피소,4071.0,지진실내구호소
160,수송초등학교 운동장,서울특별시,강북구,서울특별시 강북구 한천로124길 14(번동),127.0326,37.6367,실내대피소,1005.0,지진실내구호소
161,오현초등학교운동장,서울특별시,강북구,서울특별시 강북구 월계로 221(번동),127.0468,37.6231,실내대피소,4045.0,지진실내구호소
162,보등골어린이공원,서울특별시,강북구,서울특별시 강북구 수유동 605-209,127.0183,37.635,실내대피소,888.0,지진실내구호소
163,상산어린이공원(플라터너스어린이공원),서울특별시,강북구,서울특별시 강북구 노해로8길 23(수유동),127.0238,37.6383,실내대피소,1006.0,지진실내구호소
164,새싹어린이공원,서울특별시,강북구,서울특별시 강북구 수유동 134-40,127.0195,37.6361,실내대피소,644.0,지진실내구호소
165,색동어린이공원,서울특별시,강북구,서울특별시 강북구 삼양로80나길 52(수유동),127.0206,37.6331,실내대피소,2172.0,지진실내구호소
166,소귀어린이공원,서울특별시,강북구,서울특별시 강북구 수유동 25-1,127.0186,37.6385,실내대피소,881.0,지진실내구호소
167,수유일공원(삼각산공원),서울특별시,강북구,서울특별시 강북구 수유동 605-389,127.0171,37.6304,실내대피소,2459.0,지진실내구호소
168,은모루어린이공원,서울특별시,강북구,서울특별시 강북구 도봉로95길 48(수유동),127.0268,37.6423,실내대피소,918.0,지진실내구호소
169,푸른공원,서울특별시,강북구,서울특별시 강북구 수유동 516-44,127.0084,37.6384,실내대피소,995.0,지진실내구호소
170,희망어린이공원(미루나무어린이공원),서울특별시,강북구,서울특별시 강북구 수유동 193-1,127.0244,37.6405,실내대피소,841.0,지진실내구호소
171,흰구름공원(수유2동근린공원),서울특별시,강북구,서울특별시 강북구 노해로23길 58(수유동),127.0204,37.6457,실내대피소,1092.0,지진실내구호소
172,강북중학교운동장,서울특별시,강북구,서울특별시 강북구 한천로150길 67(수유동),127.0259,37.6447,실내대피소,3312.0,지진실내구호소
173,서울인수초등학교운동장,서울특별시,강북구,서울특별시 강북구 인수봉로 269(수유동),127.0102,37.6426,실내대피소,1562.0,지진실내구호소
174,우이초등학교 운동장,서울특별시,강북구,서울특별시 강북구 삼양로99길 36(수유동),127.0143,37.6383,실내대피소,1105.0,지진실내구호소
175,혜화여자고등학교 운동장,서울특별시,강북구,서울특별시 강북구 인수봉로 127(수유동),127.0131,37.6306,실내대피소,2951.0,지진실내구호소
176,솔밭(근린)공원,서울특별시,강북구,서울특별시 강북구 삼양로 561(우이동),127.0121,37.6521,실내대피소,37911.0,지진실내구호소
177,강북구견인차량보관소(우이동 교통광장),서울특별시,강북구,서울특별시 강북구 우이동 산99-2,127.0127,37.6635,실내대피소,2395.0,지진실내구호소
178,우이제일교회 공터,서울특별시,강북구,서울특별시 강북구 삼양로163길 74(우이동),127.0098,37.6596,실내대피소,670.0,지진실내구호소
179,도봉우체국 공개공지 휴게공원,서울특별시,도봉구,서울특별시 도봉구 노해로 150(쌍문동),127.0268,37.6472,실내대피소,250.0,지진실내구호소
180,덕성여자대학교 운동장,서울특별시,도봉구,서울특별시 도봉구 삼양로144길 33(쌍문동),127.0175,37.6499,실내대피소,17434.0,지진실내구호소
181,동북초등학교 운동장,서울특별시,도봉구,서울특별시 도봉구 시루봉로 53(쌍문동),127.0262,37.6549,실내대피소,700.0,지진실내구호소
182,백운중학교 운동장,서울특별시,도봉구,서울특별시 도봉구 도봉로129길 50(쌍문동),127.0359,37.6558,실내대피소,1904.0,지진실내구호소
183,신도봉중학교 운동장,서울특별시,도봉구,서울특별시 도봉구 도봉로115길 16(쌍문동),127.0333,37.6492,실내대피소,3055.0,지진실내구호소
184,쌍문초등학교 운동장,서울특별시,도봉구,서울특별시 도봉구 우이천로 360(쌍문동),127.0242,37.6486,실내대피소,1420.0,지진실내구호소
185,효문고등학교 운동장,서울특별시,도봉구,서울특별시 도봉구 우이천로 432(쌍문동),127.0177,37.6525,실내대피소,2319.0,지진실내구호소
186,개나리어린이공원,서울특별시,도봉구,서울특별시 도봉구 방학동 638-12,127.0371,37.6673,실내대피소,372.0,지진실내구호소
187,무궁화어린이공원,서울특별시,도봉구,서울특별시 도봉구 방학동 655-31,127.0421,37.6678,실내대피소,479.0,지진실내구호소
188,방학3동가로공원,서울특별시,도봉구,서울특별시 도봉구 방학동 443,127.0275,37.6634,실내대피소,363.0,지진실내구호소
189,사슴어린이공원,서울특별시,도봉구,서울특별시 도봉구 방학동 681-13,127.0417,37.6644,실내대피소,466.0,지진실내구호소
190,샘말어린이공원,서울특별시,도봉구,서울특별시 도봉구 방학동 611-5,127.0315,37.6684,실내대피소,400.0,지진실내구호소
191,생잇들어린이공원,서울특별시,도봉구,서울특별시 도봉구 방학동 644-28,127.0391,37.6689,실내대피소,729.0,지진실내구호소
192,소망어린이공원,서울특별시,도봉구,서울특별시 도봉구 방학동 694-9,127.0369,37.6635,실내대피소,570.0,지진실내구호소
193,원당샘공원,서울특별시,도봉구,서울특별시 도봉구 해등로32가길 16(방학동),127.0222,37.6608,실내대피소,2150.0,지진실내구호소
194,문화고등학교 운동장,서울특별시,도봉구,서울특별시 도봉구 마들로 598(방학동),127.0476,37.6632,실내대피소,6777.0,지진실내구호소
195,운현초등학교 운동장,서울특별시,종로구,서울특별시 종로구 삼일대로 460(운니동),126.9883,37.5757,실내대피소,2300.0,지진실내구호소
196,교동초등학교 운동장,서울특별시,종로구,서울특별시 종로구 삼일대로 446(경운동),126.9876,37.5747,실내대피소,2600.0,지진실내구호소
197,탑골공원,서울특별시,종로구,서울특별시 종로구 종로 99(종로2가),126.9882,37.5713,실내대피소,9300.0,지진실내구호소
198,삼청공원,서울특별시,종로구,서울특별시 종로구 북촌로 134-1 (삼청동),126.9839,37.5879,실내대피소,378440.0,지진실내구호소
199,덕성여자고등학교 운동장,서울특별시,종로구,서울특별시 종로구 안국동 34,126.9826,37.5779,실내대피소,3560.0,지진실내구호소
200,덕성여자중학교 운동장,서울특별시,종로구,서울특별시 종로구 율곡로3길 49(송현동),126.9821,37.5778,실내대피소,2560.0,지진실내구호소
201,재동초등학교 운동장,서울특별시,종로구,서울특별시 종로구 북촌로4길 7(가회동),126.9855,37.5795,실내대피소,3357.0,지진실내구호소
202,대동세무고등학교 운동장,서울특별시,종로구,서울특별시 종로구 계동길 84-10 (계동),126.9878,37.5811,실내대피소,4257.0,지진실내구호소
203,중앙고등학교 운동장,서울특별시,종로구,서울특별시 종로구 창덕궁길 164(계동),126.9869,37.5854,실내대피소,10218.0,지진실내구호소
204,원서공원,서울특별시,종로구,서울특별시 종로구 원서동 206-4,126.9885,37.5782,실내대피소,767.0,지진실내구호소
205,연지공원,서울특별시,종로구,서울특별시 종로구 연지동 1-38,127.0007,37.5757,실내대피소,7895.0,지진실내구호소
206,효제초등학교 운동장,서울특별시,종로구,서울특별시 종로구 대학로 12(효제동),127.003,37.5726,실내대피소,5794.0,지진실내구호소
207,동대문성곽공원(흥인지문공원),서울특별시,종로구,서울특별시 종로구 종로6가 70,127.0088,37.5719,실내대피소,9400.0,지진실내구호소
208,서울사대부설여자중학교 운동장,서울특별시,종로구,서울특별시 종로구 대학로 64(이화동),127.0034,37.5774,실내대피소,4476.0,지진실내구호소
209,낙산공원,서울특별시,종로구,서울특별시 종로구 낙산1길 28-18 (동숭동),127.0067,37.5798,실내대피소,577.0,지진실내구호소
210,올림픽기념국민생활관,서울특별시,종로구,서울특별시 종로구 성균관로 91(혜화동),126.9988,37.5901,실내대피소,1402.0,지진실내구호소
211,명륜공원,서울특별시,종로구,서울특별시 종로구 혜화로9길 24-9 (명륜1가),126.998,37.588,실내대피소,1025.0,지진실내구호소
212,와룡공원,서울특별시,종로구,서울특별시 종로구 와룡공원길 192(명륜3가),126.99,37.591,실내대피소,1200.0,지진실내구호소
213,지봉골공원,서울특별시,종로구,서울특별시 종로구 지봉로 97(창신동),127.0147,37.5787,실내대피소,1312.0,지진실내구호소
214,창신어린이공원,서울특별시,종로구,서울특별시 종로구 창신동 23-362,127.0129,37.578,실내대피소,691.0,지진실내구호소
215,명신초등학교 운동장,서울특별시,종로구,서울특별시 종로구 낙산길 250(창신동),127.0143,37.5816,실내대피소,2857.0,지진실내구호소
216,창신초등학교 운동장,서울특별시,종로구,서울특별시 종로구 지봉로 73(창신동),127.015,37.5763,실내대피소,2123.0,지진실내구호소
217,숭인(근린)공원,서울특별시,종로구,서울특별시 종로구 동망산길 150(숭인동),127.0178,37.5765,실내대피소,34047.0,지진실내구호소
218,종로산업정보학교 운동장,서울특별시,종로구,서울특별시 종로구 숭인동 242,127.0172,37.5717,실내대피소,1910.0,지진실내구호소
219,월암근린공원,서울특별시,종로구,서울특별시 종로구 송월동 산1-44,126.9657,37.5709,실내대피소,12000.0,지진실내구호소
220,대신고등학교 운동장,서울특별시,종로구,서울특별시 종로구 행촌동 171-1,126.9617,37.573,실내대피소,4424.0,지진실내구호소
221,감나무골공원,서울특별시,종로구,서울특별시 종로구 평창동 495-4,126.9703,37.6127,실내대피소,2507.0,지진실내구호소
222,참샘골공원,서울특별시,종로구,서울특별시 종로구 평창동 470,126.9746,37.6151,실내대피소,2585.0,지진실내구호소
223,평창공원,서울특별시,종로구,서울특별시 종로구 평창동 478,126.9778,37.6105,실내대피소,913.0,지진실내구호소
224,후창공원,서울특별시,종로구,서울특별시 종로구 평창문화로 70(평창동),126.9645,37.6101,실내대피소,1651.0,지진실내구호소
225,서울예술고등학교 운동장,서울특별시,종로구,서울특별시 종로구 평창동 217-0,126.9696,37.6054,실내대피소,4725.0,지진실내구호소
226,상명대학교사범대학 부속초등학교 운동장,서울특별시,종로구,서울특별시 종로구 홍지문2길 20(홍지동),126.9565,37.6006,실내대피소,1340.0,지진실내구호소
227,상명대학교사범대학부속여자중고등학교 운동장,서울특별시,종로구,서울특별시 종로구 홍지문길 9-1 (홍지동),126.9537,37.6035,실내대피소,5053.0,지진실내구호소
228,세검정초등학교 운동장,서울특별시,종로구,서울특별시 종로구 세검정로9길 1(신영동),126.9609,37.6027,실내대피소,1735.0,지진실내구호소
229,무악어린이공원,서울특별시,종로구,서울특별시 종로구 무악동 산2-83,126.9606,37.5775,실내대피소,4953.0,지진실내구호소
230,남산초등학교 운동장,서울특별시,중구,서울특별시 중구 퇴계로22길 17(남산동2가),126.9862,37.5602,실내대피소,1148.0,지진실내구호소
231,덕수중학교 운동장,서울특별시,중구,서울특별시 중구 마른내로9길 10(인현동2가),126.9971,37.565,실내대피소,5685.0,지진실내구호소
232,장충단공원,서울특별시,중구,서울특별시 중구 동호로 261(장충동2가),127.0043,37.5577,실내대피소,32651.0,지진실내구호소
233,충무초등학교 운동장,서울특별시,중구,서울특별시 중구 퇴계로50길 13(장충동2가),127.0018,37.5622,실내대피소,3863.0,지진실내구호소
234,광희초등학교 운동장,서울특별시,중구,서울특별시 중구 다산로 269(신당동),127.0151,37.5671,실내대피소,4499.0,지진실내구호소
235,금호여자중학교 운동장,서울특별시,중구,서울특별시 중구 청구로 6(신당동),127.0203,37.5584,실내대피소,3967.0,지진실내구호소
236,성동고등학교 운동장,서울특별시,중구,서울특별시 중구 퇴계로90길 17(신당동),127.0224,37.5637,실내대피소,3670.0,지진실내구호소
237,성동글로벌경영고등학교 운동장,서울특별시,중구,서울특별시 중구 퇴계로 375(신당동),127.0131,37.5655,실내대피소,3002.0,지진실내구호소
238,장충초등학교 운동장,서울특별시,중구,서울특별시 중구 청구로17길 40(신당동),127.0111,37.5595,실내대피소,3123.0,지진실내구호소
239,청구초등학교 운동장,서울특별시,중구,서울특별시 중구 다산로 170(신당동),127.0138,37.5583,실내대피소,5835.0,지진실내구호소
240,한양공업고등학교 운동장,서울특별시,중구,서울특별시 중구 을지로 299(신당동),127.0117,37.5656,실내대피소,2601.0,지진실내구호소
241,흥인초등학교 운동장,서울특별시,중구,서울특별시 중구 청구로6길 11(신당동),127.0142,37.5603,실내대피소,1339.0,지진실내구호소
242,성동공업고등학교 운동장,서울특별시,중구,서울특별시 중구 다산로 290(흥인동),127.0164,37.5687,실내대피소,3670.0,지진실내구호소
243,덕수초등학교 운동장,서울특별시,중구,서울특별시 중구 덕수궁길 140(정동),126.9747,37.5689,실내대피소,2536.0,지진실내구호소
244,창덕여자중학교 운동장,서울특별시,중구,서울특별시 중구 정동길 22(정동),126.9695,37.5665,실내대피소,5969.0,지진실내구호소
245,서울의료보건고등학교(경기여자상업고등학교) 운동장,서울특별시,중구,서울특별시 중구 만리재로37길 30(만리동1가),126.9667,37.5569,실내대피소,788.0,지진실내구호소
246,손기정체육공원,서울특별시,중구,서울특별시 중구 손기정로 101-4 (만리동2가),126.966,37.5563,실내대피소,4244.0,지진실내구호소
247,봉래초등학교 운동장,서울특별시,중구,서울특별시 중구 손기정로 73(만리동2가),126.964,37.5562,실내대피소,2436.0,지진실내구호소
248,새나라어린이공원,서울특별시,용산구,서울특별시 용산구 후암로13가길 25(후암동),126.9764,37.548,실내대피소,415.0,지진실내구호소
249,삼광초등학교 운동장,서울특별시,용산구,서울특별시 용산구 두텁바위로1나길 19(후암동),126.9766,37.5468,실내대피소,662.0,지진실내구호소
250,후암초등학교 운동장,서울특별시,용산구,서울특별시 용산구 후암동 339-1,126.9818,37.5508,실내대피소,3381.0,지진실내구호소
251,보성여중고등학교 운동장,서울특별시,용산구,서울특별시 용산구 용산동2가 1-1123,126.9844,37.5427,실내대피소,3253.0,지진실내구호소
252,용산고등학교 운동장,서울특별시,용산구,서울특별시 용산구 두텁바위로 60(용산동2가),126.9804,37.5449,실내대피소,6430.0,지진실내구호소
253,용암초등학교 운동장,서울특별시,용산구,서울특별시 용산구 녹사평대로60길 39(용산동2가),126.9892,37.5448,실내대피소,3141.0,지진실내구호소
254,두텁바위공원,서울특별시,용산구,서울특별시 용산구 동자동 50,126.9729,37.552,실내대피소,668.0,지진실내구호소
255,새꿈어린이공원,서울특별시,용산구,서울특별시 용산구 동자동 8-1,126.9742,37.5524,실내대피소,1594.0,지진실내구호소
256,청파어린이공원,서울특별시,용산구,서울특별시 용산구 서계동 226-3,126.9682,37.5536,실내대피소,2000.0,지진실내구호소
257,청파초등학교 운동장,서울특별시,용산구,서울특별시 용산구 청파동2가 1-42,126.9641,37.5473,실내대피소,4220.0,지진실내구호소
258,돌모루어린이공원,서울특별시,용산구,서울특별시 용산구 원효로97길 50(청파동3가),126.9685,37.5429,실내대피소,1900.0,지진실내구호소
259,청파선린공원,서울특별시,용산구,서울특별시 용산구 청파동3가 118-56,126.9656,37.5434,실내대피소,1940.0,지진실내구호소
260,선린인터넷고등학교 운동장,서울특별시,용산구,서울특별시 용산구 원효로97길 33-4 (청파동3가),126.9669,37.5422,실내대피소,5670.0,지진실내구호소
261,문화원 정자마당,서울특별시,용산구,서울특별시 용산구 원효로2가 87-2,126.9519,37.5336,실내대피소,621.0,지진실내구호소
262,남정초등학교 운동장,서울특별시,용산구,서울특별시 용산구 원효로2가 54-1,126.965,37.5359,실내대피소,2767.0,지진실내구호소
263,산천동 마을마당,서울특별시,용산구,서울특별시 용산구 산천동 200,126.953,37.5355,실내대피소,667.0,지진실내구호소
264,원효초등학교 운동장,서울특별시,용산구,서울특별시 용산구 효창원로13길 38(산천동),126.9519,37.536,실내대피소,1445.0,지진실내구호소
265,늘푸른어린이공원,서울특별시,용산구,서울특별시 용산구 원효로41가길 14-19 (원효로3가),126.9567,37.5348,실내대피소,720.0,지진실내구호소
266,선린중학교 운동장,서울특별시,용산구,서울특별시 용산구 원효로3가 131-2,126.9655,37.5422,실내대피소,4170.0,지진실내구호소
267,성심여자중고등학교 운동장,서울특별시,용산구,서울특별시 용산구 원효로19길 49(원효로4가),126.9545,37.5338,실내대피소,2006.0,지진실내구호소
268,백범김구기념관,서울특별시,용산구,서울특별시 용산구 임정로 26(효창동),126.9596,37.5438,실내대피소,1492.0,지진실내구호소
269,효창운동장,서울특별시,용산구,서울특별시 용산구 효창원로 177-15 (효창동),126.9611,37.5435,실내대피소,11722.0,지진실내구호소
270,금양초등학교 운동장,서울특별시,용산구,서울특별시 용산구 효창원로 137(효창동),126.9612,37.5403,실내대피소,2622.0,지진실내구호소
271,솔밭어린이공원(용산열린정원),서울특별시,용산구,서울특별시 용산구 한강로1가 47,126.9735,37.5374,실내대피소,2090.0,지진실내구호소
272,용산초등학교 운동장,서울특별시,용산구,서울특별시 용산구 한강로2가 1-0,126.9723,37.5353,실내대피소,1450.0,지진실내구호소
273,기와터공원,서울특별시,용산구,서울특별시 용산구 한강로3가 63-388,126.9693,37.5259,실내대피소,2225.0,지진실내구호소
274,용산철도고등학교 운동장,서울특별시,용산구,서울특별시 용산구 서빙고로 24(한강로3가),126.9676,37.524,실내대피소,4999.0,지진실내구호소
275,꿈나무공원,서울특별시,용산구,서울특별시 용산구 이촌로 219(이촌동),126.9718,37.5208,실내대피소,1413.0,지진실내구호소
276,이촌한우리공원,서울특별시,용산구,서울특별시 용산구 이촌동 437,126.9813,37.5176,실내대피소,4325.0,지진실내구호소
277,용강중학교 운동장,서울특별시,용산구,서울특별시 용산구 이촌로65가길 91(이촌동),126.9765,37.5208,실내대피소,198.0,지진실내구호소
278,중경고등학교 운동장,서울특별시,용산구,서울특별시 용산구 이촌로84길 34(이촌동),126.9755,37.5173,실내대피소,755.0,지진실내구호소
279,라틴아메리카공원,서울특별시,용산구,서울특별시 용산구 이태원동 258-467,126.9971,37.5407,실내대피소,635.0,지진실내구호소
280,소월길 어린이공원,서울특별시,용산구,서울특별시 용산구 이태원동 463,126.9892,37.5435,실내대피소,570.0,지진실내구호소
281,이태원 마을숲 소공원,서울특별시,용산구,서울특별시 용산구 이태원동 260-93,126.9915,37.5412,실내대피소,661.0,지진실내구호소
282,이태원 어린이공원,서울특별시,용산구,서울특별시 용산구 회나무로6길 11-8 (이태원동),126.9892,37.5382,실내대피소,2692.0,지진실내구호소
283,용산구청(광장),서울특별시,용산구,서울특별시 용산구 녹사평대로 150(이태원동),126.9897,37.5327,실내대피소,2300.0,지진실내구호소
284,보광초등학교 운동장,서울특별시,용산구,서울특별시 용산구 우사단로 20(이태원동),126.9966,37.5321,실내대피소,3197.0,지진실내구호소
285,이태원초등학교 운동장,서울특별시,용산구,서울특별시 용산구 이태원동 406,126.9879,37.5356,실내대피소,1408.0,지진실내구호소
286,독서당어린이공원,서울특별시,용산구,서울특별시 용산구 한남동 1-32,127.0124,37.5344,실내대피소,702.0,지진실내구호소
287,응봉근린공원(매봉산공원),서울특별시,용산구,서울특별시 용산구 한남동 726-181,127.0029,37.5456,실내대피소,4141.0,지진실내구호소
288,한남어린이공원,서울특별시,용산구,서울특별시 용산구 한남동 15-5,127.0138,37.5372,실내대피소,490.0,지진실내구호소
289,한남동공영주차장,서울특별시,용산구,서울특별시 용산구 이태원로 224-19 (한남동),127.0002,37.5348,실내대피소,1051.0,지진실내구호소
290,한남초등학교 운동장,서울특별시,용산구,서울특별시 용산구 한남대로 112(한남동),127.0049,37.539,실내대피소,9810.0,지진실내구호소
291,서빙고초등학교 운동장,서울특별시,용산구,서울특별시 용산구 서빙고로51길 14(서빙고동),126.9915,37.5212,실내대피소,7720.0,지진실내구호소
292,한강중학교 운동장,서울특별시,용산구,서울특별시 용산구 녹사평대로 73(서빙고동),126.9916,37.5242,실내대피소,8720.0,지진실내구호소
293,달맞이공원,서울특별시,용산구,서울특별시 용산구 보광동 231-17,126.998,37.5279,실내대피소,634.0,지진실내구호소
294,꽃재어린이공원,서울특별시,성동구,서울특별시 성동구 하왕십리동 560,127.0283,37.5674,실내대피소,2900.0,지진실내구호소
295,무학봉근린공원,서울특별시,성동구,서울특별시 성동구 하왕십리동 890-243,127.0265,37.5623,실내대피소,28845.0,지진실내구호소
296,도선고등학교 운동장,서울특별시,성동구,서울특별시 성동구 마장로 156(하왕십리동),127.027,37.5663,실내대피소,2730.0,지진실내구호소
297,무학초등학교 운동장,서울특별시,성동구,서울특별시 성동구 무학봉15길 21(하왕십리동),127.0299,37.5627,실내대피소,3791.0,지진실내구호소
298,숭신초등학교 운동장,서울특별시,성동구,서울특별시 성동구 마장로 161(하왕십리동),127.0275,37.5674,실내대피소,434.0,지진실내구호소
299,도선어린이공원,서울특별시,성동구,서울특별시 성동구 무학로8길 8(홍익동),127.0315,37.5654,실내대피소,2232.0,지진실내구호소
300,성동구보건소 주차장,서울특별시,성동구,서울특별시 성동구 마장로23길 10(홍익동),127.0329,37.567,실내대피소,570.0,지진실내구호소
301,왕십리문화공원,서울특별시,성동구,서울특별시 성동구 도선동 35-2,127.0352,37.5617,실내대피소,1315.0,지진실내구호소
302,동마장공원,서울특별시,성동구,서울특별시 성동구 마장로42길 13(마장동),127.0457,37.566,실내대피소,1090.0,지진실내구호소
303,동마중학교 운동장,서울특별시,성동구,서울특별시 성동구 마조로11길 18(마장동),127.0398,37.5623,실내대피소,3105.0,지진실내구호소
304,동명초등학교 운동장,서울특별시,성동구,서울특별시 성동구 마장로29길 29(마장동),127.0357,37.5683,실내대피소,4256.0,지진실내구호소
305,마장중학교 운동장,서울특별시,성동구,서울특별시 성동구 마장로35나길 31(마장동),127.0412,37.5685,실내대피소,3280.0,지진실내구호소
306,마장초등학교 운동장,서울특별시,성동구,서울특별시 성동구 마장로35나길 31(마장동),127.0422,37.5679,실내대피소,2064.0,지진실내구호소
307,거주자우선주차장(사근동),서울특별시,성동구,서울특별시 성동구 사근동 282-2,127.0473,37.565,실내대피소,2063.0,지진실내구호소
308,사근초등학교 운동장,서울특별시,성동구,서울특별시 성동구 사근동11길 16(사근동),127.0479,37.5625,실내대피소,2200.0,지진실내구호소
309,한양대사범대학부속중학교 운동장,서울특별시,성동구,서울특별시 성동구 마조로 42(사근동),127.0421,37.5609,실내대피소,7788.0,지진실내구호소
310,한양여자대학교 운동장,서울특별시,성동구,서울특별시 성동구 살곶이길 200(사근동),127.0498,37.558,실내대피소,2270.0,지진실내구호소
311,무지개 텃밭,서울특별시,성동구,서울특별시 성동구 행당동 76-3,127.0411,37.5539,실내대피소,6041.0,지진실내구호소
312,소월아트홀 광장,서울특별시,성동구,서울특별시 성동구 왕십리로 281(행당동),127.0363,37.5591,실내대피소,2506.0,지진실내구호소
313,왕십리광장,서울특별시,성동구,서울특별시 성동구 행당동 192-3,127.0372,37.5615,실내대피소,10067.0,지진실내구호소
314,한양광장,서울특별시,성동구,서울특별시 성동구 행당동 20-2,127.0399,37.5581,실내대피소,2386.0,지진실내구호소
315,덕수고등학교 운동장,서울특별시,성동구,서울특별시 성동구 왕십리로 199(행당동),127.0422,37.5552,실내대피소,8640.0,지진실내구호소
316,무학여자고등학교 운동장,서울특별시,성동구,서울특별시 성동구 고산자로 197(행당동),127.0332,37.5576,실내대피소,2600.0,지진실내구호소
317,무학중학교 운동장,서울특별시,성동구,서울특별시 성동구 고산자로 197(행당동),127.0322,37.5573,실내대피소,1800.0,지진실내구호소
318,행당중학교 운동장,서울특별시,성동구,서울특별시 성동구 행당동 66-3,127.0425,37.5541,실내대피소,10048.0,지진실내구호소
319,행당초등학교 운동장,서울특별시,성동구,서울특별시 성동구 고산자로8길 6(행당동),127.0345,37.557,실내대피소,3705.0,지진실내구호소
320,응봉동둔치 체육공원,서울특별시,성동구,서울특별시 성동구 응봉동 9-5,127.0372,37.5516,실내대피소,34800.0,지진실내구호소
321,광희중학교 운동장,서울특별시,성동구,서울특별시 성동구 독서당로62길 46(응봉동),127.0346,37.5514,실내대피소,3927.0,지진실내구호소
322,응봉초등학교 운동장,서울특별시,성동구,서울특별시 성동구 독서당로62길 28(응봉동),127.0335,37.5497,실내대피소,3905.0,지진실내구호소
323,독서당공원,서울특별시,성동구,"서울특별시 성동구 금호로 100(금호동1가, 벽산아파트)",127.0289,37.5502,실내대피소,2852.0,지진실내구호소
324,금북초등학교 운동장,서울특별시,성동구,서울특별시 성동구 행당로1길 13(금호동1가),127.0234,37.5569,실내대피소,1719.0,지진실내구호소
325,금호고등학교 운동장,서울특별시,성동구,서울특별시 성동구 금호로 118(금호동1가),127.0236,37.5532,실내대피소,1500.0,지진실내구호소
326,금호초등학교 운동장,서울특별시,성동구,서울특별시 성동구 무수막길 69(금호동2가),127.0202,37.5524,실내대피소,2178.0,지진실내구호소
327,금호근린공원,서울특별시,성동구,서울특별시 성동구 금호동3가 1266-2,127.0191,37.5493,실내대피소,13467.0,지진실내구호소
328,달맞이공원,서울특별시,성동구,서울특별시 성동구 금호동4가 367-1,127.0203,37.545,실내대피소,9246.0,지진실내구호소
329,금옥초등학교 운동장,서울특별시,성동구,서울특별시 성동구 독서당로 251(금호동4가),127.0179,37.5466,실내대피소,1246.0,지진실내구호소
330,옥수초등학교 운동장,서울특별시,성동구,서울특별시 성동구 금호로1길 25(금호동4가),127.0221,37.5459,실내대피소,2521.0,지진실내구호소
331,매봉소공원,서울특별시,성동구,서울특별시 성동구 옥수동 561-1,127.0111,37.5457,실내대피소,2516.0,지진실내구호소
332,동호초등학교 운동장,서울특별시,성동구,서울특별시 성동구 매봉길 49-35 (옥수동),127.0102,37.5462,실내대피소,990.0,지진실내구호소
333,옥정중학교 운동장,서울특별시,성동구,서울특별시 성동구 한림말길 11(옥수동),127.0127,37.5414,실내대피소,3189.0,지진실내구호소
334,옥정초등학교 운동장,서울특별시,성동구,서울특별시 성동구 한림말길 43(옥수동),127.0157,37.5416,실내대피소,2006.0,지진실내구호소
335,서울숲공원,서울특별시,성동구,서울특별시 성동구 뚝섬로 273(성수동1가),127.0373,37.5445,실내대피소,22178.0,지진실내구호소
336,성원어린이 공원,서울특별시,성동구,서울특별시 성동구 상원10길 21(성수동1가),127.05,37.5502,실내대피소,633.0,지진실내구호소
337,경동초등학교 운동장,서울특별시,성동구,서울특별시 성동구 성수일로 34(성수동1가),127.0508,37.5427,실내대피소,2849.0,지진실내구호소
338,경일고등학교 운동장,서울특별시,성동구,서울특별시 성동구 성수일로 27(성수동1가),127.0477,37.5432,실내대피소,4240.0,지진실내구호소
339,경일초등학교 운동장,서울특별시,성동구,서울특별시 성동구 뚝섬로 332(성수동1가),127.0469,37.5403,실내대피소,2245.0,지진실내구호소
340,성수중학교 운동장,서울특별시,성동구,서울특별시 성동구 서울숲길 18(성수동1가),127.0386,37.5479,실내대피소,2596.0,지진실내구호소
341,성삼공원,서울특별시,성동구,서울특별시 성동구 성수동2가 273-11,127.0601,37.542,실내대피소,578.0,지진실내구호소
342,성수공원,서울특별시,성동구,서울특별시 성동구 성수동2가 302-25,127.0524,37.5447,실내대피소,1238.0,지진실내구호소
343,향림공원,서울특별시,성동구,서울특별시 성동구 성수동2가 289-28,127.0534,37.5467,실내대피소,248.0,지진실내구호소
344,경수중학교 운동장,서울특별시,성동구,서울특별시 성동구 뚝섬로13길 14(성수동2가),127.0583,37.5391,실내대피소,2739.0,지진실내구호소
345,경수초등학교 운동장,서울특별시,성동구,서울특별시 성동구 뚝섬로13길 22(성수동2가),127.0582,37.5399,실내대피소,3280.0,지진실내구호소
346,성수공업고등학교 운동장,서울특별시,성동구,서울특별시 성동구 뚝섬로 365(성수동2가),127.0512,37.5402,실내대피소,1767.0,지진실내구호소
347,성수초등학교 운동장,서울특별시,성동구,서울특별시 성동구 아차산로17길 21(성수동2가),127.0638,37.544,실내대피소,1560.0,지진실내구호소
348,성원중학교 운동장,서울특별시,성동구,서울특별시 성동구 성덕정9가길 13(성수동2가),127.0516,37.5391,실내대피소,3435.0,지진실내구호소
349,송정체육공원,서울특별시,성동구,서울특별시 성동구 송정동 73-254,127.0673,37.5532,실내대피소,3350.0,지진실내구호소
350,송원초등학교 운동장,서울특별시,성동구,서울특별시 성동구 동일로43길 9(송정동),127.0692,37.5539,실내대피소,738.0,지진실내구호소
351,용답근린공원(용답휴식공원),서울특별시,성동구,서울특별시 성동구 용답동 128-3,127.0475,37.5699,실내대피소,6046.0,지진실내구호소
352,용답토속공원,서울특별시,성동구,서울특별시 성동구 천호대로 336(용답동),127.0568,37.5632,실내대피소,4832.0,지진실내구호소
353,중랑물재생센터,서울특별시,성동구,서울특별시 성동구 자동차시장3길 64(용답동),127.0641,37.56,실내대피소,4500.0,지진실내구호소
354,용답초등학교 운동장,서울특별시,성동구,서울특별시 성동구 용답25길 1(용답동),127.0541,37.5603,실내대피소,6034.0,지진실내구호소
355,대원외국어고등학교 운동장,서울특별시,광진구,서울특별시 광진구 용마산로22길 26(중곡동),127.089,37.5629,실내대피소,3306.0,지진실내구호소
356,용곡중학교 운동장,서울특별시,광진구,서울특별시 광진구 용마산로22길 76(중곡동),127.0888,37.5656,실내대피소,2117.0,지진실내구호소
357,용곡초등학교 운동장,서울특별시,광진구,서울특별시 광진구 용마산로22길 82(중곡동),127.0885,37.5667,실내대피소,4432.0,지진실내구호소
358,용마초등학교 운동장,서울특별시,광진구,서울특별시 광진구 천호대로113길 10(중곡동),127.0841,37.5578,실내대피소,3583.0,지진실내구호소
359,중광초등학교 운동장,서울특별시,광진구,서울특별시 광진구 긴고랑로13길 59(중곡동),127.0826,37.565,실내대피소,653.0,지진실내구호소
360,중마초등학교 운동장,서울특별시,광진구,서울특별시 광진구 동일로72길 43(중곡동),127.0798,37.5657,실내대피소,2088.0,지진실내구호소
361,서울특별시 광진구 광나루로36길 47(구의동) 238-1,서울특별시,광진구,서울특별시 광진구 구의동 238-1,127.0865,37.5423,실내대피소,400.0,지진실내구호소
362,광진초등학교 운동장,서울특별시,광진구,서울특별시 광진구 자양로40길 41(구의동),127.0908,37.5476,실내대피소,1062.0,지진실내구호소
363,구남초등학교 운동장,서울특별시,광진구,서울특별시 광진구 구의강변로 69(구의동),127.0922,37.5366,실내대피소,2356.0,지진실내구호소
364,동국대학교 사범대학부속 여자중고등학교 운동장,서울특별시,광진구,서울특별시 광진구 광나루로36길 47(구의동),127.0868,37.5426,실내대피소,6100.0,지진실내구호소
365,동의초등학교 운동장,서울특별시,광진구,서울특별시 광진구 영화사로 111(구의동),127.0984,37.5535,실내대피소,3826.0,지진실내구호소
366,광진구민체육센터,서울특별시,광진구,서울특별시 광진구 광장동 318,127.1071,37.5463,실내대피소,1806.0,지진실내구호소
367,광남고등학교 운동장,서울특별시,광진구,서울특별시 광진구 아차산로70길 17-16 (광장동),127.1023,37.5411,실내대피소,1784.0,지진실내구호소
368,광남중학교 운동장,서울특별시,광진구,서울특별시 광진구 아차산로70길 17-62 (광장동),127.1016,37.5401,실내대피소,2845.0,지진실내구호소
369,광남초등학교 운동장,서울특별시,광진구,서울특별시 광진구 아차산로70길 35(광장동),127.101,37.5408,실내대피소,3048.0,지진실내구호소
370,광장중학교 운동장,서울특별시,광진구,서울특별시 광진구 광장로1길 1(광장동),127.1012,37.5468,실내대피소,1866.0,지진실내구호소
371,광장초등학교 운동장,서울특별시,광진구,서울특별시 광진구 광장로1길 27(광장동),127.1014,37.5481,실내대피소,2452.0,지진실내구호소
372,양진초등학교 운동장,서울특별시,광진구,서울특별시 광진구 워커힐로 32(광장동),127.0977,37.5444,실내대피소,1184.0,지진실내구호소
373,광양고등학교 운동장,서울특별시,광진구,서울특별시 광진구 자양로3가길 31(자양동),127.0855,37.5291,실내대피소,4669.0,지진실내구호소
374,광양중학교 운동장,서울특별시,광진구,서울특별시 광진구 자양로3길 7(자양동),127.086,37.5302,실내대피소,3233.0,지진실내구호소
375,광진중학교 운동장,서울특별시,광진구,서울특별시 광진구 뚝섬로64길 45(자양동),127.0896,37.5315,실내대피소,4388.0,지진실내구호소
376,동자초등학교 운동장,서울특별시,광진구,서울특별시 광진구 뚝섬로 561(자양동),127.0725,37.5345,실내대피소,3698.0,지진실내구호소
377,성동초등학교 운동장,서울특별시,광진구,서울특별시 광진구 자양로4길 63(자양동),127.0896,37.5328,실내대피소,2779.0,지진실내구호소
378,성자초등학교 운동장,서울특별시,광진구,서울특별시 광진구 뚝섬로56길 7(자양동),127.0831,37.531,실내대피소,1472.0,지진실내구호소
379,신양중학교 운동장,서울특별시,광진구,서울특별시 광진구 자양강변길 73(자양동),127.0635,37.5331,실내대피소,3198.0,지진실내구호소
380,신양초등학교 운동장,서울특별시,광진구,서울특별시 광진구 능동로 42(자양동),127.0693,37.5344,실내대피소,2344.0,지진실내구호소
381,신자초등학교 운동장,서울특별시,광진구,서울특별시 광진구 뚝섬로46길 64(자양동),127.0754,37.5299,실내대피소,2261.0,지진실내구호소
382,양남초등학교 운동장,서울특별시,광진구,서울특별시 광진구 뚝섬로64길 71(자양동),127.0896,37.5305,실내대피소,3580.0,지진실내구호소
383,자양고등학교 운동장,서울특별시,광진구,서울특별시 광진구 뚝섬로37길 28(자양동),127.0727,37.5352,실내대피소,4183.0,지진실내구호소
384,자양중학교 운동장,서울특별시,광진구,서울특별시 광진구 뚝섬로41길 33(자양동),127.0746,37.535,실내대피소,4150.0,지진실내구호소
385,자양초등학교 운동장,서울특별시,광진구,서울특별시 광진구 아차산로44길 26(자양동),127.0797,37.5367,실내대피소,910.0,지진실내구호소
386,건국대부속중학교 운동장,서울특별시,광진구,서울특별시 광진구 자양로 145-1 (화양동),127.0822,37.5407,실내대피소,5794.0,지진실내구호소
387,건국대학교사범대학부속고등학교 운동장,서울특별시,광진구,서울특별시 광진구 자양로 145-1 (화양동),127.0802,37.5396,실내대피소,4926.0,지진실내구호소
388,구의중학교 운동장,서울특별시,광진구,서울특별시 광진구 광나루로30길 80(화양동),127.079,37.5434,실내대피소,3607.0,지진실내구호소
389,구의초등학교 운동장,서울특별시,광진구,서울특별시 광진구 광나루로30길 49(화양동),127.0801,37.5427,실내대피소,3297.0,지진실내구호소
390,화양초등학교 운동장,서울특별시,광진구,서울특별시 광진구 군자로 9(화양동),127.0712,37.5441,실내대피소,1793.0,지진실내구호소
391,세종초등학교 운동장,서울특별시,광진구,서울특별시 광진구 군자로 114(군자동),127.073,37.5527,실내대피소,2106.0,지진실내구호소
392,장안초등학교 운동장,서울특별시,광진구,서울특별시 광진구 군자로 74(군자동),127.0718,37.55,실내대피소,2097.0,지진실내구호소
393,우산각어린이공원,서울특별시,동대문구,서울특별시 동대문구 신설동 109-4,127.0243,37.5733,실내대피소,5294.0,지진실내구호소
394,대광고등학교 운동장,서울특별시,동대문구,서울특별시 동대문구 신설동 53-3,127.0237,37.5779,실내대피소,4500.0,지진실내구호소
395,용두희망어린이공원,서울특별시,동대문구,서울특별시 동대문구 용두동 715-0,127.0263,37.58,실내대피소,1560.0,지진실내구호소
396,용두초등학교 운동장,서울특별시,동대문구,서울특별시 동대문구 용두동 237-1,127.0289,37.5756,실내대피소,4500.0,지진실내구호소
397,방아다리어린이공원,서울특별시,동대문구,서울특별시 동대문구 제기동 132-1,127.0348,37.585,실내대피소,1537.0,지진실내구호소
398,성일중학교 운동장,서울특별시,동대문구,서울특별시 동대문구 제기동 271-41,127.0339,37.5811,실내대피소,1681.0,지진실내구호소
399,정화여자상업고등학교 운동장,서울특별시,동대문구,서울특별시 동대문구 제기동 293-0,127.0407,37.5855,실내대피소,636.0,지진실내구호소
400,종암초등학교 운동장,서울특별시,동대문구,서울특별시 동대문구 제기동 1157-0,127.0314,37.5817,실내대피소,4412.0,지진실내구호소
401,홍파초등학교 운동장,서울특별시,동대문구,서울특별시 동대문구 고산자로 518(제기동),127.0389,37.5861,실내대피소,907.0,지진실내구호소
402,배봉산공원 야외무대,서울특별시,동대문구,서울특별시 동대문구 전농동 산32-20,127.063,37.5784,실내대피소,284421.0,지진실내구호소
403,아름드리어린이공원,서울특별시,동대문구,서울특별시 동대문구 전농동 688-7,127.0596,37.579,실내대피소,2626.0,지진실내구호소
404,동대문중학교 운동장,서울특별시,동대문구,서울특별시 동대문구 전농동 322-5,127.0525,37.5742,실내대피소,2031.0,지진실내구호소
405,배봉초등학교 운동장,서울특별시,동대문구,서울특별시 동대문구 전농동 3-111,127.0663,37.5796,실내대피소,3265.0,지진실내구호소
406,전곡초등학교 운동장,서울특별시,동대문구,서울특별시 동대문구 전농동 188-0,127.0568,37.5802,실내대피소,2230.0,지진실내구호소
407,전농중학교 운동장,서울특별시,동대문구,서울특별시 동대문구 전농동 58-1,127.0595,37.5809,실내대피소,6640.0,지진실내구호소
408,전농초등학교 운동장,서울특별시,동대문구,서울특별시 동대문구 전농동 298-0,127.0545,37.5742,실내대피소,2066.0,지진실내구호소
409,전동초등학교 운동장,서울특별시,동대문구,서울특별시 동대문구 전농동 45-41,127.0615,37.5789,실내대피소,1755.0,지진실내구호소
410,전일중학교 운동장,서울특별시,동대문구,서울특별시 동대문구 전농동 60-1,127.0585,37.5812,실내대피소,5600.0,지진실내구호소
411,해성여자고등학교 운동장,서울특별시,동대문구,서울특별시 동대문구 전농동 90-3,127.0572,37.5812,실내대피소,5900.0,지진실내구호소
412,간데메공원,서울특별시,동대문구,서울특별시 동대문구 답십리동 471-0,127.0486,37.5733,실내대피소,15179.0,지진실내구호소
413,동산어린이공원,서울특별시,동대문구,서울특별시 동대문구 답십리동 998-1,127.0575,37.5669,실내대피소,1359.0,지진실내구호소
414,쉼터어린이공원,서울특별시,동대문구,서울특별시 동대문구 답십리동 952-5,127.0595,37.5647,실내대피소,1695.0,지진실내구호소
415,답십리초등학교 운동장,서울특별시,동대문구,서울특별시 동대문구 답십리동 274-0,127.0554,37.5683,실내대피소,2550.0,지진실내구호소
416,동답초등학교 운동장,서울특별시,동대문구,서울특별시 동대문구 답십리동 2-24,127.0647,37.572,실내대피소,2158.0,지진실내구호소
417,숭인중학교 운동장,서울특별시,동대문구,서울특별시 동대문구 답십리동 463-1,127.0442,37.5734,실내대피소,1577.0,지진실내구호소
418,신답초등학교 운동장,서울특별시,동대문구,서울특별시 동대문구 답십리동 463-13,127.0433,37.5728,실내대피소,1942.0,지진실내구호소
419,늘봄어린이공원,서울특별시,동대문구,서울특별시 동대문구 장안동 343-0,127.0723,37.5714,실내대피소,1659.0,지진실내구호소
420,안골어린이공원,서울특별시,동대문구,서울특별시 동대문구 장안동 402-0,127.0642,37.5653,실내대피소,1652.0,지진실내구호소
421,장일어린이공원,서울특별시,동대문구,서울특별시 동대문구 장안동 164-1,127.0651,37.5699,실내대피소,992.0,지진실내구호소
422,장평공원,서울특별시,동대문구,서울특별시 동대문구 장안동 356-0,127.074,37.5673,실내대피소,15698.0,지진실내구호소
423,군자초등학교 운동장,서울특별시,동대문구,서울특별시 동대문구 장안동 239-2,127.0611,37.564,실내대피소,4390.0,지진실내구호소
424,동국대학교사범대학부속고등학교 운동장,서울특별시,동대문구,서울특별시 동대문구 장안동 328-0,127.0751,37.5775,실내대피소,7283.0,지진실내구호소
425,안평초등학교 운동장,서울특별시,동대문구,서울특별시 동대문구 장안동 353-1,127.0718,37.5656,실내대피소,3433.0,지진실내구호소
426,은석초등학교 운동장,서울특별시,동대문구,서울특별시 동대문구 장안동 328-0,127.0752,37.5783,실내대피소,2732.0,지진실내구호소
427,장평중학교 운동장,서울특별시,동대문구,서울특별시 동대문구 장안동 352-0,127.0705,37.5662,실내대피소,8207.0,지진실내구호소
428,장평초등학교 운동장,서울특별시,동대문구,서울특별시 동대문구 장안동 323-0,127.0732,37.5733,실내대피소,4157.0,지진실내구호소
429,청량고등학교 운동장,서울특별시,동대문구,서울특별시 동대문구 청량리동 7-0,127.0505,37.5886,실내대피소,3772.0,지진실내구호소
430,청량중학교 운동장,서울특별시,동대문구,서울특별시 동대문구 청량리동 14-0,127.0514,37.5876,실내대피소,5578.0,지진실내구호소
431,홍릉초등학교 운동장,서울특별시,동대문구,서울특별시 동대문구 회기로 90(청량리동),127.047,37.5907,실내대피소,3968.0,지진실내구호소
432,경희여자고등학교 운동장,서울특별시,동대문구,서울특별시 동대문구 회기동 1-5,127.051,37.5947,실내대피소,3131.0,지진실내구호소
433,경희초등학교 운동장,서울특별시,동대문구,서울특별시 동대문구 경희대로 26(회기동),127.0493,37.5946,실내대피소,4500.0,지진실내구호소
434,삼육초등학교 운동장,서울특별시,동대문구,서울특별시 동대문구 회기동 102-48,127.0478,37.5891,실내대피소,2080.0,지진실내구호소
435,청량초등학교 운동장,서울특별시,동대문구,서울특별시 동대문구 회기동 1-1,127.055,37.5919,실내대피소,2750.0,지진실내구호소
436,전동중학교 운동장,서울특별시,동대문구,서울특별시 동대문구 휘경동 49-295,127.0711,37.5851,실내대피소,4197.0,지진실내구호소
437,휘경공업고등학교 운동장,서울특별시,동대문구,서울특별시 동대문구 휘경동 49-327,127.0698,37.5848,실내대피소,3456.0,지진실내구호소
438,휘경여자고등학교 운동장,서울특별시,동대문구,서울특별시 동대문구 휘경동 43-7,127.0675,37.5832,실내대피소,4418.0,지진실내구호소
439,휘경초등학교 운동장,서울특별시,동대문구,서울특별시 동대문구 휘경동 302-2,127.0588,37.5854,실내대피소,3415.0,지진실내구호소
440,휘봉고등학교 운동장,서울특별시,동대문구,서울특별시 동대문구 휘경동 43-138,127.0679,37.5865,실내대피소,4048.0,지진실내구호소
441,휘봉초등학교 운동장,서울특별시,동대문구,서울특별시 동대문구 휘경동 49-27,127.0703,37.5858,실내대피소,2368.0,지진실내구호소
442,이문초등학교 운동장,서울특별시,동대문구,서울특별시 동대문구 신이문로 16(이문동),127.0642,37.6019,실내대피소,2850.0,지진실내구호소
443,면목5동 집하장 녹지대,서울특별시,중랑구,서울특별시 중랑구 면목동 734-2,127.079,37.5799,실내대피소,1592.0,지진실내구호소
444,면목천로 녹지대(공원),서울특별시,중랑구,서울특별시 중랑구 면목동 1508-10,127.0832,37.5843,실내대피소,2183.0,지진실내구호소
445,사가정공원,서울특별시,중랑구,서울특별시 중랑구 면목동 산50-15,127.0954,37.5798,실내대피소,109653.0,지진실내구호소
446,용마폭포공원,서울특별시,중랑구,서울특별시 중랑구 면목동 산1-4,127.09,37.5743,실내대피소,22594.0,지진실내구호소
447,면남초등학교운동장,서울특별시,중랑구,서울특별시 중랑구 면목로30나길 38(면목동),127.0879,37.5775,실내대피소,2546.0,지진실내구호소
448,면동초등학교운동장,서울특별시,중랑구,서울특별시 중랑구 면목로57길 32(면목동),127.0866,37.5851,실내대피소,3006.0,지진실내구호소
449,면목고등학교운동장,서울특별시,중랑구,서울특별시 중랑구 용마산로72길 36-14 (면목동),127.0963,37.584,실내대피소,4273.0,지진실내구호소
450,면목중학교운동장,서울특별시,중랑구,서울특별시 중랑구 용마산로70길 43(면목동),127.0956,37.5829,실내대피소,4197.0,지진실내구호소
451,면목초등학교운동장,서울특별시,중랑구,서울특별시 중랑구 면목로 434(면목동),127.0875,37.591,실내대피소,2177.0,지진실내구호소
452,면중초등학교 운동장,서울특별시,중랑구,서울특별시 중랑구 용마산로70길 43(면목동),127.0966,37.582,실내대피소,1931.0,지진실내구호소
453,용마중학교운동장,서울특별시,중랑구,서울특별시 중랑구 면목로28길 18(면목동),127.0859,37.574,실내대피소,2703.0,지진실내구호소
454,중곡초등학교운동장,서울특별시,중랑구,서울특별시 중랑구 면목로23길 20(면목동),127.0835,37.5743,실내대피소,3049.0,지진실내구호소
455,중랑초등학교운동장,서울특별시,중랑구,서울특별시 중랑구 봉우재로6길 26(면목동),127.0757,37.5892,실내대피소,2150.0,지진실내구호소
456,중목초등학교 운동장,서울특별시,중랑구,서울특별시 중랑구 동일로 665(면목동),127.0795,37.5898,실내대피소,1820.0,지진실내구호소
457,중화중학교운동장,서울특별시,중랑구,서울특별시 중랑구 용마산로 364(면목동),127.0951,37.5842,실내대피소,2751.0,지진실내구호소
458,상봉터미널,서울특별시,중랑구,서울특별시 중랑구 상봉동 83-1,127.0914,37.5961,실내대피소,7278.0,지진실내구호소
459,상봉중학교운동장,서울특별시,중랑구,서울특별시 중랑구 상봉중앙로8나길 28(상봉동),127.0905,37.6011,실내대피소,4405.0,지진실내구호소
460,상봉초등학교 운동장,서울특별시,중랑구,서울특별시 중랑구 동일로126가길 11(상봉동),127.0836,37.598,실내대피소,4958.0,지진실내구호소
461,신현고등학교 운동장,서울특별시,중랑구,서울특별시 중랑구 봉화산로 174(상봉동),127.0925,37.6048,실내대피소,3705.0,지진실내구호소
462,신현중학교 운동장,서울특별시,중랑구,서울특별시 중랑구 봉화산로 162(상봉동),127.0919,37.6041,실내대피소,4700.0,지진실내구호소
463,수경공원,서울특별시,중랑구,서울특별시 중랑구 중화동 381-3,127.074,37.6027,실내대피소,5675.0,지진실내구호소
464,묵동초등학교 운동장,서울특별시,중랑구,서울특별시 중랑구 동일로138길 27(중화동),127.0813,37.6038,실내대피소,3206.0,지진실내구호소
465,장안중학교 운동장,서울특별시,중랑구,서울특별시 중랑구 동일로 780(중화동),127.0808,37.6005,실내대피소,5327.0,지진실내구호소
466,중랑중학교 운동장,서울특별시,중랑구,서울특별시 중랑구 동일로140길 33(중화동),127.0813,37.6048,실내대피소,5025.0,지진실내구호소
467,중화고등학교운동장,서울특별시,중랑구,서울특별시 중랑구 봉화산로27길 62(중화동),127.0827,37.6044,실내대피소,3473.0,지진실내구호소
468,중흥초등학교 운동장,서울특별시,중랑구,서울특별시 중랑구 봉화산로 82(중화동),127.0845,37.6014,실내대피소,5796.0,지진실내구호소
469,수림대공원(서울장미공원),서울특별시,중랑구,서울특별시 중랑구 묵동 342-3,127.073,37.6151,실내대피소,1620.0,지진실내구호소
470,묵현초등학교운동장,서울특별시,중랑구,서울특별시 중랑구 동일로157길 75(묵동),127.0733,37.6087,실내대피소,1200.0,지진실내구호소
471,신묵초등학교운동장,서울특별시,중랑구,서울특별시 중랑구 묵동 246-12,127.0754,37.6074,실내대피소,6481.0,지진실내구호소
472,원묵고등학교운동장,서울특별시,중랑구,서울특별시 중랑구 숙선옹주로 82(묵동),127.0863,37.6155,실내대피소,3270.0,지진실내구호소
473,원묵중학교 운동장,서울특별시,중랑구,서울특별시 중랑구 신내로23길 57(묵동),127.085,37.6177,실내대피소,3936.0,지진실내구호소
474,원묵초등학교 운동장,서울특별시,중랑구,서울특별시 중랑구 숙선옹주로 109(묵동),127.0861,37.6176,실내대피소,3000.0,지진실내구호소
475,태릉고등학교 운동장,서울특별시,중랑구,서울특별시 중랑구 신내로23길 36(묵동),127.0851,37.6187,실내대피소,5694.0,지진실내구호소
476,태릉중학교운동장,서울특별시,중랑구,서울특별시 중랑구 공릉로2길 60-25 (묵동),127.0825,37.6124,실내대피소,3336.0,지진실내구호소
477,동원중학교운동장,서울특별시,중랑구,서울특별시 중랑구 양원역로 32(망우동),127.1081,37.6035,실내대피소,5258.0,지진실내구호소
478,동원초등학교운동장,서울특별시,중랑구,서울특별시 중랑구 송림길 114(망우동),127.1048,37.6049,실내대피소,3780.0,지진실내구호소
479,망우초등학교운동장,서울특별시,중랑구,서울특별시 중랑구 망우로72길 49(망우동),127.1033,37.5982,실내대피소,2800.0,지진실내구호소
480,면북초등학교 운동장,서울특별시,중랑구,서울특별시 중랑구 용마공원로5길 32(망우동),127.1035,37.594,실내대피소,1853.0,지진실내구호소
481,면일초등학교운동장,서울특별시,중랑구,서울특별시 중랑구 용마산로100길 13(망우동),127.0995,37.5916,실내대피소,2524.0,지진실내구호소
482,봉화중학교운동장,서울특별시,중랑구,서울특별시 중랑구 망우로70길 89(망우동),127.1037,37.5966,실내대피소,2272.0,지진실내구호소
483,송곡고등학교운동장,서울특별시,중랑구,서울특별시 중랑구 양원역로 50(망우동),127.1071,37.6054,실내대피소,5775.0,지진실내구호소
484,송곡여자중학교운동장,서울특별시,중랑구,서울특별시 중랑구 양원역로 67(망우동),127.1044,37.6061,실내대피소,7160.0,지진실내구호소
485,영란여자중학교운동장,서울특별시,중랑구,서울특별시 중랑구 망우로73길 56(망우동),127.1038,37.6035,실내대피소,7085.0,지진실내구호소
486,혜원여자고등학교운동장,서울특별시,중랑구,서울특별시 중랑구 봉우재로58길 39(망우동),127.0966,37.5937,실내대피소,5866.0,지진실내구호소
487,능말공원,서울특별시,중랑구,서울특별시 중랑구 신내동 214-8,127.1086,37.6166,실내대피소,19101.0,지진실내구호소
488,능산공원,서울특별시,중랑구,서울특별시 중랑구 신내동 317-2,127.0973,37.6117,실내대피소,12350.0,지진실내구호소
489,봉화산근린공원,서울특별시,중랑구,서울특별시 중랑구 신내동 655-2,127.0928,37.6082,실내대피소,977.0,지진실내구호소
490,신내근린공원,서울특별시,중랑구,서울특별시 중랑구 신내동 652-0,127.0884,37.6148,실내대피소,34016.0,지진실내구호소
491,봉화초등학교운동장,서울특별시,중랑구,서울특별시 중랑구 신내로15길 110(신내동),127.0919,37.6133,실내대피소,4315.0,지진실내구호소
492,신내초등학교운동장,서울특별시,중랑구,서울특별시 중랑구 용마산로125나길 22(신내동),127.1,37.6041,실내대피소,3889.0,지진실내구호소
493,신현초등학교운동장,서울특별시,중랑구,서울특별시 중랑구 봉화산로 188(신내동),127.0938,37.6054,실내대피소,3600.0,지진실내구호소
494,중화초등학교운동장,서울특별시,중랑구,서울특별시 중랑구 신내로7가길 22(신내동),127.0949,37.6029,실내대피소,3155.0,지진실내구호소
495,동구마케팅고등학교 운동장,서울특별시,성북구,서울특별시 성북구 성북동 168-275,127.0065,37.5932,실내대피소,1979.0,지진실내구호소
496,동구여자중학교 운동장,서울특별시,성북구,서울특별시 성북구 성북동 168-275,127.0076,37.5939,실내대피소,2114.0,지진실내구호소
497,성북초등학교 운동장,서울특별시,성북구,서울특별시 성북구 성북동 66-1,126.9982,37.5935,실내대피소,5045.0,지진실내구호소
498,홍익대학교 사범대학 부속 중-고등학교 운동장,서울특별시,성북구,서울특별시 성북구 성북로14가길 23(성북동),127.0036,37.594,실내대피소,9518.0,지진실내구호소
499,개운산 공원,서울특별시,성북구,서울특별시 성북구 돈암동 산6-23,127.0252,37.5965,실내대피소,6999.0,지진실내구호소
500,개운중학교 운동장,서울특별시,성북구,서울특별시 성북구 돈암동 83-145,127.0248,37.5949,실내대피소,1924.0,지진실내구호소
501,개운초등학교 운동장,서울특별시,성북구,서울특별시 성북구 돈암동 2-8,127.0279,37.6017,실내대피소,1336.0,지진실내구호소
502,고명중학교 운동장,서울특별시,성북구,서울특별시 성북구 돈암동 45-88,127.0199,37.5979,실내대피소,6411.0,지진실내구호소
503,성신여자중학교 운동장,서울특별시,성북구,서울특별시 성북구 돈암동 산11-269,127.0234,37.5945,실내대피소,4056.0,지진실내구호소
504,우촌초등학교 운동장,서울특별시,성북구,서울특별시 성북구 돈암동 609-0,127.0117,37.5956,실내대피소,1153.0,지진실내구호소
505,삼선중학교 운동장,서울특별시,성북구,서울특별시 성북구 동소문동4가 278-174,127.0085,37.5915,실내대피소,4608.0,지진실내구호소
506,돈암초등학교 운동장,서울특별시,성북구,서울특별시 성북구 동소문로13길 38(동소문동6가),127.0133,37.5931,실내대피소,3406.0,지진실내구호소
507,정덕초등학교 운동장,서울특별시,성북구,서울특별시 성북구 동소문동7가 118-1,127.0139,37.598,실내대피소,2417.0,지진실내구호소
508,경동고등학교 운동장,서울특별시,성북구,서울특별시 성북구 삼선동3가 43-1,127.0149,37.5856,실내대피소,10750.0,지진실내구호소
509,삼선초등학교 운동장,서울특별시,성북구,서울특별시 성북구 삼선동3가 30-4,127.0124,37.5862,실내대피소,6603.0,지진실내구호소
510,안암초등학교 운동장,서울특별시,성북구,서울특별시 성북구 안암동2가 93-0,127.0226,37.5872,실내대피소,2916.0,지진실내구호소
511,용문고등학교 운동장,서울특별시,성북구,서울특별시 성북구 안암동2가 96-1,127.0245,37.5878,실내대피소,8423.0,지진실내구호소
512,대광초등학교 운동장,서울특별시,성북구,서울특별시 성북구 안암로 5(보문동7가),127.0235,37.5792,실내대피소,977.0,지진실내구호소
513,동망봉 어린이 공원,서울특별시,성북구,서울특별시 성북구 보문사길 30(보문동3가),127.0169,37.5836,실내대피소,1355.0,지진실내구호소
514,동신초등학교 운동장,서울특별시,성북구,서울특별시 성북구 보문동3가 228,127.0172,37.5828,실내대피소,3589.0,지진실내구호소
515,솔숲 어린이 공원,서울특별시,성북구,서울특별시 성북구 정릉동 170-62,127.0151,37.6049,실내대피소,1947.0,지진실내구호소
516,한울 어린이 공원,서울특별시,성북구,서울특별시 성북구 정릉동 169-16,127.0139,37.6058,실내대피소,1965.0,지진실내구호소
517,고려대학사범대학부속고등학교 운동장,서울특별시,성북구,서울특별시 성북구 정릉동 산1-2,127.002,37.6084,실내대피소,16119.0,지진실내구호소
518,고려대학사범대학부속중학교 운동장,서울특별시,성북구,서울특별시 성북구 정릉동 산1-2,127.0019,37.6103,실내대피소,3772.0,지진실내구호소
519,대일외국어고등학교 운동장,서울특별시,성북구,서울특별시 성북구 정릉동 산16-36,127.0129,37.6139,실내대피소,5088.0,지진실내구호소
520,북악중학교 운동장,서울특별시,성북구,서울특별시 성북구 정릉동 640-3,127.0016,37.6065,실내대피소,1844.0,지진실내구호소
521,서경대학교 운동장,서울특별시,성북구,서울특별시 성북구 서경로 124(정릉동),127.012,37.6154,실내대피소,8650.0,지진실내구호소
522,숭덕초등학교 운동장,서울특별시,성북구,서울특별시 성북구 정릉로 279(정릉동),127.0139,37.6041,실내대피소,4865.0,지진실내구호소
523,정릉초등학교 운동장,서울특별시,성북구,서울특별시 성북구 정릉동 798-0,127.0054,37.6194,실내대피소,4654.0,지진실내구호소
524,정수초등학교 운동장,서울특별시,성북구,서울특별시 성북구 정릉동 431-62,127.0081,37.6042,실내대피소,4865.0,지진실내구호소
525,청덕초등학교장 운동장,서울특별시,성북구,서울특별시 성북구 정릉동 847-0,127.0004,37.6116,실내대피소,2567.0,지진실내구호소
526,늘푸른-솔향기 어린이 공원,서울특별시,성북구,서울특별시 성북구 길음동 1184-36,127.0211,37.6083,실내대피소,7405.0,지진실내구호소
527,계성고등학교 운동장,서울특별시,성북구,서울특별시 성북구 길음동 1284-15,127.0208,37.6076,실내대피소,3759.0,지진실내구호소
528,길원초등학교 운동장,서울특별시,성북구,서울특별시 성북구 길음동 1280-4,127.0165,37.6096,실내대피소,2119.0,지진실내구호소
529,자운고등학교 운동장,서울특별시,도봉구,서울특별시 도봉구 노해로69길 150(창동),127.0502,37.6588,실내대피소,1757.0,지진실내구호소
530,자운초등학교 운동장,서울특별시,도봉구,서울특별시 도봉구 마들로13길 166(창동),127.0466,37.6575,실내대피소,1880.0,지진실내구호소
531,창동고등학교 운동장,서울특별시,도봉구,서울특별시 도봉구 노해로62길 7(창동),127.0386,37.6504,실내대피소,2810.0,지진실내구호소
532,금나래중앙공원,서울특별시,금천구,서울특별시 금천구 벚꽃로 14(독산동),126.8948,37.4576,실내대피소,16250.0,지진실내구호소
533,도하공원,서울특별시,금천구,서울특별시 금천구 독산동 1149,126.8953,37.4587,실내대피소,3155.0,지진실내구호소
534,독산근린공원,서울특별시,금천구,서울특별시 금천구 범안로 1096(독산동),126.8847,37.4631,실내대피소,19100.0,지진실내구호소
535,독산마을공원,서울특별시,금천구,"서울특별시 금천구 시흥대로100길 20(독산동, 원영하이빌)",126.8993,37.4638,실내대피소,2243.0,지진실내구호소
536,무지개어린이공원,서울특별시,금천구,서울특별시 금천구 시흥대로90길 60-3 (독산동),126.901,37.4629,실내대피소,684.0,지진실내구호소
537,소망어린이공원,서울특별시,금천구,서울특별시 금천구 독산동 196-8,126.9015,37.4694,실내대피소,788.0,지진실내구호소
538,쌈지어린이공원,서울특별시,금천구,서울특별시 금천구 독산동 189-1,126.9039,37.4708,실내대피소,866.0,지진실내구호소
539,정훈어린이 공원,서울특별시,금천구,서울특별시 금천구 독산로58나길 64(독산동),126.9063,37.4656,실내대피소,1038.0,지진실내구호소
540,철쭉어린이공원,서울특별시,금천구,서울특별시 금천구 금하로1마길 15-8 (독산동),126.8898,37.453,실내대피소,1417.0,지진실내구호소
541,한사랑어린이공원,서울특별시,금천구,서울특별시 금천구 독산동 925-2,126.9045,37.4677,실내대피소,522.0,지진실내구호소
542,금나래초등학교 운동장,서울특별시,금천구,서울특별시 금천구 시흥대로79길 37(독산동),126.8965,37.4578,실내대피소,1839.0,지진실내구호소
543,난곡중학교운동장,서울특별시,금천구,서울특별시 금천구 독산동 906-41,126.911,37.4775,실내대피소,6057.0,지진실내구호소
544,독산초등학교 운동장,서울특별시,금천구,서울특별시 금천구 독산동 1034-0,126.9,37.4651,실내대피소,11983.0,지진실내구호소
545,두산초등학교 운동장,서울특별시,금천구,서울특별시 금천구 독산동 1002-5,126.891,37.467,실내대피소,4294.0,지진실내구호소
546,문교초등학교 운동장,서울특별시,금천구,서울특별시 금천구 독산동 202-1,126.9087,37.4662,실내대피소,13362.0,지진실내구호소
547,문성중학교운동장,서울특별시,금천구,서울특별시 금천구 독산동 61-0,126.9081,37.4757,실내대피소,4176.0,지진실내구호소
548,문성초등학교운동장,서울특별시,금천구,서울특별시 금천구 독산동 982-0,126.8992,37.4743,실내대피소,2773.0,지진실내구호소
549,세일중학교 운동장,서울특별시,금천구,서울특별시 금천구 독산동 147-2,126.8959,37.4741,실내대피소,4292.0,지진실내구호소
550,안천중학교 운동장,서울특별시,금천구,서울특별시 금천구 독산동 1089-0,126.888,37.459,실내대피소,4105.0,지진실내구호소
551,영남초등학교운동장,서울특별시,금천구,서울특별시 금천구 독산동 59-27,126.9093,37.4758,실내대피소,4261.0,지진실내구호소
552,정심초등학교 운동장,서울특별시,금천구,서울특별시 금천구 독산동 182-44,126.9085,37.4712,실내대피소,2932.0,지진실내구호소
553,금빛공원,서울특별시,금천구,서울특별시 금천구 금하로 668(시흥동),126.9041,37.4531,실내대피소,5827.0,지진실내구호소
554,까치공원,서울특별시,금천구,서울특별시 금천구 시흥동 959-2,126.905,37.4396,실내대피소,230.0,지진실내구호소
555,꾸러기공원,서울특별시,금천구,서울특별시 금천구 시흥동 943-16,126.9059,37.4432,실내대피소,165.0,지진실내구호소
556,느티나무상상어린이공원,서울특별시,금천구,서울특별시 금천구 시흥동 817-0,126.9067,37.4561,실내대피소,939.0,지진실내구호소
557,별장길어린이공원,서울특별시,금천구,서울특별시 금천구 시흥동 925-32,126.9085,37.4481,실내대피소,798.0,지진실내구호소
558,비둘기공원,서울특별시,금천구,서울특별시 금천구 시흥동 947-4,126.9062,37.4415,실내대피소,298.0,지진실내구호소
559,산장어린이공원,서울특별시,금천구,서울특별시 금천구 시흥동 3-17,126.9124,37.4609,실내대피소,678.0,지진실내구호소
560,새재미공원,서울특별시,금천구,서울특별시 금천구 독산로39길 16(시흥동),126.9041,37.4589,실내대피소,997.0,지진실내구호소
561,은행어린이공원,서울특별시,금천구,서울특별시 금천구 시흥동 836-0,126.9069,37.452,실내대피소,706.0,지진실내구호소
562,진달래공원,서울특별시,금천구,서울특별시 금천구 시흥동 970-3,126.9049,37.4348,실내대피소,298.0,지진실내구호소
563,해태공원,서울특별시,금천구,서울특별시 금천구 시흥동 871-24,126.9018,37.4578,실내대피소,962.0,지진실내구호소
564,효봉어린이공원,서울특별시,금천구,서울특별시 금천구 시흥동 4-28,126.9104,37.4606,실내대피소,503.0,지진실내구호소
565,금동초등학교 운동장,서울특별시,금천구,서울특별시 금천구 시흥동 1013-1,126.9164,37.4474,실내대피소,2586.0,지진실내구호소
566,금천고등학교,서울특별시,금천구,서울특별시 금천구 시흥대로38길 26(시흥동),126.9058,37.4449,실내대피소,1967.0,지진실내구호소
567,금천초등학교운동장,서울특별시,금천구,서울특별시 금천구 시흥동 216-0,126.9124,37.4545,실내대피소,2599.0,지진실내구호소
568,문백초등학교 운동장,서울특별시,금천구,서울특별시 금천구 시흥동 564-5,126.8992,37.4472,실내대피소,13312.0,지진실내구호소
569,문일고등학교 운동장,서울특별시,금천구,서울특별시 금천구 시흥동 559-1,126.8984,37.4493,실내대피소,33113.0,지진실내구호소
570,백산초등학교운동장,서울특별시,금천구,서울특별시 금천구 시흥동 438-5,126.9049,37.447,실내대피소,2984.0,지진실내구호소
571,서울금산초등학교,서울특별시,금천구,서울특별시 금천구 시흥대로24길 57(시흥동),126.9081,37.4418,실내대피소,5313.0,지진실내구호소
572,시흥초등학교 운동장,서울특별시,금천구,서울특별시 금천구 시흥동 841-19,126.9047,37.4547,실내대피소,14127.0,지진실내구호소
573,신흥초등학교운동장,서울특별시,금천구,서울특별시 금천구 시흥동 704-56,126.9087,37.4592,실내대피소,3252.0,지진실내구호소
574,탑동초등학교 운동장,서울특별시,금천구,서울특별시 금천구 시흥동 230-0,126.914,37.4526,실내대피소,2586.0,지진실내구호소
575,한울중학교 운동장,서울특별시,금천구,서울특별시 금천구 시흥동 792-1,126.9071,37.4621,실내대피소,2931.0,지진실내구호소
576,영등포근린공원,서울특별시,영등포구,서울특별시 영등포구 영등포동 582-3,126.9107,37.5153,실내대피소,53361.6,지진실내구호소
577,영일어린이공원,서울특별시,영등포구,서울특별시 영등포구 영등포동 647-3,126.9038,37.5101,실내대피소,4606.0,지진실내구호소
578,영원중학교 운동장,서울특별시,영등포구,서울특별시 영등포구 영등포동 576-6,126.9142,37.5158,실내대피소,3559.0,지진실내구호소
579,영원초등학교 운동장,서울특별시,영등포구,서울특별시 영등포구 영등포동 647-2,126.9023,37.5103,실내대피소,997.9,지진실내구호소
580,중마루근린공원,서울특별시,영등포구,서울특별시 영등포구 영등포동2가 222-0,126.9113,37.5198,실내대피소,5367.0,지진실내구호소
581,중앙어린이공원,서울특별시,영등포구,서울특별시 영등포구 영등포동6가 65-1,126.9036,37.5213,실내대피소,2240.0,지진실내구호소
582,영중초등학교 운동장,서울특별시,영등포구,서울특별시 영등포구 영등포동7가 53-0,126.9038,37.5233,실내대피소,2416.0,지진실내구호소
583,서강어린이공원,서울특별시,영등포구,서울특별시 영등포구 영등포동8가 28-0,126.9058,37.5258,실내대피소,1730.0,지진실내구호소
584,자매공원,서울특별시,영등포구,서울특별시 영등포구 여의도동 56-0,126.9304,37.5174,실내대피소,15594.0,지진실내구호소
585,자유어린이공원(시범아파트),서울특별시,영등포구,서울특별시 영등포구 여의도동 50-3,126.9361,37.5204,실내대피소,552.0,지진실내구호소
586,평화어린이공원,서울특별시,영등포구,서울특별시 영등포구 여의도동 50-2,126.9381,37.5212,실내대피소,1036.0,지진실내구호소
587,여의도고등학교 운동장,서울특별시,영등포구,서울특별시 영등포구 여의도동 30-1,126.9337,37.5248,실내대피소,8796.0,지진실내구호소
588,여의도여자고등학교 운동장,서울특별시,영등포구,서울특별시 영등포구 여의도동 40-2,126.9349,37.5225,실내대피소,4079.0,지진실내구호소
589,여의도중학교 운동장,서울특별시,영등포구,서울특별시 영등포구 여의도동 40-1,126.9353,37.5236,실내대피소,8057.0,지진실내구호소
590,여의도초등학교 운동장,서울특별시,영등포구,서울특별시 영등포구 여의도동 40-3,126.9366,37.5228,실내대피소,4824.0,지진실내구호소
591,윤중중학교 운동장,서울특별시,영등포구,서울특별시 영등포구 여의도동 38-2,126.9236,37.5186,실내대피소,5783.0,지진실내구호소
592,윤중초등학교 운동장,서울특별시,영등포구,서울특별시 영등포구 여의도동 38-0,126.923,37.5196,실내대피소,6586.0,지진실내구호소
593,당산근린공원,서울특별시,영등포구,서울특별시 영등포구 당산동3가 385-0,126.8957,37.5255,실내대피소,6241.0,지진실내구호소
594,당산서중학교 운동장,서울특별시,영등포구,서울특별시 영등포구 당산동5가 5-0,126.8986,37.5319,실내대피소,1792.0,지진실내구호소
595,당서초등학교 운동장,서울특별시,영등포구,서울특별시 영등포구 당산동5가 5-3,126.8993,37.5314,실내대피소,3511.0,지진실내구호소
596,당산중학교 운동장,서울특별시,영등포구,서울특별시 영등포구 당산동 121-0,126.9074,37.5318,실내대피소,3752.0,지진실내구호소
597,영동초등학교 운동장,서울특별시,영등포구,서울특별시 영등포구 당산동 121-22,126.9071,37.5265,실내대피소,3666.0,지진실내구호소
598,고추말어린이공원,서울특별시,영등포구,서울특별시 영등포구 도림동 23-1,126.907,37.5116,실내대피소,2252.0,지진실내구호소
599,도림동 유수지,서울특별시,영등포구,서울특별시 영등포구 도림동 254-0,126.8972,37.5068,실내대피소,14452.0,지진실내구호소
600,영등포초등학교 운동장,서울특별시,영등포구,서울특별시 영등포구 문래동1가 35-2,126.8983,37.5127,실내대피소,7083.0,지진실내구호소
601,문래공원,서울특별시,영등포구,서울특별시 영등포구 문래동3가 66-0,126.8944,37.5176,실내대피소,20762.0,지진실내구호소
602,문래초등학교 운동장,서울특별시,영등포구,서울특별시 영등포구 문래로 104(문래동3가),126.8933,37.5189,실내대피소,4938.0,지진실내구호소
603,양화중학교 운동장,서울특별시,영등포구,서울특별시 영등포구 문래동3가 48-0,126.8963,37.5192,실내대피소,4625.0,지진실내구호소
604,안양천 영롱이 인라인 마당,서울특별시,영등포구,서울특별시 영등포구 문래동5가 31-0,126.8805,37.5176,실내대피소,35178.0,지진실내구호소
605,안양천 영롱이 억새 1~3구장,서울특별시,영등포구,서울특별시 영등포구 문래동6가 52-0,126.8806,37.5243,실내대피소,34434.0,지진실내구호소
606,문래중학교 운동장,서울특별시,영등포구,서울특별시 영등포구 문래동6가 44-0,126.8841,37.52,실내대피소,7377.0,지진실내구호소
607,영문초등학교 운동장,서울특별시,영등포구,서울특별시 영등포구 문래동6가 13-0,126.8879,37.5195,실내대피소,4992.0,지진실내구호소
608,양남어린이공원,서울특별시,영등포구,서울특별시 영등포구 양평동1가 205-0,126.8881,37.5233,실내대피소,900.0,지진실내구호소
609,관악고등학교 운동장,서울특별시,영등포구,서울특별시 영등포구 양평동2가 23-2,126.8828,37.5213,실내대피소,18480.0,지진실내구호소
610,당중초등학교 운동장,서울특별시,영등포구,서울특별시 영등포구 양평동3가 42-0,126.8901,37.526,실내대피소,17024.0,지진실내구호소
611,선유중학교 운동장,서울특별시,영등포구,서울특별시 영등포구 양평동3가 82-0,126.8943,37.5327,실내대피소,4358.0,지진실내구호소
612,선유초등학교 운동장,서울특별시,영등포구,서울특별시 영등포구 선유로43가길 14(양평동3가),126.8926,37.5325,실내대피소,2464.0,지진실내구호소
613,양평어린이공원,서울특별시,영등포구,서울특별시 영등포구 양평동4가 301-7,126.8981,37.5381,실내대피소,2176.0,지진실내구호소
614,당산초등학교 운동장,서울특별시,영등포구,서울특별시 영등포구 양평동4가 323-0,126.8962,37.5394,실내대피소,5085.0,지진실내구호소
615,선유고등학교 운동장,서울특별시,영등포구,서울특별시 영등포구 양평동4가 10-0,126.895,37.5333,실내대피소,2424.0,지진실내구호소
616,한강미디어고등학교 운동장,서울특별시,영등포구,서울특별시 영등포구 양평동4가 315-1,126.8969,37.5389,실내대피소,2244.0,지진실내구호소
617,양평동 체련장,서울특별시,영등포구,서울특별시 영등포구 양평동5가 128-1,126.8925,37.5425,실내대피소,5276.0,지진실내구호소
618,메낙골근린공원,서울특별시,영등포구,서울특별시 영등포구 신길동 4934-4,126.9152,37.5068,실내대피소,3270.0,지진실내구호소
619,은로초등학교 운동장,서울특별시,동작구,서울특별시 동작구 서달로 115(흑석동),126.9601,37.5037,실내대피소,3654.0,지진실내구호소
620,중앙대학교사범대학부속중학교 운동장,서울특별시,동작구,서울특별시 동작구 서달로 124(흑석동),126.9613,37.5048,실내대피소,3598.0,지진실내구호소
621,흑석초등학교 운동장,서울특별시,동작구,서울특별시 동작구 현충로 87(흑석동),126.965,37.5086,실내대피소,2440.0,지진실내구호소
622,경문고등학교운동장,서울특별시,동작구,서울특별시 동작구 동작대로 171(동작동),126.9816,37.4917,실내대피소,10503.0,지진실내구호소
623,동작중학교운동장,서울특별시,동작구,서울특별시 동작구 동작대로39가길 83(동작동),126.9769,37.4949,실내대피소,4180.0,지진실내구호소
624,남사초등학교 운동장,서울특별시,동작구,서울특별시 동작구 동작대로13길 22(사당동),126.9788,37.4822,실내대피소,4274.0,지진실내구호소
625,남성중학교 운동장,서울특별시,동작구,서울특별시 동작구 남부순환로269길 166(사당동),126.9723,37.4787,실내대피소,2450.0,지진실내구호소
626,남성초등학교 운동장,서울특별시,동작구,서울특별시 동작구 사당로23길 57-14 (사당동),126.9763,37.4842,실내대피소,3465.0,지진실내구호소
627,수도여자고등학교 운동장,서울특별시,동작구,서울특별시 동작구 여의대방로10길 73(신대방동),126.9155,37.4928,실내대피소,2904.0,지진실내구호소
628,교체어린이공원,서울특별시,관악구,서울특별시 관악구 봉천동 196-193,126.964,37.4733,실내대피소,813.0,지진실내구호소
629,국지어린이공원,서울특별시,관악구,서울특별시 관악구 국회단지19길 23(봉천동),126.9406,37.49,실내대피소,1837.0,지진실내구호소
630,까치산근린공원,서울특별시,관악구,서울특별시 관악구 봉천동 산66-1,126.9669,37.4777,실내대피소,1294.0,지진실내구호소
631,까치어린이공원,서울특별시,관악구,서울특별시 관악구 행운4길 2(봉천동),126.9594,37.4798,실내대피소,1487.0,지진실내구호소
632,낙성대공원,서울특별시,관악구,서울특별시 관악구 낙성대로 77(봉천동),126.959,37.4713,실내대피소,5894.0,지진실내구호소
633,모래내어린이공원,서울특별시,관악구,서울특별시 관악구 관악로12길 55(봉천동),126.9556,37.4778,실내대피소,1595.0,지진실내구호소
634,밤골어린이공원,서울특별시,관악구,서울특별시 관악구 봉천동 1642-4,126.9672,37.474,실내대피소,1118.0,지진실내구호소
635,백설어린이공원,서울특별시,관악구,서울특별시 관악구 관악로6길 50(봉천동),126.9536,37.476,실내대피소,1128.0,지진실내구호소
636,비안어린이공원,서울특별시,관악구,서울특별시 관악구 봉천동 1530-14,126.9401,37.4808,실내대피소,1131.0,지진실내구호소
637,새싹어린이공원,서울특별시,관악구,서울특별시 관악구 양녕로6다길 11-4 (봉천동),126.9495,37.4844,실내대피소,1490.0,지진실내구호소
638,선봉어린이공원,서울특별시,관악구,서울특별시 관악구 봉천로27길 20(봉천동),126.9396,37.4851,실내대피소,245.0,지진실내구호소
639,원당어린이공원,서울특별시,관악구,서울특별시 관악구 봉천동 196-240,126.9636,37.4747,실내대피소,1647.0,지진실내구호소
640,일선어린이공원,서울특별시,관악구,서울특별시 관악구 봉천동 1587-7,126.9494,37.4779,실내대피소,1028.0,지진실내구호소
641,중앙어린이공원,서울특별시,관악구,서울특별시 관악구 봉천로41길 35(봉천동),126.9482,37.4843,실내대피소,657.0,지진실내구호소
642,충효어린이공원,서울특별시,관악구,서울특별시 관악구 봉천동 1526-1,126.941,37.481,실내대피소,1199.0,지진실내구호소
643,관광고등학교 운동장,서울특별시,관악구,서울특별시 관악구 은천로15길 25(봉천동),126.9435,37.4884,실내대피소,2834.0,지진실내구호소
644,관악중학교 운동장,서울특별시,관악구,서울특별시 관악구 남부순환로237길 60(봉천동),126.9614,37.4801,실내대피소,4507.0,지진실내구호소
645,관악초등학교 운동장,서울특별시,관악구,서울특별시 관악구 청룡4길 49(봉천동),126.9436,37.4806,실내대피소,1793.0,지진실내구호소
646,구암고등학교 운동장,서울특별시,관악구,서울특별시 관악구 성현로 57(봉천동),126.9507,37.4922,실내대피소,1445.0,지진실내구호소
647,구암중학교 운동장,서울특별시,관악구,서울특별시 관악구 성현로 53(봉천동),126.9475,37.4927,실내대피소,2412.0,지진실내구호소
648,구암초등학교 운동장,서울특별시,관악구,서울특별시 관악구 구암길 1(봉천동),126.9468,37.4891,실내대피소,3551.0,지진실내구호소
649,당곡고등학교 운동장,서울특별시,관악구,서울특별시 관악구 봉천로21길 108(봉천동),126.9343,37.4922,실내대피소,3238.0,지진실내구호소
650,당곡초등학교 운동장,서울특별시,관악구,서울특별시 관악구 보라매로2길 23(봉천동),126.9299,37.49,실내대피소,3305.0,지진실내구호소
651,문영여자중학교 운동장,서울특별시,관악구,서울특별시 관악구 관악로 85(봉천동),126.9514,37.4727,실내대피소,2879.0,지진실내구호소
652,봉림중학교 운동장,서울특별시,관악구,서울특별시 관악구 장군봉길 72(봉천동),126.9387,37.4793,실내대피소,6723.0,지진실내구호소
653,봉원중학교 운동장,서울특별시,관악구,서울특별시 관악구 관악로24가길 15(봉천동),126.9579,37.4843,실내대피소,3679.0,지진실내구호소
654,봉현초등학교 운동장,서울특별시,관악구,서울특별시 관악구 성현로 117(봉천동),126.9545,37.4907,실내대피소,830.0,지진실내구호소
655,신봉초등학교 운동장,서울특별시,관악구,서울특별시 관악구 양녕로6나길 1(봉천동),126.9488,37.485,실내대피소,2636.0,지진실내구호소
656,영락고등학교 운동장,서울특별시,관악구,서울특별시 관악구 청룡16길 25(봉천동),126.9449,37.476,실내대피소,4440.0,지진실내구호소
657,원당초등학교 운동장,서울특별시,관악구,서울특별시 관악구 봉천로 502(봉천동),126.9561,37.4809,실내대피소,3388.0,지진실내구호소
658,은천초등학교 운동장,서울특별시,관악구,서울특별시 관악구 은천로 69(봉천동),126.9429,37.4867,실내대피소,1745.0,지진실내구호소
659,인헌고등학교 운동장,서울특별시,관악구,서울특별시 관악구 인헌9길 74(봉천동),126.9698,37.4718,실내대피소,1946.0,지진실내구호소
660,인헌중학교 운동장,서울특별시,관악구,서울특별시 관악구 인헌9길 35(봉천동),126.9692,37.4728,실내대피소,3372.0,지진실내구호소
661,인헌초등학교 운동장,서울특별시,관악구,서울특별시 관악구 낙성대로 23(봉천동),126.9602,37.4763,실내대피소,4804.0,지진실내구호소
662,청룡초등학교 운동장,서울특별시,관악구,서울특별시 관악구 관악로5길 61(봉천동),126.9513,37.4763,실내대피소,3897.0,지진실내구호소
663,난향공원(관악산 난곡공원),서울특별시,관악구,서울특별시 관악구 신림동 685-4,126.9171,37.4656,실내대피소,485.0,지진실내구호소
664,남부창의어린이공원,서울특별시,관악구,서울특별시 관악구 남부순환로163길 14(신림동),126.9205,37.4849,실내대피소,999.0,지진실내구호소
665,문성어린이공원,서울특별시,관악구,서울특별시 관악구 시흥대로164길 27(신림동),126.903,37.4818,실내대피소,955.0,지진실내구호소
666,미도어린이공원,서울특별시,관악구,서울특별시 관악구 신림동 675-200,126.9152,37.4628,실내대피소,649.0,지진실내구호소
667,보명어린이공원,서울특별시,관악구,서울특별시 관악구 법원단지길 158-11 (신림동),126.9256,37.4756,실내대피소,241.0,지진실내구호소
668,봉림어린이공원,서울특별시,관악구,서울특별시 관악구 신림동 1510-2,126.9355,37.4827,실내대피소,885.0,지진실내구호소
669,새들어린이공원,서울특별시,관악구,서울특별시 관악구 신림동 1441-42,126.9257,37.4886,실내대피소,810.0,지진실내구호소
670,새빛어린이공원,서울특별시,관악구,서울특별시 관악구 신사로10길 29(신림동),126.9151,37.4861,실내대피소,320.0,지진실내구호소
671,새숲어린이공원,서울특별시,관악구,서울특별시 관악구 신림동 539-14,126.913,37.4824,실내대피소,963.0,지진실내구호소
672,서원어린이공원,서울특별시,관악구,서울특별시 관악구 서원3길 10(신림동),126.9334,37.4767,실내대피소,1446.0,지진실내구호소
673,신림근린공원,서울특별시,관악구,서울특별시 관악구 남부순환로152길 53(신림동),126.9176,37.4814,실내대피소,19802.0,지진실내구호소
674,신화어린이공원,서울특별시,관악구,서울특별시 관악구 신림동 408-10,126.9357,37.4767,실내대피소,710.0,지진실내구호소
675,쑥고개어린이공원,서울특별시,관악구,서울특별시 관악구 신림동 1564-68,126.9408,37.4758,실내대피소,850.0,지진실내구호소
676,장군봉근린공원,서울특별시,관악구,서울특별시 관악구 남부순환로194길 81-12 (신림동),126.9365,37.48,실내대피소,4653.0,지진실내구호소
677,합실어린이공원,서울특별시,관악구,서울특별시 관악구 신림동 321-5,126.9269,37.4649,실내대피소,1220.0,지진실내구호소
678,해태어린이공원,서울특별시,관악구,서울특별시 관악구 서림3길 47(신림동),126.9405,37.4725,실내대피소,823.0,지진실내구호소
679,호박골어린이공원,서울특별시,관악구,서울특별시 관악구 신림동 1580-22,126.9239,37.4819,실내대피소,959.0,지진실내구호소
680,관악산 만남의 광장,서울특별시,관악구,서울특별시 관악구 신림로 23(신림동),126.9452,37.4685,실내대피소,2753.0,지진실내구호소
681,신길근린공원,서울특별시,영등포구,서울특별시 영등포구 신길동 341-3,126.9059,37.5016,실내대피소,9726.0,지진실내구호소
682,신길유수지,서울특별시,영등포구,서울특별시 영등포구 신길동 54-6,126.9176,37.5162,실내대피소,5577.0,지진실내구호소
683,대길초등학교 운동장,서울특별시,영등포구,서울특별시 영등포구 신길동 4482-0,126.9143,37.498,실내대피소,4968.0,지진실내구호소
684,대방초등학교 운동장,서울특별시,영등포구,서울특별시 영등포구 신길동 1444,126.9189,37.5022,실내대피소,3000.0,지진실내구호소
685,대영고등학교 운동장,서울특별시,영등포구,서울특별시 영등포구 신길동 336-2,126.906,37.5032,실내대피소,8699.0,지진실내구호소
686,대영중학교 운동장,서울특별시,영등포구,서울특별시 영등포구 신길동 342-49,126.9051,37.5029,실내대피소,13810.0,지진실내구호소
687,대영초등학교 운동장,서울특별시,영등포구,서울특별시 영등포구 신길로23길 43(신길동),126.9055,37.5023,실내대피소,11402.0,지진실내구호소
688,도림초등학교 운동장,서울특별시,영등포구,서울특별시 영등포구 신길동 285-1,126.9075,37.5083,실내대피소,2230.0,지진실내구호소
689,영등포여자고등학교 운동장,서울특별시,영등포구,서울특별시 영등포구 신길동 184-3,126.915,37.515,실내대피소,2257.7,지진실내구호소
690,영신고등학교 운동장,서울특별시,영등포구,서울특별시 영등포구 신길동 4656-2,126.9096,37.4973,실내대피소,4100.0,지진실내구호소
691,영신초등학교 운동장,서울특별시,영등포구,서울특별시 영등포구 신길동 121-0,126.9181,37.5097,실내대피소,5700.0,지진실내구호소
692,우신초등학교 운동장,서울특별시,영등포구,서울특별시 영등포구 신길동 210-0,126.912,37.5094,실내대피소,5878.0,지진실내구호소
693,장훈고등학교 운동장,서울특별시,영등포구,서울특별시 영등포구 신길동 176-0,126.9155,37.5135,실내대피소,9529.0,지진실내구호소
694,다사랑어린이공원,서울특별시,영등포구,서울특별시 영등포구 대림동 703-6,126.8994,37.4927,실내대피소,1432.0,지진실내구호소
695,대림어린이공원,서울특별시,영등포구,서울특별시 영등포구 대림동 869-2,126.9032,37.4912,실내대피소,6407.0,지진실내구호소
696,동심어린이공원,서울특별시,영등포구,서울특별시 영등포구 대림동 742-0,126.8973,37.4983,실내대피소,2387.0,지진실내구호소
697,두암어린이공원,서울특별시,영등포구,서울특별시 영등포구 대림동 715-0,126.8973,37.4955,실내대피소,1461.0,지진실내구호소
698,신우어린이공원,서울특별시,영등포구,서울특별시 영등포구 대림동 657-0,126.8992,37.5031,실내대피소,2659.0,지진실내구호소
699,원지어린이공원,서울특별시,영등포구,서울특별시 영등포구 대림동 690-0,126.8995,37.4981,실내대피소,4442.0,지진실내구호소
700,대림 체육시설,서울특별시,영등포구,서울특별시 영등포구 대림동 780-0,126.8947,37.4997,실내대피소,9008.0,지진실내구호소
701,대림3동 유수지,서울특별시,영등포구,서울특별시 영등포구 대림동 611-0,126.895,37.5041,실내대피소,8500.0,지진실내구호소
702,대동초등학교 운동장,서울특별시,영등포구,서울특별시 영등포구 대림동 702-0,126.9001,37.4932,실내대피소,6378.0,지진실내구호소
703,대림중학교 운동장,서울특별시,영등포구,서울특별시 영등포구 대림동 959-0,126.9076,37.4921,실내대피소,10265.0,지진실내구호소
704,도신초등학교 운동장,서울특별시,영등포구,서울특별시 영등포구 대림동 741-3,126.9007,37.4986,실내대피소,3044.0,지진실내구호소
705,신대림초등학교 운동장,서울특별시,영등포구,서울특별시 영등포구 대림동 970-1,126.9056,37.4917,실내대피소,7412.0,지진실내구호소
706,신영초등학교 운동장,서울특별시,영등포구,서울특별시 영등포구 대림동 781-0,126.896,37.5003,실내대피소,3589.0,지진실내구호소
707,영남중학교 운동장,서울특별시,영등포구,서울특별시 영등포구 대림동 735-0,126.8959,37.4974,실내대피소,5082.0,지진실내구호소
708,영림초등학교 운동장,서울특별시,영등포구,서울특별시 영등포구 대림동 993-16,126.9029,37.4871,실내대피소,2228.0,지진실내구호소
709,노량진근린공원(송학대공원),서울특별시,동작구,서울특별시 동작구 노량진동 325-2,126.9438,37.5086,실내대피소,11075.0,지진실내구호소
710,노량진초등학교 운동장,서울특별시,동작구,서울특별시 동작구 장승배기로 160(노량진동),126.9406,37.5112,실내대피소,2700.0,지진실내구호소
711,강현중학교운동장,서울특별시,동작구,서울특별시 동작구 상도로13라길 22(상도동),126.9314,37.5031,실내대피소,3215.0,지진실내구호소
712,국사봉중학교운동장,서울특별시,동작구,서울특별시 동작구 양녕로20길 20(상도동),126.945,37.4937,실내대피소,3062.0,지진실내구호소
713,상도초등학교 운동장,서울특별시,동작구,서울특별시 동작구 성대로21길 62(상도동),126.9373,37.4994,실내대피소,1451.0,지진실내구호소
714,상현중학교 운동장,서울특별시,동작구,서울특별시 동작구 사당로2길 2-19 (상도동),126.9611,37.4938,실내대피소,2367.0,지진실내구호소
715,숭실대학교 운동장,서울특별시,동작구,서울특별시 동작구 상도로 369(상도동),126.956,37.4972,실내대피소,7904.0,지진실내구호소
716,신상도초등학교 운동장,서울특별시,동작구,서울특별시 동작구 장승배기로 14(상도동),126.9437,37.4999,실내대피소,2595.0,지진실내구호소
717,장승중학교 운동장,서울특별시,동작구,서울특별시 동작구 장승배기로10가길 25(상도동),126.9407,37.5034,실내대피소,2250.0,지진실내구호소
718,강남초등학교 운동장,서울특별시,동작구,서울특별시 동작구 강남초등길 15(상도1동),126.9527,37.5059,실내대피소,4100.0,지진실내구호소
719,노들나루공원,서울특별시,동작구,서울특별시 동작구 노량진로 247(본동),126.9548,37.5135,실내대피소,44580.0,지진실내구호소
720,본동초등학교 운동장,서울특별시,동작구,서울특별시 동작구 노량진로26길 16-40 (본동),126.9537,37.5102,실내대피소,1400.0,지진실내구호소
721,영본초등학교 운동장,서울특별시,동작구,서울특별시 동작구 만양로12가길 69(본동),126.9489,37.5106,실내대피소,2683.0,지진실내구호소
722,동양중학교 운동장,서울특별시,동작구,서울특별시 동작구 흑석로9길 94(흑석동),126.9562,37.5096,실내대피소,952.0,지진실내구호소
723,재현고등학교 운동장,서울특별시,노원구,서울특별시 노원구 중계동 129-1,127.0807,37.6608,실내대피소,4340.0,지진실내구호소
724,재현중학교 운동장,서울특별시,노원구,서울특별시 노원구 덕릉로82길 64(중계동),127.0806,37.6609,실내대피소,2050.0,지진실내구호소
725,중계중학교 운동장,서울특별시,노원구,서울특별시 노원구 덕릉로76길 23(중계동),127.0752,37.655,실내대피소,4170.0,지진실내구호소
726,중계초등학교 운동장,서울특별시,노원구,서울특별시 노원구 한글비석로19길 39(중계동),127.0732,37.6574,실내대피소,4030.0,지진실내구호소
727,중원중학교 운동장,서울특별시,노원구,서울특별시 노원구 공릉로 420(중계동),127.0681,37.6438,실내대피소,3120.0,지진실내구호소
728,중원초등학교 운동장,서울특별시,노원구,서울특별시 노원구 섬밭로 316(중계동),127.0628,37.6434,실내대피소,4020.0,지진실내구호소
729,청계초등학교 운동장,서울특별시,노원구,서울특별시 노원구 공릉로 431(중계동),127.0664,37.6444,실내대피소,4200.0,지진실내구호소
730,청암중고등학교 운동장,서울특별시,노원구,서울특별시 노원구 중계동 411-1,127.0741,37.6511,실내대피소,1280.0,지진실내구호소
731,수색초등학교 운동장,서울특별시,은평구,서울특별시 은평구 수색로16길 21(수색동),126.8955,37.5845,실내대피소,16943.0,지진실내구호소
732,녹번동마을마당,서울특별시,은평구,서울특별시 은평구 녹번동 104-7,126.9275,37.606,실내대피소,718.0,지진실내구호소
733,새록어린이공원,서울특별시,은평구,서울특별시 은평구 은평로13길 35(녹번동),126.9236,37.6039,실내대피소,958.0,지진실내구호소
734,은평평화공원,서울특별시,은평구,서울특별시 은평구 녹번동 153-19,126.9233,37.6051,실내대피소,6984.0,지진실내구호소
735,녹번초등학교 운동장,서울특별시,은평구,서울특별시 은평구 녹번로1길 1(녹번동),126.9264,37.6038,실내대피소,10200.0,지진실내구호소
736,은평초등학교 운동장,서울특별시,은평구,서울특별시 은평구 녹번동 40-3,126.9344,37.6016,실내대피소,14908.0,지진실내구호소
737,불광어린이공원,서울특별시,은평구,서울특별시 은평구 불광동 236-5,126.9314,37.6163,실내대피소,570.0,지진실내구호소
738,연신어린이공원,서울특별시,은평구,서울특별시 은평구 통일로78길 31(불광동),126.925,37.6197,실내대피소,1220.0,지진실내구호소
739,불광중학교 운동장,서울특별시,은평구,서울특별시 은평구 불광동 173-0,126.9314,37.623,실내대피소,6985.0,지진실내구호소
740,불광초등학교 운동장,서울특별시,은평구,서울특별시 은평구 불광동 272-2,126.9308,37.6126,실내대피소,16000.0,지진실내구호소
741,세명컴퓨터고등학교 운동장,서울특별시,은평구,서울특별시 은평구 불광동 445-35,126.9234,37.6275,실내대피소,2260.0,지진실내구호소
742,연광초등학교 운동장,서울특별시,은평구,서울특별시 은평구 불광동 400-6,126.9238,37.6236,실내대피소,3390.0,지진실내구호소
743,연신중학교 운동장,서울특별시,은평구,서울특별시 은평구 연서로33길 16-32 (불광동),126.9252,37.6231,실내대피소,5635.0,지진실내구호소
744,연신초등학교 운동장,서울특별시,은평구,서울특별시 은평구 불광동 73-1,126.9284,37.6262,실내대피소,3926.0,지진실내구호소
745,갈곡리공원,서울특별시,은평구,서울특별시 은평구 갈현동 436-51,126.9164,37.6239,실내대피소,957.0,지진실내구호소
746,궁말공원,서울특별시,은평구,서울특별시 은평구 갈현동 327-21,126.9089,37.6169,실내대피소,1009.0,지진실내구호소
747,길마공원,서울특별시,은평구,서울특별시 은평구 갈현동 474-1,126.9158,37.6147,실내대피소,1590.0,지진실내구호소
748,박석공원,서울특별시,은평구,서울특별시 은평구 갈현동 416-3,126.9185,37.6251,실내대피소,738.0,지진실내구호소
749,서갈현공원,서울특별시,은평구,서울특별시 은평구 갈현동 434-38,126.9157,37.6215,실내대피소,1428.0,지진실내구호소
750,앵봉산주민쉼터,서울특별시,은평구,서울특별시 은평구 갈현동 산49-22,126.9122,37.6243,실내대피소,704.0,지진실내구호소
751,좌월공원,서울특별시,은평구,서울특별시 은평구 갈현동 513-1,126.9133,37.6173,실내대피소,1321.0,지진실내구호소
752,갈현초등학교 운동장,서울특별시,은평구,서울특별시 은평구 갈현동 451-15,126.9167,37.6192,실내대피소,11702.0,지진실내구호소
753,선정고등학교 운동장,서울특별시,은평구,서울특별시 은평구 갈현동 227-5,126.9088,37.618,실내대피소,28574.0,지진실내구호소
754,구산중학교 운동장,서울특별시,은평구,서울특별시 은평구 구산동 182-45,126.9091,37.6092,실내대피소,4680.0,지진실내구호소
755,구산초등학교 운동장,서울특별시,은평구,서울특별시 은평구 구산동 145-2,126.9095,37.6123,실내대피소,8588.0,지진실내구호소
756,예일여자고등학교 운동장,서울특별시,은평구,서울특별시 은평구 연서로 117(구산동),126.9152,37.6101,실내대피소,6569.0,지진실내구호소
757,은평고등학교 운동장,서울특별시,은평구,서울특별시 은평구 갈현로15길 47(구산동),126.9061,37.6089,실내대피소,1350.0,지진실내구호소
758,은평중학교  운동장,서울특별시,은평구,서울특별시 은평구 구산동 182-44,126.9092,37.6104,실내대피소,6612.0,지진실내구호소
759,대조공원,서울특별시,은평구,서울특별시 은평구 대조동 212-0,126.9198,37.6154,실내대피소,3294.0,지진실내구호소
760,대은초등학교 운동장,서울특별시,은평구,서울특별시 은평구 통일로69길 12-15 (대조동),126.9262,37.6116,실내대피소,9366.0,지진실내구호소
761,대조초등학교 운동장,서울특별시,은평구,서울특별시 은평구 대조동 212-1,126.9195,37.6126,실내대피소,14207.0,지진실내구호소
762,동명여자고등학교 운동장,서울특별시,은평구,서울특별시 은평구 대조동 91-20,126.9239,37.6139,실내대피소,30554.0,지진실내구호소
763,응암9어린이공원,서울특별시,은평구,서울특별시 은평구 응암동 761-3,126.9229,37.5868,실내대피소,2254.0,지진실내구호소
764,응암어린이공원,서울특별시,은평구,서울특별시 은평구 은평로11길 10(응암동),126.9235,37.6016,실내대피소,836.0,지진실내구호소
765,참다래어린이공원,서울특별시,은평구,서울특별시 은평구 응암동 120-22,126.9173,37.5953,실내대피소,860.0,지진실내구호소
766,신진과학기술고등학교 운동장,서울특별시,은평구,서울특별시 은평구 응암동 114-1,126.9181,37.5984,실내대피소,2478.0,지진실내구호소
767,연은초등학교 운동장,서울특별시,은평구,서울특별시 은평구 백련산로2길 35(응암동),126.9251,37.5901,실내대피소,889.0,지진실내구호소
768,영락중학교 운동장,서울특별시,은평구,"서울특별시 은평구 백련산로 126-2 (응암동, )",126.9252,37.5963,실내대피소,3240.0,지진실내구호소
769,은명초등학교 운동장,서울특별시,은평구,서울특별시 은평구 은평로4길 21-9 (응암동),126.9186,37.5973,실내대피소,1920.0,지진실내구호소
770,은평문화예술정보학교 운동장,서울특별시,은평구,서울특별시 은평구 가좌로 208(응암동),126.919,37.5892,실내대피소,1000.0,지진실내구호소
771,응암초등학교 운동장,서울특별시,은평구,서울특별시 은평구 가좌로6길 20(응암동),126.921,37.5882,실내대피소,2000.0,지진실내구호소
772,충암초중고등학교 운동장,서울특별시,은평구,서울특별시 은평구 가좌로5길 5(응암동),126.9214,37.5855,실내대피소,9300.0,지진실내구호소
773,역말어린이공원,서울특별시,은평구,서울특별시 은평구 역촌동 47-1,126.914,37.6068,실내대피소,944.0,지진실내구호소
774,새락골어린이공원,서울특별시,은평구,서울특별시 은평구 신사동 5-21,126.9111,37.5989,실내대피소,538.0,지진실내구호소
775,신흥어린이공원,서울특별시,은평구,서울특별시 은평구 신사동 31-2,126.9118,37.596,실내대피소,696.0,지진실내구호소
776,덕산중학교 운동장,서울특별시,은평구,서울특별시 은평구 가좌로 400(신사동),126.9041,37.6016,실내대피소,3411.0,지진실내구호소
777,상신중학교 운동장,서울특별시,은평구,서울특별시 은평구 신사동 141-0,126.9063,37.59,실내대피소,2188.0,지진실내구호소
778,상신초등학교 운동장,서울특별시,은평구,서울특별시 은평구 가좌로 361(신사동),126.905,37.5977,실내대피소,1973.0,지진실내구호소
779,서신초등학교 운동장,서울특별시,은평구,서울특별시 은평구 은평터널로 150(신사동),126.9072,37.5921,실내대피소,1092.0,지진실내구호소
780,신사초등학교 운동장,서울특별시,은평구,서울특별시 은평구 신사동 98-32,126.9123,37.5927,실내대피소,1555.0,지진실내구호소
781,분토골공원,서울특별시,은평구,서울특별시 은평구 증산동 163-34,126.9116,37.5867,실내대피소,1360.0,지진실내구호소
782,시루뫼어린이공원,서울특별시,은평구,서울특별시 은평구 증산동 185-1,126.9065,37.5828,실내대피소,852.0,지진실내구호소
783,증산중학교 운동장,서울특별시,은평구,서울특별시 은평구 증산로5길 27-30 (증산동),126.9043,37.5835,실내대피소,3781.0,지진실내구호소
784,증산초등학교 운동장,서울특별시,은평구,서울특별시 은평구 증산서길 61(증산동),126.9048,37.5821,실내대피소,2224.0,지진실내구호소
785,금암문화공원(은평뉴타운 제1호 문화공원),서울특별시,은평구,서울특별시 은평구 진관동 53-5,126.918,37.6442,실내대피소,6587.0,지진실내구호소
786,기자촌근린공원,서울특별시,은평구,서울특별시 은평구 진관동 산106-17,126.9362,37.6344,실내대피소,128954.0,지진실내구호소
787,신도초등학교 운동장,서울특별시,은평구,서울특별시 은평구 진관1로 77-23 (진관동),126.9289,37.6325,실내대피소,1583.0,지진실내구호소
788,은빛초등학교 운동장,서울특별시,은평구,서울특별시 은평구 진관3로 73-17 (진관동),126.9191,37.6422,실내대피소,1512.0,지진실내구호소
789,은진초등학교 운동장,서울특별시,은평구,서울특별시 은평구 진관동 231-11,126.9214,37.6329,실내대피소,2000.0,지진실내구호소
790,진관중학교 운동장,서울특별시,은평구,서울특별시 은평구 진관4로 36(진관동),126.926,37.6438,실내대피소,1960.0,지진실내구호소
791,진관초등학교 운동장,서울특별시,은평구,서울특별시 은평구 진관동 14-22,126.9294,37.6448,실내대피소,1830.0,지진실내구호소
792,인창고등학교운동장,서울특별시,서대문구,서울특별시 서대문구 경기대로 65(충정로2가),126.9636,37.565,실내대피소,10537.0,지진실내구호소
793,인창중학교 운동장,서울특별시,서대문구,서울특별시 서대문구 충정로2가 70-0,126.9636,37.565,실내대피소,10464.0,지진실내구호소
794,미동초등학교 운동장,서울특별시,서대문구,서울특별시 서대문구 충정로 52(미근동),126.9658,37.5628,실내대피소,1529.0,지진실내구호소
795,감리교신학대 운동장,서울특별시,서대문구,서울특별시 서대문구 냉천동 31,126.963,37.5671,실내대피소,846.0,지진실내구호소
796,금화초등학교 운동장,서울특별시,서대문구,서울특별시 서대문구 통일로 165(천연동),126.9632,37.5685,실내대피소,886.0,지진실내구호소
797,동명여자중학교 운동장,서울특별시,서대문구,서울특별시 서대문구 천연동 31-1,126.9623,37.5683,실내대피소,2000.0,지진실내구호소
798,독립문문화공원,서울특별시,서대문구,서울특별시 서대문구 영천동 263,126.9603,37.5715,실내대피소,2600.0,지진실내구호소
799,서대문독립공원,서울특별시,서대문구,서울특별시 서대문구 독립문공원길 80(현저동),126.9561,37.574,실내대피소,103713.0,지진실내구호소
800,북성초등학교 운동장,서울특별시,서대문구,서울특별시 서대문구 북아현로1나길 22(북아현동),126.952,37.559,실내대피소,3300.0,지진실내구호소
801,중앙여자고등학교 운동장,서울특별시,서대문구,서울특별시 서대문구 북아현로11가길 7(북아현동),126.9532,37.562,실내대피소,5150.0,지진실내구호소
802,한성중고등학교 운동장,서울특별시,서대문구,서울특별시 서대문구 북아현동 170-1,126.9545,37.5603,실내대피소,12625.0,지진실내구호소
803,문화소공원,서울특별시,서대문구,서울특별시 서대문구 홍제동 280-2,126.9488,37.5945,실내대피소,1456.0,지진실내구호소
804,고은초등학교 운동장,서울특별시,서대문구,서울특별시 서대문구 모래내로 441(홍제동),126.9436,37.5847,실내대피소,954.0,지진실내구호소
805,서울여자간호대학교 운동장,서울특별시,서대문구,서울특별시 서대문구 간호대로 38(홍제동),126.9473,37.5975,실내대피소,4534.0,지진실내구호소
806,안산초등학교 운동장,서울특별시,서대문구,서울특별시 서대문구 통일로 321(홍제동),126.9516,37.5793,실내대피소,1931.0,지진실내구호소
807,인왕중학교 운동장,서울특별시,서대문구,서울특별시 서대문구 세검정로4길 69(홍제동),126.9525,37.5928,실내대피소,3934.0,지진실내구호소
808,인왕초등학교 운동장,서울특별시,서대문구,서울특별시 서대문구 세무서길 33-9 (홍제동),126.9451,37.5904,실내대피소,3596.0,지진실내구호소
809,홍은초등학교 운동장,서울특별시,서대문구,서울특별시 서대문구 세검정로 105(홍제동),126.9496,37.5972,실내대피소,1299.0,지진실내구호소
810,신촌역 동측광장 공영주차장,서울특별시,서대문구,서울특별시 서대문구 대현동 121-19,126.943,37.5593,실내대피소,2000.0,지진실내구호소
811,대신초등학교 운동장,서울특별시,서대문구,서울특별시 서대문구 이화여대2길 27(대현동),126.9474,37.5576,실내대피소,1011.0,지진실내구호소
812,이화금란고등학교 운동장,서울특별시,서대문구,서울특별시 서대문구 성산로 560(대신동),126.9471,37.5656,실내대피소,3288.0,지진실내구호소
813,이화금란중학교 운동장,서울특별시,서대문구,서울특별시 서대문구 성산로 560(대신동),126.944,37.5626,실내대피소,8514.0,지진실내구호소
814,연세대학교 운동장,서울특별시,서대문구,서울특별시 서대문구 연세로 50(신촌동),126.9334,37.5622,실내대피소,12645.0,지진실내구호소
815,창서초등학교 운동장,서울특별시,서대문구,서울특별시 서대문구 연세로5나길 30-3 (창천동),126.934,37.5575,실내대피소,2874.0,지진실내구호소
816,서연중학교 운동장,서울특별시,서대문구,서울특별시 서대문구 연희로11마길 9-6 (연희동),126.9278,37.5682,실내대피소,1581.0,지진실내구호소
817,신연중학교 운동장,서울특별시,서대문구,서울특별시 서대문구 모래내로 408(연희동),126.9399,37.5833,실내대피소,4537.0,지진실내구호소
818,연북중학교 운동장,서울특별시,서대문구,서울특별시 서대문구 연희로36길 32(연희동),126.9375,37.5776,실내대피소,6087.0,지진실내구호소
819,연희초등학교 운동장,서울특별시,서대문구,서울특별시 서대문구 연희로 136(연희동),126.9335,37.569,실내대피소,1257.0,지진실내구호소
820,명지고등학교 운동장,서울특별시,서대문구,서울특별시 서대문구 명지2길 56(홍은동),126.927,37.584,실내대피소,3624.0,지진실내구호소
821,명지전문대 운동장,서울특별시,서대문구,서울특별시 서대문구 가좌로 134(홍은동),126.9253,37.5837,실내대피소,4556.0,지진실내구호소
822,태양어린이공원,서울특별시,양천구,서울특별시 양천구 오목로3길 34(신월동),126.8385,37.5244,실내대피소,998.0,지진실내구호소
823,한울근린공원,서울특별시,양천구,서울특별시 양천구 지양로7길 27-5 (신월동),126.8321,37.5198,실내대피소,313.0,지진실내구호소
824,신월1동휴게공간(마을마당),서울특별시,양천구,서울특별시 양천구 곰달래로3길 13(신월동),126.8331,37.5306,실내대피소,1396.0,지진실내구호소
825,강서초등학교 운동장,서울특별시,양천구,서울특별시 양천구 신월동 441-0,126.8404,37.5221,실내대피소,3927.0,지진실내구호소
826,강신중학교 운동장,서울특별시,양천구,서울특별시 양천구 신월동 1010-0,126.8391,37.5143,실내대피소,4542.0,지진실내구호소
827,강신초등학교 운동장,서울특별시,양천구,서울특별시 양천구 신월동 6-7,126.8292,37.5425,실내대피소,2570.0,지진실내구호소
828,강월초등학교 운동장,서울특별시,양천구,서울특별시 양천구 신월동 987-3,126.8341,37.516,실내대피소,4528.0,지진실내구호소
829,신강초등학교 운동장,서울특별시,양천구,서울특별시 양천구 신월동 448-5,126.8416,37.5258,실내대피소,2706.0,지진실내구호소
830,신남중학교 운동장,서울특별시,양천구,서울특별시 양천구 신월동 609-7,126.8478,37.5204,실내대피소,2227.0,지진실내구호소
831,신남초등학교 운동장,서울특별시,양천구,서울특별시 양천구 신월동 587-0,126.8447,37.5159,실내대피소,3778.0,지진실내구호소
832,신원초등학교 운동장,서울특별시,양천구,서울특별시 양천구 신월동 202-1,126.8304,37.5296,실내대피소,2560.0,지진실내구호소
833,신월중학교 운동장,서울특별시,양천구,서울특별시 양천구 신월동 17-6,126.8289,37.5404,실내대피소,6489.0,지진실내구호소
834,신화중학교 운동장,서울특별시,양천구,서울특별시 양천구 신월동 17-7,126.83,37.5405,실내대피소,3665.0,지진실내구호소
835,양강중학교 운동장,서울특별시,양천구,서울특별시 양천구 신월동 499-2,126.8495,37.5243,실내대피소,6924.0,지진실내구호소
836,양강초등학교 운동장,서울특별시,양천구,서울특별시 양천구 신월동 495-1,126.8481,37.5239,실내대피소,4472.0,지진실내구호소
837,양서중학교 운동장,서울특별시,양천구,서울특별시 양천구 신월동 169-4,126.8295,37.5328,실내대피소,2109.0,지진실내구호소
838,양천중학교 운동장,서울특별시,양천구,서울특별시 양천구 신월동 948-0,126.8308,37.5201,실내대피소,3463.0,지진실내구호소
839,백합공원,서울특별시,강서구,서울특별시 강서구 염창동 267-24,126.8693,37.5511,실내대피소,852.0,지진실내구호소
840,서울염창초등학교 운동장,서울특별시,강서구,서울특별시 강서구 양천로 646-28 (염창동),126.8679,37.5528,실내대피소,3649.0,지진실내구호소
841,염경중학교 운동장,서울특별시,강서구,서울특별시 강서구 염창동 79-8,126.8708,37.5542,실내대피소,2352.0,지진실내구호소
842,염경초등학교운동장,서울특별시,강서구,서울특별시 강서구 양천로69길 49(염창동),126.8713,37.5546,실내대피소,1566.0,지진실내구호소
843,염창중학교 운동장,서울특별시,강서구,서울특별시 강서구 양천로67가길 83(염창동),126.8719,37.5535,실내대피소,3663.0,지진실내구호소
844,능안공원,서울특별시,강서구,서울특별시 강서구 등촌로39마길 3(등촌동),126.86,37.5464,실내대피소,707.0,지진실내구호소
845,등마루공원,서울특별시,강서구,서울특별시 강서구 등촌동 641-5,126.8573,37.556,실내대피소,969.0,지진실내구호소
846,등촌근린공원,서울특별시,강서구,서울특별시 강서구 강서로62길 35(등촌동),126.8417,37.5633,실내대피소,10052.0,지진실내구호소
847,백석어린이공원,서울특별시,강서구,서울특별시 강서구 등촌동 646-41,126.8635,37.5526,실내대피소,928.0,지진실내구호소
848,새나라공원,서울특별시,강서구,서울특별시 강서구 등촌동 707-2,126.852,37.5615,실내대피소,1563.0,지진실내구호소
849,서낭당근린공원,서울특별시,강서구,서울특별시 강서구 공항대로43길 46(등촌동),126.8499,37.5585,실내대피소,10249.0,지진실내구호소
850,원당근린공원,서울특별시,강서구,서울특별시 강서구 강서로56길 49(등촌동),126.842,37.5597,실내대피소,10096.0,지진실내구호소
851,등마초등학교 운동장,서울특별시,강서구,서울특별시 강서구 등촌동 718-0,126.862,37.5419,실내대피소,2627.0,지진실내구호소
852,등명중학교 운동장,서울특별시,강서구,서울특별시 강서구 공항대로39길 39(등촌동),126.8431,37.5596,실내대피소,4099.0,지진실내구호소
853,등원중학교 운동장,서울특별시,강서구,서울특별시 강서구 화곡로65길 50(등촌동),126.8513,37.5593,실내대피소,2838.0,지진실내구호소
854,등촌고등학교 운동장,서울특별시,강서구,서울특별시 강서구 공항대로39길 115(등촌동),126.8444,37.5625,실내대피소,3104.0,지진실내구호소
855,등촌중학교운동장,서울특별시,강서구,서울특별시 강서구 등촌동 534-9,126.8598,37.5518,실내대피소,6692.0,지진실내구호소
856,등촌초등학교운동장,서울특별시,강서구,서울특별시 강서구 등촌동 520-4,126.8583,37.5476,실내대피소,4356.0,지진실내구호소
857,등현초등학교운동장,서울특별시,강서구,서울특별시 강서구 등촌동 702-5,126.8478,37.561,실내대피소,1980.0,지진실내구호소
858,마포고등학교 운동장,서울특별시,강서구,서울특별시 강서구 화곡로 403(등촌동),126.8528,37.5589,실내대피소,6399.0,지진실내구호소
859,백석중학교 운동장,서울특별시,강서구,서울특별시 강서구 등촌로51나길 35(등촌동),126.8593,37.548,실내대피소,1658.0,지진실내구호소
860,백석초등학교운동장,서울특별시,강서구,서울특별시 강서구 등촌동 650-14,126.862,37.5532,실내대피소,3409.0,지진실내구호소
861,서울등명초등학교 운동장,서울특별시,강서구,서울특별시 강서구 강서로56나길 34(등촌동),126.842,37.5604,실내대피소,3032.0,지진실내구호소
862,서울등양초등학교 운동장,서울특별시,강서구,서울특별시 강서구 강서로56나길 140(등촌동),126.8446,37.5646,실내대피소,3437.0,지진실내구호소
863,서울등원초등학교 운동장,서울특별시,강서구,서울특별시 강서구 화곡로65길 90(등촌동),126.8496,37.5603,실내대피소,2207.0,지진실내구호소
864,영일고등학교 운동장,서울특별시,강서구,서울특별시 강서구 등촌로51가길 26(등촌동),126.8617,37.5479,실내대피소,2332.0,지진실내구호소
865,유석초등학교 운동장,서울특별시,강서구,서울특별시 강서구 화곡로69길 9(등촌동),126.8536,37.5605,실내대피소,2503.0,지진실내구호소
866,골말어린이공원,서울특별시,강서구,서울특별시 강서구 곰달래로45길 17(화곡동),126.8561,37.5332,실내대피소,977.0,지진실내구호소
867,구름공원,서울특별시,강서구,서울특별시 강서구 화곡동 98-22,126.844,37.5433,실내대피소,833.0,지진실내구호소
868,까치어린이공원,서울특별시,강서구,서울특별시 강서구 화곡동 354-14,126.8418,37.5334,실내대피소,1193.0,지진실내구호소
869,꿈돌이 어린이공원,서울특별시,강서구,서울특별시 강서구 화곡로 234(화곡동),126.8453,37.5459,실내대피소,1549.0,지진실내구호소
870,노을 공원,서울특별시,강서구,서울특별시 강서구 화곡동 105-194,126.8439,37.5398,실내대피소,999.0,지진실내구호소
871,능골공원,서울특별시,강서구,서울특별시 강서구 화곡동 468-1,126.8552,37.5367,실내대피소,997.0,지진실내구호소
872,달빛공원,서울특별시,강서구,서울특별시 강서구 화곡동 783-1,126.8629,37.5311,실내대피소,976.0,지진실내구호소
873,더부리어린이공원,서울특별시,강서구,서울특별시 강서구 화곡동 339-19,126.8467,37.5348,실내대피소,1364.0,지진실내구호소
874,두레어린이공원,서울특별시,강서구,서울특별시 강서구 강서로8길 203(화곡동),126.8593,37.5312,실내대피소,986.0,지진실내구호소
875,뜸부기공원,서울특별시,강서구,서울특별시 강서구 화곡동 845-19,126.8569,37.5301,실내대피소,998.0,지진실내구호소
876,모태어린이공원,서울특별시,강서구,서울특별시 강서구 화곡동 892-17,126.8495,37.5295,실내대피소,1003.0,지진실내구호소
877,무지개어린이공원,서울특별시,강서구,서울특별시 강서구 화곡동 806-10,126.8612,37.5339,실내대피소,976.0,지진실내구호소
878,미리내공원,서울특별시,강서구,서울특별시 강서구 화곡동 1008-32,126.8347,37.5476,실내대피소,968.0,지진실내구호소
879,바탕골공원,서울특별시,강서구,서울특별시 강서구 강서로45다길 74(화곡동),126.8347,37.5445,실내대피소,887.0,지진실내구호소
880,배다리공원,서울특별시,강서구,서울특별시 강서구 화곡동 341-24,126.8482,37.5321,실내대피소,1630.0,지진실내구호소
881,볏골어린이공원,서울특별시,강서구,서울특별시 강서구 까치산로4길 22(화곡동),126.8443,37.5414,실내대피소,4163.0,지진실내구호소
882,소나무 공원,서울특별시,강서구,서울특별시 강서구 까치산로15길 17(화곡동),126.8478,37.547,실내대피소,876.0,지진실내구호소
883,솔뫼공원,서울특별시,강서구,서울특별시 강서구 가로공원로77길 30(화곡동),126.8384,37.5378,실내대피소,2097.0,지진실내구호소
884,수명어린이공원,서울특별시,강서구,서울특별시 강서구 화곡로15길 18(화곡동),126.8344,37.5408,실내대피소,880.0,지진실내구호소
885,안골어린이공원,서울특별시,강서구,서울특별시 강서구 강서로18아길 15-9 (화곡동),126.8508,37.5357,실내대피소,2382.0,지진실내구호소
886,역말어린이공원,서울특별시,강서구,서울특별시 강서구 화곡로44가길 52-4 (화곡동),126.8487,37.5496,실내대피소,1493.0,지진실내구호소
887,천사어린이공원,서울특별시,강서구,서울특별시 강서구 화곡동 1139-1,126.8329,37.5469,실내대피소,2395.0,지진실내구호소
888,큰별공원,서울특별시,강서구,서울특별시 강서구 화곡동 46-41,126.8489,37.5444,실내대피소,1081.0,지진실내구호소
889,필마공원,서울특별시,강서구,"서울특별시 강서구 곰달래로15가길 34-14 (화곡동, 동양주택)",126.8387,37.5315,실내대피소,1056.0,지진실내구호소
890,하마터어린이공원,서울특별시,강서구,서울특별시 강서구 곰달래로36길 22(화곡동),126.8536,37.53,실내대피소,1026.0,지진실내구호소
891,호돌이공원,서울특별시,강서구,서울특별시 강서구 화곡동 906-26,126.8459,37.5282,실내대피소,661.0,지진실내구호소
892,등서초등학교 운동장,서울특별시,강서구,서울특별시 강서구 화곡동 1130-4,126.8548,37.5515,실내대피소,5052.0,지진실내구호소
893,신곡초등학교운동장,서울특별시,강서구,서울특별시 강서구 화곡동 476-42,126.8558,37.5386,실내대피소,3100.0,지진실내구호소
894,신월초등학교운동장,서울특별시,강서구,서울특별시 강서구 화곡동 1080,126.8391,37.5399,실내대피소,5182.0,지진실내구호소
895,신정고등학교 운동장,서울특별시,강서구,서울특별시 강서구 등촌로13아길 20(화곡동),126.8573,37.5379,실내대피소,3561.0,지진실내구호소
896,신정초등학교운동장,서울특별시,강서구,서울특별시 강서구 화곡동 869-42,126.8526,37.5324,실내대피소,17322.0,지진실내구호소
897,우장초등학교운동장,서울특별시,강서구,서울특별시 강서구 화곡동 18-5,126.8463,37.5488,실내대피소,2375.0,지진실내구호소
898,월정초등학교운동장,서울특별시,강서구,서울특별시 강서구 화곡동 374-1,126.8363,37.5344,실내대피소,3336.0,지진실내구호소
899,한광고등학교 운동장,서울특별시,강서구,서울특별시 강서구 등촌로13길 110(화곡동),126.8584,37.5384,실내대피소,2652.0,지진실내구호소
900,화곡초등학교운동장,서울특별시,강서구,서울특별시 강서구 화곡동 24-266,126.8461,37.5432,실내대피소,5290.0,지진실내구호소
901,화원중학교운동장,서울특별시,강서구,서울특별시 강서구 화곡동 351-94,126.8422,37.5365,실내대피소,2230.0,지진실내구호소
902,공암나루근린공원,서울특별시,강서구,서울특별시 강서구 강서로80길 117(가양동),126.8497,37.5704,실내대피소,24176.0,지진실내구호소
903,나들이공원,서울특별시,강서구,서울특별시 강서구 가양동 1459-1,126.8442,37.5718,실내대피소,1496.0,지진실내구호소
904,허준근린공원,서울특별시,강서구,서울특별시 강서구 허준로5길 42(가양동),126.8524,37.5678,실내대피소,29844.0,지진실내구호소
905,황금내근린공원,서울특별시,강서구,서울특별시 강서구 양천로61길 101(가양동),126.8637,37.562,실내대피소,29048.0,지진실내구호소
906,가양초등학교운동장,서울특별시,강서구,서울특별시 강서구 가양동 1484,126.8593,37.5615,실내대피소,3169.0,지진실내구호소
907,경서중학교 운동장,서울특별시,강서구,서울특별시 강서구 양천로59길 31(가양동),126.8588,37.5608,실내대피소,2834.0,지진실내구호소
908,동양고등학교 운동장,서울특별시,강서구,서울특별시 강서구 허준로 50(가양동),126.8477,37.5688,실내대피소,3077.0,지진실내구호소
909,서울시교육청학생교육원(구.공진중학교),서울특별시,강서구,서울특별시 강서구 양천로55길 56(가양동),126.8507,37.5662,실내대피소,2424.0,지진실내구호소
910,서울탑산초등학교 운동장,서울특별시,강서구,서울특별시 강서구 허준로 109(가양동),126.8524,37.5666,실내대피소,2379.0,지진실내구호소
911,성재중학교 운동장,서울특별시,강서구,서울특별시 강서구 허준로 36(가양동),126.846,37.5692,실내대피소,3304.0,지진실내구호소
912,세현고등학교 운동장,서울특별시,강서구,서울특별시 강서구 허준로 227(가양동),126.864,37.56,실내대피소,1857.0,지진실내구호소
913,양천초등학교운동장,서울특별시,강서구,서울특별시 강서구 가양동 272-11,126.8397,37.5698,실내대피소,11450.0,지진실내구호소
914,영등포공업고등학교 운동장,서울특별시,강서구,서울특별시 강서구 허준로5길 15(가양동),126.8502,37.5693,실내대피소,3168.0,지진실내구호소
915,마곡하늬공원,서울특별시,강서구,서울특별시 강서구 마곡서로 13(마곡동),126.821,37.5569,실내대피소,20078.0,지진실내구호소
916,개화초등학교운동장,서울특별시,강서구,서울특별시 강서구 마곡동 501,126.8044,37.5734,실내대피소,2380.0,지진실내구호소
917,마곡중학교 운동장,서울특별시,강서구,서울특별시 강서구 마곡중앙5로 58(마곡동),126.8213,37.5674,실내대피소,2310.0,지진실내구호소
918,서울공진초등학교 운동장,서울특별시,강서구,서울특별시 강서구 마곡서로 33(마곡동),126.8231,37.5578,실내대피소,2479.0,지진실내구호소
919,서울공항초등학교 운동장,서울특별시,강서구,서울특별시 강서구 마곡서1로 68(마곡동),126.8217,37.5626,실내대피소,2316.0,지진실내구호소
920,명지중학교 운동장,서울특별시,서대문구,서울특별시 서대문구 명지2길 56(홍은동),126.9271,37.584,실내대피소,738.0,지진실내구호소
921,정원여자중학교 운동장,서울특별시,서대문구,서울특별시 서대문구 연희로37안길 51(홍은동),126.9331,37.5853,실내대피소,813.0,지진실내구호소
922,홍연초등학교 운동장,서울특별시,서대문구,서울특별시 서대문구 백련사길 55(홍은동),126.931,37.5815,실내대피소,560.0,지진실내구호소
923,홍은중학교 운동장,서울특별시,서대문구,서울특별시 서대문구 연희로41길 94(홍은동),126.9353,37.5922,실내대피소,586.0,지진실내구호소
924,홍제초등학교 운동장,서울특별시,서대문구,서울특별시 서대문구 홍은중앙로 13(홍은동),126.9449,37.5931,실내대피소,639.0,지진실내구호소
925,나비울어린이공원,서울특별시,서대문구,서울특별시 서대문구 북가좌동 168-32,126.91,37.5747,실내대피소,6653.0,지진실내구호소
926,은가어린이공원,서울특별시,서대문구,서울특별시 서대문구 북가좌동 3-39,126.9194,37.5827,실내대피소,1312.0,지진실내구호소
927,중앙근린공원,서울특별시,서대문구,서울특별시 서대문구 북가좌동 105-8,126.9138,37.575,실내대피소,10856.0,지진실내구호소
928,가재울고등학교 운동장,서울특별시,서대문구,서울특별시 서대문구 수색로 100-35 (북가좌동),126.9092,37.5739,실내대피소,888.0,지진실내구호소
929,북가좌초등학교 운동장,서울특별시,서대문구,서울특별시 서대문구 거북골로19길 20(북가좌동),126.9079,37.5781,실내대피소,2544.0,지진실내구호소
930,가재울어린이공원,서울특별시,서대문구,서울특별시 서대문구 남가좌동 123,126.9104,37.5824,실내대피소,9125.0,지진실내구호소
931,모래내쉼터,서울특별시,서대문구,서울특별시 서대문구 남가좌동 382-12,126.9165,37.5705,실내대피소,1386.0,지진실내구호소
932,가재울초등학교 운동장,서울특별시,서대문구,서울특별시 서대문구 남가좌동 164-1,126.9183,37.5734,실내대피소,2215.0,지진실내구호소
933,명지대학교 운동장,서울특별시,서대문구,서울특별시 서대문구 거북골로 34(남가좌동),126.9226,37.5802,실내대피소,3315.0,지진실내구호소
934,연가초등학교 운동장,서울특별시,서대문구,서울특별시 서대문구 증가로12가길 49-50 (남가좌동),126.9181,37.5797,실내대피소,2401.0,지진실내구호소
935,연희중학교 운동장,서울특별시,서대문구,서울특별시 서대문구 증가로 170(남가좌동),126.9189,37.5791,실내대피소,3290.0,지진실내구호소
936,쌍룡산어린이공원,서울특별시,마포구,서울특별시 마포구 아현동 769,126.9507,37.5522,실내대피소,647.0,지진실내구호소
937,아현녹지쉼터,서울특별시,마포구,서울특별시 마포구 아현동 704-0,126.9627,37.557,실내대피소,6745.0,지진실내구호소
938,소의초등학교 운동장,서울특별시,마포구,서울특별시 마포구 마포대로24길 42(아현동),126.9611,37.5521,실내대피소,2722.0,지진실내구호소
939,아현중학교 운동장,서울특별시,마포구,서울특별시 마포구 마포대로 247(아현동),126.9571,37.5564,실내대피소,4596.0,지진실내구호소
940,아현초등학교 운동장,서울특별시,마포구,서울특별시 마포구 굴레방로 6(아현동),126.9569,37.5552,실내대피소,4191.0,지진실내구호소
941,공덕역어린이공원,서울특별시,마포구,서울특별시 마포구 공덕동 467-1,126.9512,37.545,실내대피소,2435.0,지진실내구호소
942,큰더기어린이공원,서울특별시,마포구,서울특별시 마포구 공덕동 470-1,126.9532,37.5505,실내대피소,1514.0,지진실내구호소
943,공덕소공원(법원및쉼터),서울특별시,마포구,서울특별시 마포구 공덕동 475-1,126.9545,37.5484,실내대피소,689.0,지진실내구호소
944,공덕초등학교 운동장,서울특별시,마포구,서울특별시 마포구 만리재옛길 13(공덕동),126.9541,37.5457,실내대피소,5141.0,지진실내구호소
945,도화소어린이공원,서울특별시,마포구,서울특별시 마포구 토정로37길 22(도화동),126.9454,37.541,실내대피소,2098.0,지진실내구호소
946,삼개어린이공원,서울특별시,마포구,서울특별시 마포구 토정로37길 12(도화동),126.9451,37.5406,실내대피소,2314.0,지진실내구호소
947,마포초등학교 운동장,서울특별시,마포구,서울특별시 마포구 도화2길 64(도화동),126.9495,37.5379,실내대피소,2077.0,지진실내구호소
948,토정어린이공원,서울특별시,마포구,서울특별시 마포구 용강동 63-1,126.9433,37.5406,실내대피소,1965.0,지진실내구호소
949,마포어린이공원,서울특별시,마포구,서울특별시 마포구 마포대로4다길 30(마포동),126.9437,37.5356,실내대피소,1193.0,지진실내구호소
950,용강쉼터,서울특별시,마포구,서울특별시 마포구 대흥동 804-2,126.9406,37.5486,실내대피소,673.0,지진실내구호소
951,이대녹지쉼터,서울특별시,마포구,서울특별시 마포구 대흥동 2-1,126.9463,37.5564,실내대피소,767.0,지진실내구호소
952,숭문중고등학교 운동장,서울특별시,마포구,서울특별시 마포구 숭문길 99(대흥동),126.9457,37.5515,실내대피소,8782.0,지진실내구호소
953,용강초등학교 운동장,서울특별시,마포구,서울특별시 마포구 백범로17길 9(대흥동),126.9437,37.5485,실내대피소,3588.0,지진실내구호소
954,염리초등학교 운동장,서울특별시,마포구,서울특별시 마포구 토정로37길 37(염리동),126.9457,37.5423,실내대피소,2997.0,지진실내구호소
955,한서초등학교 운동장,서울특별시,마포구,서울특별시 마포구 대흥로24바길 27(염리동),126.9491,37.5533,실내대피소,2571.0,지진실내구호소
956,창천초등학교 운동장,서울특별시,마포구,서울특별시 마포구 백범로1길 56(노고산동),126.9395,37.5544,실내대피소,3544.0,지진실내구호소
957,경남아너스빌쉼터,서울특별시,마포구,서울특별시 마포구 신수동 456-1,126.9336,37.5488,실내대피소,624.0,지진실내구호소
958,광성고등학교 운동장,서울특별시,마포구,서울특별시 마포구 신수로8길 20(신수동),126.9364,37.5484,실내대피소,2880.0,지진실내구호소
959,신석초등학교 운동장,서울특별시,마포구,서울특별시 마포구 대흥로 33(신수동),126.9379,37.544,실내대피소,1355.0,지진실내구호소
960,신수중학교 운동장,서울특별시,마포구,서울특별시 마포구 신수로 49(신수동),126.9338,37.5459,실내대피소,4138.0,지진실내구호소
961,현석어린이공원,서울특별시,마포구,서울특별시 마포구 현석동 1-5,126.9332,37.5443,실내대피소,1595.0,지진실내구호소
962,서강나루공원,서울특별시,마포구,서울특별시 마포구 창전동 165-5,126.931,37.5452,실내대피소,2489.0,지진실내구호소
963,와우근린공원,서울특별시,마포구,서울특별시 마포구 창전동 3-242,126.93,37.5529,실내대피소,68623.0,지진실내구호소
964,와우어린이공원,서울특별시,마포구,서울특별시 마포구 상수동 72-7,126.9252,37.5489,실내대피소,3166.0,지진실내구호소
965,서강초등학교 운동장,서울특별시,마포구,서울특별시 마포구 독막로 113(상수동),126.9268,37.5481,실내대피소,2892.0,지진실내구호소
966,서교어린이공원,서울특별시,마포구,서울특별시 마포구 양화로11길 21(서교동),126.9154,37.5518,실내대피소,1417.0,지진실내구호소
967,잔다리어린이공원,서울특별시,마포구,서울특별시 마포구 서교동 479-1,126.9128,37.5546,실내대피소,758.0,지진실내구호소
968,홍익어린이공원,서울특별시,마포구,서울특별시 마포구 와우산로21길 19-3 (서교동),126.9233,37.5522,실내대피소,2312.0,지진실내구호소
969,서교초등학교 운동장,서울특별시,마포구,서울특별시 마포구 와우산로23길 20-27 (서교동),126.9247,37.5547,실내대피소,3465.0,지진실내구호소
970,윗잔다리 어린이공원,서울특별시,마포구,서울특별시 마포구 양화로18안길 21(동교동),126.9262,37.5572,실내대피소,2935.0,지진실내구호소
971,양화어린이공원,서울특별시,마포구,서울특별시 마포구 월드컵로5길 79(합정동),126.9085,37.5504,실내대피소,450.0,지진실내구호소
972,양화진역사공원,서울특별시,마포구,서울특별시 마포구 토정로 2(합정동),126.9111,37.5456,실내대피소,2000.0,지진실내구호소
973,합정동보호수 정자마당,서울특별시,마포구,서울특별시 마포구 합정동 450-6,126.903,37.5512,실내대피소,1176.0,지진실내구호소
974,성산중학교 운동장,서울특별시,마포구,서울특별시 마포구 성지1길 32-13 (합정동),126.9157,37.5471,실내대피소,4898.0,지진실내구호소
975,성산초등학교 운동장,서울특별시,마포구,서울특별시 마포구 양화로3길 94(합정동),126.9111,37.5529,실내대피소,1811.0,지진실내구호소
976,망원새싹어린이공원,서울특별시,마포구,서울특별시 마포구 망원동 509-1,126.8984,37.559,실내대피소,555.0,지진실내구호소
977,옹달샘(어린이)공원,서울특별시,마포구,서울특별시 마포구 망원동 408-3,126.902,37.5548,실내대피소,1088.0,지진실내구호소
978,한마음(어린이)공원,서울특별시,마포구,서울특별시 마포구 월드컵로15길 53(망원동),126.908,37.5545,실내대피소,724.0,지진실내구호소
979,쌈지마당,서울특별시,마포구,서울특별시 마포구 방울내로 24-12 (망원동),126.8985,37.5576,실내대피소,2850.0,지진실내구호소
980,동교초등학교 운동장,서울특별시,마포구,서울특별시 마포구 월드컵로25길 86(망원동),126.9028,37.5576,실내대피소,3047.0,지진실내구호소
981,망원초등학교 운동장,서울특별시,마포구,서울특별시 마포구 방울내로5길 28(망원동),126.9009,37.5605,실내대피소,1389.0,지진실내구호소
982,느티어린이공원,서울특별시,마포구,서울특별시 마포구 연남로3길 80(연남동),126.9188,37.5596,실내대피소,826.0,지진실내구호소
983,은행나무어린이공원,서울특별시,마포구,서울특별시 마포구 성미산로29길 17-9 (연남동),126.9223,37.5645,실내대피소,898.0,지진실내구호소
984,경성고등학교 운동장,서울특별시,마포구,서울특별시 마포구 성미산로 111(연남동),126.9194,37.5631,실내대피소,11801.0,지진실내구호소
985,다솜어린이공원,서울특별시,마포구,서울특별시 마포구 성산동 113-2,126.9153,37.5625,실내대피소,652.0,지진실내구호소
986,성미산공원(성산근린공원),서울특별시,마포구,서울특별시 마포구 성산동 산11-61,126.9149,37.5612,실내대피소,642.0,지진실내구호소
987,성황당어린이공원(뒤뜰어린이공원),서울특별시,마포구,서울특별시 마포구 성산동 147-5,126.9072,37.569,실내대피소,1333.0,지진실내구호소
988,외주목어린이공원,서울특별시,마포구,서울특별시 마포구 성산동 587-16,126.9077,37.5628,실내대피소,400.0,지진실내구호소
989,큰길어린이공원,서울특별시,마포구,서울특별시 마포구 월드컵북로 183(성산동),126.9081,37.5677,실내대피소,672.0,지진실내구호소
990,성서중학교 운동장,서울특별시,마포구,서울특별시 마포구 성산로4길 42(성산동),126.9087,37.5628,실내대피소,2795.0,지진실내구호소
991,성원초등학교 운동장,서울특별시,마포구,서울특별시 마포구 월드컵로36길 34(성산동),126.9044,37.567,실내대피소,2511.0,지진실내구호소
992,중동초등학교 운동장,서울특별시,마포구,서울특별시 마포구 월드컵북로 152(성산동),126.9113,37.5666,실내대피소,4584.0,지진실내구호소
993,DMC문화공원,서울특별시,마포구,서울특별시 마포구 상암동 1611,126.8923,37.578,실내대피소,3356.0,지진실내구호소
994,가온문화공원,서울특별시,마포구,서울특별시 마포구 상암동 1594,126.8876,37.5818,실내대피소,3532.0,지진실내구호소
995,구룡(근린)공원,서울특별시,마포구,서울특별시 마포구 월드컵북로 456(상암동),126.8839,37.5829,실내대피소,14286.0,지진실내구호소
996,물빛문화공원,서울특별시,마포구,서울특별시 마포구 상암동 1608,126.8939,37.5795,실내대피소,3014.0,지진실내구호소
997,휴암문화공원,서울특별시,마포구,"서울특별시 마포구 월드컵북로 501(상암동, 상암월드컵파크9단지)",126.8802,37.583,실내대피소,5137.0,지진실내구호소
998,상암중학교 운동장,서울특별시,마포구,서울특별시 마포구 상암산로1길 26(상암동),126.8879,37.5788,실내대피소,4474.0,지진실내구호소
999,상암초등학교 운동장,서울특별시,마포구,서울특별시 마포구 월드컵북로 353(상암동),126.8918,37.5758,실내대피소,3912.0,지진실내구호소
1000,상지초등학교 운동장,서울특별시,마포구,서울특별시 마포구 월드컵로42길 30(상암동),126.8823,37.5793,실내대피소,3054.0,지진실내구호소
1001,갈산공원,서울특별시,양천구,서울특별시 양천구 목동남로 106-23 (신정동),126.869,37.508,실내대피소,4591.0,지진실내구호소
1002,꿈나무어린이공원,서울특별시,양천구,서울특별시 양천구 신정동 311-1,126.8585,37.5176,실내대피소,380.0,지진실내구호소
1003,넓은들어린이공원,서울특별시,양천구,서울특별시 양천구 신정동 310-7,126.8392,37.5111,실내대피소,3288.0,지진실내구호소
1004,넘은들공원,서울특별시,양천구,서울특별시 양천구 신정동 1286,126.8404,37.5129,실내대피소,16159.0,지진실내구호소
1005,단지어린이공원,서울특별시,양천구,서울특별시 양천구 남부순환로88길 19(신정동),126.8542,37.5199,실내대피소,3000.0,지진실내구호소
1006,신세계어린이공원,서울특별시,양천구,서울특별시 양천구 신정동 119-3,126.8758,37.5217,실내대피소,520.0,지진실내구호소
1007,신트리공원,서울특별시,양천구,서울특별시 양천구 신정동 1033-17,126.8564,37.5145,실내대피소,500.0,지진실내구호소
1008,앞산어린이공원,서울특별시,양천구,서울특별시 양천구 중앙로52길 73(신정동),126.8583,37.5264,실내대피소,592.0,지진실내구호소
1009,양천공원,서울특별시,양천구,서울특별시 양천구 신정동 936-13,126.8683,37.518,실내대피소,31066.0,지진실내구호소
1010,음골어린이공원,서울특별시,양천구,서울특별시 양천구 신정동 320-0,126.8512,37.5273,실내대피소,824.0,지진실내구호소
1011,해누리체육공원,서울특별시,양천구,서울특별시 양천구 안양천로 711(신정동),126.8722,37.5116,실내대피소,29149.0,지진실내구호소
1012,호돌이어린이공원,서울특별시,양천구,서울특별시 양천구 신정동 896-22,126.8612,37.5125,실내대피소,3528.0,지진실내구호소
1013,홍익어린이공원,서울특별시,양천구,서울특별시 양천구 신정동 327-1,126.8622,37.5285,실내대피소,713.0,지진실내구호소
1014,갈산초등학교 운동장,서울특별시,양천구,서울특별시 양천구 신정동 330-10,126.8701,37.5116,실내대피소,3528.0,지진실내구호소
1015,계남초등학교 운동장,서울특별시,양천구,서울특별시 양천구 신정동 325-7,126.8601,37.5097,실내대피소,5363.0,지진실내구호소
1016,금옥중학교 운동장,서울특별시,양천구,서울특별시 양천구 신정동 729-0,126.8442,37.51,실내대피소,2750.0,지진실내구호소
1017,남명초등학교 운동장,서울특별시,양천구,서울특별시 양천구 신정동 653-4,126.8539,37.5149,실내대피소,5900.0,지진실내구호소
1018,목동고등학교 운동장,서울특별시,양천구,서울특별시 양천구 신정동 325-8,126.8607,37.5088,실내대피소,716.0,지진실내구호소
1019,목동중학교 운동장,서울특별시,양천구,서울특별시 양천구 신정동 85-168,126.8713,37.5204,실내대피소,4451.0,지진실내구호소
1020,목동초등학교 운동장,서울특별시,양천구,서울특별시 양천구 신정동 86-2,126.8719,37.5224,실내대피소,1746.0,지진실내구호소
1021,목일중학교 운동장,서울특별시,양천구,서울특별시 양천구 신정동 330-2,126.8745,37.5131,실내대피소,1878.0,지진실내구호소
1022,신기초등학교 운동장,서울특별시,양천구,서울특별시 양천구 신정동 1274-0,126.8541,37.5109,실내대피소,6440.0,지진실내구호소
1023,신목고등학교 운동장,서울특별시,양천구,서울특별시 양천구 신정동 330-3,126.8739,37.5124,실내대피소,3278.0,지진실내구호소
1024,신목초등학교 운동장,서울특별시,양천구,서울특별시 양천구 신정동 281-2,126.8729,37.5168,실내대피소,1555.0,지진실내구호소
1025,신서고등학교  운동장,서울특별시,양천구,서울특별시 양천구 신정동 984-1,126.8597,37.5237,실내대피소,1167.0,지진실내구호소
1026,신서중학교 운동장,서울특별시,양천구,서울특별시 양천구 신정동 310-6,126.8559,37.5153,실내대피소,6000.0,지진실내구호소
1027,신서초등학교 운동장,서울특별시,양천구,서울특별시 양천구 신정동 312-1,126.8625,37.5201,실내대피소,4900.0,지진실내구호소
1028,신은초등학교 운동장,서울특별시,양천구,서울특별시 양천구 신정동 1319-0,126.8325,37.5134,실내대피소,1200.0,지진실내구호소
1029,양명초등학교 운동장,서울특별시,양천구,서울특별시 양천구 신정동 310-6,126.8566,37.5156,실내대피소,2400.0,지진실내구호소
1030,양목초등학교 운동장,서울특별시,양천구,서울특별시 양천구 신정동 1001-0,126.8611,37.5236,실내대피소,3016.0,지진실내구호소
1031,나말어린이공원,서울특별시,양천구,서울특별시 양천구 목동 724-1,126.8645,37.5385,실내대피소,1002.0,지진실내구호소
1032,달마을근린공원,서울특별시,양천구,서울특별시 양천구 목동 904-5,126.8681,37.5425,실내대피소,28606.0,지진실내구호소
1033,모세미어린이공원,서울특별시,양천구,서울특별시 양천구 목동 772-1,126.8686,37.5352,실내대피소,988.0,지진실내구호소
1034,목4동 소공원,서울특별시,양천구,서울특별시 양천구 목동 904-5,126.8688,37.5326,실내대피소,435.0,지진실내구호소
1035,목마공원,서울특별시,양천구,서울특별시 양천구 목동 910,126.8855,37.5381,실내대피소,11228.0,지진실내구호소
1036,백석어린이공원,서울특별시,양천구,서울특별시 양천구 목동중앙북로8길 76(목동),126.865,37.5451,실내대피소,708.0,지진실내구호소
1037,오목공원,서울특별시,양천구,서울특별시 양천구 목동서로 159-2 (목동),126.8732,37.5279,실내대피소,21021.0,지진실내구호소
1038,용왕산근린공원 운동장,서울특별시,양천구,서울특별시 양천구 목동중앙본로 73(목동),126.8779,37.5431,실내대피소,195308.0,지진실내구호소
1039,창의어린이놀이터(목동근린공원),서울특별시,양천구,서울특별시 양천구 목동 517,126.8786,37.5465,실내대피소,6606.0,지진실내구호소
1040,파리공원,서울특별시,양천구,서울특별시 양천구 목동동로 363(목동),126.8767,37.5345,실내대피소,28412.0,지진실내구호소
1041,한두어린이공원,서울특별시,양천구,서울특별시 양천구 목동중앙북로7가길 37(목동),126.8654,37.5492,실내대피소,986.0,지진실내구호소
1042,목2동 마을쉼터(어울림쉼터),서울특별시,양천구,서울특별시 양천구 목동중앙본로32길 7(목동),126.8715,37.5454,실내대피소,562.0,지진실내구호소
1043,강서고등학교 운동장,서울특별시,양천구,서울특별시 양천구 목동 735-0,126.8662,37.5363,실내대피소,4562.0,지진실내구호소
1044,목운중학교 운동장,서울특별시,양천구,서울특별시 양천구 목동 922-0,126.8725,37.5267,실내대피소,1799.0,지진실내구호소
1045,목운초등학교 운동장,서울특별시,양천구,서울특별시 양천구 목동 922-0,126.8732,37.5265,실내대피소,1598.0,지진실내구호소
1046,서정초등학교 운동장,서울특별시,양천구,서울특별시 양천구 목동로8길 19(목동),126.8674,37.5239,실내대피소,3671.0,지진실내구호소
1047,신목중학교 운동장,서울특별시,양천구,서울특별시 양천구 목동 743-15,126.8724,37.5366,실내대피소,3148.0,지진실내구호소
1048,양동중학교 운동장,서울특별시,양천구,서울특별시 양천구 목동 600-6,126.8691,37.5476,실내대피소,6435.0,지진실내구호소
1049,양화초등학교 운동장,서울특별시,양천구,서울특별시 양천구 목동 542-0,126.8745,37.5437,실내대피소,5210.0,지진실내구호소
1050,영도초등학교 운동장,서울특별시,양천구,서울특별시 양천구 목동 744-4,126.8715,37.5356,실내대피소,4591.0,지진실내구호소
1051,월촌중학교 운동장,서울특별시,양천구,서울특별시 양천구 목동 909-0,126.8831,37.5371,실내대피소,2357.0,지진실내구호소
1052,정목초등학교 운동장,서울특별시,양천구,서울특별시 양천구 목동 757-1,126.8698,37.5368,실내대피소,3800.0,지진실내구호소
1053,진명여자고등학교 운동장,서울특별시,양천구,서울특별시 양천구 목동 927-6,126.866,37.5235,실내대피소,5038.0,지진실내구호소
1054,강신어린이공원,서울특별시,양천구,서울특별시 양천구 신월동 1012-2,126.8384,37.5155,실내대피소,1511.0,지진실내구호소
1055,강월어린이공원,서울특별시,양천구,서울특별시 양천구 신월동 56-1,126.836,37.5157,실내대피소,2463.0,지진실내구호소
1056,경인어린이공원,서울특별시,양천구,서울특별시 양천구 남부순환로82길 29(신월동),126.8288,37.5321,실내대피소,1012.0,지진실내구호소
1057,꿀벌어린이공원,서울특별시,양천구,서울특별시 양천구 가로공원로56길 30(신월동),126.842,37.5199,실내대피소,1005.0,지진실내구호소
1058,남부어린이공원,서울특별시,양천구,서울특별시 양천구 신월동 1012-2,126.8261,37.5347,실내대피소,910.0,지진실내구호소
1059,돌다리어린이공원,서울특별시,양천구,서울특별시 양천구 신월동 100-1,126.8357,37.532,실내대피소,726.0,지진실내구호소
1060,방아다리공원,서울특별시,양천구,서울특별시 양천구 신월동 531-0,126.8283,37.5386,실내대피소,869.0,지진실내구호소
1061,서서울호수공원 내 열린풀밭,서울특별시,양천구,서울특별시 양천구 남부순환로64길 26(신월동),126.8321,37.5276,실내대피소,5061.0,지진실내구호소
1062,신대어린이공원,서울특별시,양천구,서울특별시 양천구 신월동 100-1,126.8327,37.5347,실내대피소,775.0,지진실내구호소
1063,신오어린이공원,서울특별시,양천구,서울특별시 양천구 남부순환로33길 38(신월동),126.8315,37.5381,실내대피소,872.0,지진실내구호소
1064,신월근린공원,서울특별시,양천구,"서울특별시 양천구 신월로 99(신월동, 신월시영아파트)",126.8339,37.5175,실내대피소,725.0,지진실내구호소
1065,신월어린이공원,서울특별시,양천구,서울특별시 양천구 신월동 240-0,126.8381,37.527,실내대피소,953.0,지진실내구호소
1066,신장어린이공원,서울특별시,양천구,서울특별시 양천구 오목로9길 20-1 (신월동),126.8427,37.5242,실내대피소,841.0,지진실내구호소
1067,오솔길공원,서울특별시,양천구,"서울특별시 양천구 남부순환로70길 11-9 (신월동, 동산주택)",126.8358,37.5204,실내대피소,349.0,지진실내구호소
1068,방학중학교 운동장,서울특별시,도봉구,서울특별시 도봉구 시루봉로 188(방학동),127.0317,37.6654,실내대피소,1730.0,지진실내구호소
1069,방학초등학교 운동장,서울특별시,도봉구,서울특별시 도봉구 도당로9길 34(방학동),127.0323,37.6636,실내대피소,4203.0,지진실내구호소
1070,신방학중학교 운동장,서울특별시,도봉구,서울특별시 도봉구 시루봉로 156(방학동),127.0293,37.6638,실내대피소,4296.0,지진실내구호소
1071,신방학초등학교 운동장,서울특별시,도봉구,서울특별시 도봉구 시루봉로 173(방학동),127.0294,37.6656,실내대피소,4657.0,지진실내구호소
1072,창도초등학교 운동장,서울특별시,도봉구,서울특별시 도봉구 방학로 32-28 (방학동),127.0491,37.6637,실내대피소,1700.0,지진실내구호소
1073,초당초등학교 운동장,서울특별시,도봉구,서울특별시 도봉구 해등로32길 11(방학동),127.0223,37.6579,실내대피소,2191.0,지진실내구호소
1074,대창어린이공원,서울특별시,도봉구,서울특별시 도봉구 창동 38-4,127.0522,37.6443,실내대피소,982.0,지진실내구호소
1075,모랫어린이공원,서울특별시,도봉구,서울특별시 도봉구 창동 30-1,127.0517,37.6468,실내대피소,584.0,지진실내구호소
1076,물방울어린이공원,서울특별시,도봉구,서울특별시 도봉구 창동 458-6,127.0412,37.6375,실내대피소,411.0,지진실내구호소
1077,미화어린이공원,서울특별시,도봉구,서울특별시 도봉구 창동 715-17,127.0396,37.6549,실내대피소,431.0,지진실내구호소
1078,반석어린이공원,서울특별시,도봉구,서울특별시 도봉구 창동 354,127.0412,37.6471,실내대피소,1200.0,지진실내구호소
1079,밤골어린이공원,서울특별시,도봉구,서울특별시 도봉구 창동 368,127.0457,37.6488,실내대피소,2279.0,지진실내구호소
1080,신창어린이공원,서울특별시,도봉구,서울특별시 도봉구 창동 449-103,127.0408,37.64,실내대피소,441.0,지진실내구호소
1081,월천공원,서울특별시,도봉구,서울특별시 도봉구 창동 28,127.0508,37.6475,실내대피소,4000.0,지진실내구호소
1082,유만어린이공원,서울특별시,도봉구,서울특별시 도봉구 창동 33-4,127.0529,37.6503,실내대피소,823.0,지진실내구호소
1083,은행나무어린이공원,서울특별시,도봉구,서울특별시 도봉구 창동 347-3,127.0436,37.6496,실내대피소,564.0,지진실내구호소
1084,장미어린이공원,서울특별시,도봉구,서울특별시 도봉구 창동 553-8,127.0363,37.6381,실내대피소,351.0,지진실내구호소
1085,창2동마을공원,서울특별시,도봉구,서울특별시 도봉구 창동 582-22,127.0362,37.6412,실내대피소,1465.0,지진실내구호소
1086,창3동소공원,서울특별시,도봉구,서울특별시 도봉구 창동 504-21,127.0415,37.6333,실내대피소,650.0,지진실내구호소
1087,창원어린이공원,서울특별시,도봉구,서울특별시 도봉구 창동 307,127.0403,37.6529,실내대피소,756.0,지진실내구호소
1088,가인초등학교 운동장,서울특별시,도봉구,서울특별시 도봉구 도봉로136다길 4(창동),127.0434,37.6596,실내대피소,1731.0,지진실내구호소
1089,신화초등학교 운동장,서울특별시,도봉구,서울특별시 도봉구 우이천로 120(창동),127.0414,37.6322,실내대피소,5221.0,지진실내구호소
1090,구일중학교운동장,서울특별시,구로구,서울특별시 구로구 구로동 685-161,126.8739,37.4948,실내대피소,3835.0,지진실내구호소
1091,구일초등학교운동장,서울특별시,구로구,서울특별시 구로구 구일로 68(구로동),126.873,37.4927,실내대피소,3340.0,지진실내구호소
1092,동구로초등학교운동장,서울특별시,구로구,서울특별시 구로구 구로동 93,126.8925,37.4948,실내대피소,3581.0,지진실내구호소
1093,미래초등학교운동장,서울특별시,구로구,서울특별시 구로구 구로동 3-13,126.8878,37.5048,실내대피소,950.0,지진실내구호소
1094,영림중학교운동장,서울특별시,구로구,서울특별시 구로구 구로동 105-2,126.8906,37.4976,실내대피소,5080.0,지진실내구호소
1095,영서중학교운동장,서울특별시,구로구,서울특별시 구로구 구로동 145-20,126.8945,37.4889,실내대피소,6415.0,지진실내구호소
1096,영서초등학교운동장,서울특별시,구로구,서울특별시 구로구 도림로20길 57(구로동),126.8951,37.4881,실내대피소,2912.0,지진실내구호소
1097,영일초등학교운동장,서울특별시,구로구,서울특별시 구로구 가리봉동 17-0,126.8835,37.485,실내대피소,3830.0,지진실내구호소
1098,고척근린공원(축구장),서울특별시,구로구,서울특별시 구로구 고척로45길 39(고척동),126.8517,37.5059,실내대피소,6690.0,지진실내구호소
1099,경인고등학교운동장,서울특별시,구로구,서울특별시 구로구 고척동 66-28,126.8659,37.4963,실내대피소,4071.0,지진실내구호소
1100,고산초등학교운동장,서울특별시,구로구,서울특별시 구로구 고척동 76-10,126.8655,37.499,실내대피소,2676.0,지진실내구호소
1101,고원초등학교운동장,서울특별시,구로구,서울특별시 구로구 고척동 66-26,126.8654,37.4972,실내대피소,1196.0,지진실내구호소
1102,고척고등학교운동장,서울특별시,구로구,서울특별시 구로구 고척동 232-0,126.8521,37.509,실내대피소,7282.0,지진실내구호소
1103,고척중학교운동장,서울특별시,구로구,서울특별시 구로구 고척동 76-2,126.8618,37.4997,실내대피소,4897.0,지진실내구호소
1104,고척초등학교운동장,서울특별시,구로구,서울특별시 구로구 고척동 129-3,126.8573,37.5006,실내대피소,1792.0,지진실내구호소
1105,덕의초등학교운동장,서울특별시,구로구,서울특별시 구로구 고척동 217,126.8567,37.506,실내대피소,3372.0,지진실내구호소
1106,세곡초등학교운동장,서울특별시,구로구,서울특별시 구로구 고척동 253-129,126.8491,37.5046,실내대피소,2984.0,지진실내구호소
1107,개명초등학교운동장,서울특별시,구로구,서울특별시 구로구 개봉동 314-165,126.8509,37.4828,실내대피소,1457.0,지진실내구호소
1108,개봉중학교운동장,서울특별시,구로구,서울특별시 구로구 개봉동 24-2,126.842,37.5024,실내대피소,3190.0,지진실내구호소
1109,개봉초등학교운동장,서울특별시,구로구,서울특별시 구로구 개봉동 266-0,126.8583,37.4892,실내대피소,3475.0,지진실내구호소
1110,개웅중학교운동장,서울특별시,구로구,서울특별시 구로구 개봉동 273-15,126.8509,37.4869,실내대피소,1587.0,지진실내구호소
1111,개웅초등학교운동장,서울특별시,구로구,서울특별시 구로구 개봉로11길 98(개봉동),126.8501,37.4882,실내대피소,2252.0,지진실내구호소
1112,경인중학교운동장,서울특별시,구로구,서울특별시 구로구 개봉동 143-4,126.8542,37.4979,실내대피소,4530.0,지진실내구호소
1113,매봉초등학교운동장,서울특별시,구로구,서울특별시 구로구 개봉동 3,126.8446,37.5041,실내대피소,2529.0,지진실내구호소
1114,덕일전자공업고등학교  운동장,서울특별시,구로구,서울특별시 구로구 오류동 199-1,126.8371,37.4903,실내대피소,1926.0,지진실내구호소
1115,오남중학교 운동장,서울특별시,구로구,서울특별시 구로구 오류동 산39-40,126.8362,37.4873,실내대피소,2546.0,지진실내구호소
1116,오류초등학교운동장,서울특별시,구로구,서울특별시 구로구 오류동 15,126.8421,37.498,실내대피소,4619.0,지진실내구호소
1117,세종과학고등학교 운동장,서울특별시,구로구,서울특별시 구로구 궁동 232-0,126.8268,37.4972,실내대피소,3029.0,지진실내구호소
1118,오류고등학교운동장,서울특별시,구로구,서울특별시 구로구 궁동 110-1,126.8285,37.4991,실내대피소,3610.0,지진실내구호소
1119,우신고등학교운동장,서울특별시,구로구,서울특별시 구로구 궁동 230-0,126.8273,37.4945,실내대피소,11246.0,지진실내구호소
1120,정진학교운동장,서울특별시,구로구,서울특별시 구로구 궁동 242-0,126.8226,37.4973,실내대피소,4649.0,지진실내구호소
1121,온수초등학교 운동장,서울특별시,구로구,서울특별시 구로구 온수동 9-34,126.8259,37.4936,실내대피소,4114.0,지진실내구호소
1122,성베드로학교운동장,서울특별시,구로구,서울특별시 구로구 항동 1-1,126.8253,37.4871,실내대피소,3284.0,지진실내구호소
1123,유한공업고등학교운동장,서울특별시,구로구,서울특별시 구로구 항동 1-7,126.8225,37.4877,실내대피소,6259.0,지진실내구호소
1124,골말공원,서울특별시,금천구,서울특별시 금천구 가산동 28-2,126.8845,37.4829,실내대피소,1410.0,지진실내구호소
1125,무아래공원,서울특별시,금천구,서울특별시 금천구 가산동 234-29,126.8932,37.4733,실내대피소,1153.0,지진실내구호소
1126,조마공원,서울특별시,금천구,서울특별시 금천구 가산동 148-11,126.8957,37.4755,실내대피소,980.0,지진실내구호소
1127,중앙분수대 및 중앙도로(관악산휴먼시아아파트),서울특별시,관악구,"서울특별시 관악구 난곡로 55(신림동, 관악산휴먼시아아파트)",126.9205,37.4591,실내대피소,3107.0,지진실내구호소
1128,사당중학교 운동장,서울특별시,동작구,서울특별시 동작구 사당로9가길 58(사당동),126.9687,37.4874,실내대피소,2846.0,지진실내구호소
1129,삼일초등학교 운동장,서울특별시,동작구,서울특별시 동작구 사당로23나길 27(사당동),126.9747,37.4879,실내대피소,1623.0,지진실내구호소
1130,상도중학교 운동장,서울특별시,동작구,서울특별시 동작구 사당로2가길 72(사당동),126.9618,37.4902,실내대피소,4749.0,지진실내구호소
1131,신남성초등학교 운동장,서울특별시,동작구,서울특별시 동작구 사당로 146(사당동),126.9652,37.4885,실내대피소,4052.0,지진실내구호소
1132,대방공원,서울특별시,동작구,서울특별시 동작구 대방동 23-176,126.9271,37.5071,실내대피소,10656.0,지진실내구호소
1133,강남중학교 운동장,서울특별시,동작구,서울특별시 동작구 대방동15길 29(대방동),126.9225,37.5024,실내대피소,3503.0,지진실내구호소
1134,대림초등학교운동장,서울특별시,동작구,서울특별시 동작구 대방동1길 22(대방동),126.9261,37.5005,실내대피소,1778.0,지진실내구호소
1135,서울공업고등학교 운동장,서울특별시,동작구,서울특별시 동작구 대방동1길 46(대방동),126.9221,37.5008,실내대피소,12822.0,지진실내구호소
1136,숭의여자고등학교운동장,서울특별시,동작구,서울특별시 동작구 여의대방로36길 79(대방동),126.9293,37.5079,실내대피소,3358.0,지진실내구호소
1137,신길초등학교운동장,서울특별시,동작구,서울특별시 동작구 알마타길 16(대방동),126.9264,37.5104,실내대피소,2336.0,지진실내구호소
1138,영등포고등학교 운동장,서울특별시,동작구,서울특별시 동작구 등용로8길 5(대방동),126.9338,37.5079,실내대피소,5241.0,지진실내구호소
1139,영등포중학교 운동장,서울특별시,동작구,서울특별시 동작구 등용로8길 5(대방동),126.9328,37.5081,실내대피소,3361.0,지진실내구호소
1140,영화초등학교 운동장,서울특별시,동작구,서울특별시 동작구 등용로8길 3(대방동),126.9329,37.5094,실내대피소,2408.0,지진실내구호소
1141,보라매공원,서울특별시,동작구,서울특별시 동작구 신대방동 395-0,126.92,37.4925,실내대피소,80595.0,지진실내구호소
1142,농심잔디마당,서울특별시,동작구,서울특별시 동작구 여의대방로 112(신대방동),126.9186,37.4969,실내대피소,4530.0,지진실내구호소
1143,대방중학교 운동장,서울특별시,동작구,서울특별시 동작구 여의대방로10길 24(신대방동),126.9138,37.495,실내대피소,2049.0,지진실내구호소
1144,문창중학교 운동장,서울특별시,동작구,서울특별시 동작구 여의대방로22나길 40(신대방동),126.9216,37.4957,실내대피소,3160.0,지진실내구호소
1145,문창초등학교 운동장,서울특별시,동작구,서울특별시 동작구 신대방2길 14(신대방동),126.9143,37.4891,실내대피소,3044.0,지진실내구호소
1146,보라매초등학교 운동장,서울특별시,동작구,서울특별시 동작구 여의대방로16길 30(신대방동),126.9161,37.4953,실내대피소,1261.0,지진실내구호소
1147,광신고등학교 운동장,서울특별시,관악구,서울특별시 관악구 광신길 141(신림동),126.9256,37.4651,실내대피소,6867.0,지진실내구호소
1148,난곡초등학교 운동장,서울특별시,관악구,서울특별시 관악구 난곡로35길 102(신림동),126.9171,37.4693,실내대피소,7332.0,지진실내구호소
1149,난우중학교 운동장,서울특별시,관악구,서울특별시 관악구 난곡로16길 32(신림동),126.9225,37.4666,실내대피소,2770.0,지진실내구호소
1150,난우초등학교 운동장,서울특별시,관악구,서울특별시 관악구 난우길 40(신림동),126.9177,37.4768,실내대피소,2427.0,지진실내구호소
1151,난향초등학교 운동장,서울특별시,관악구,서울특별시 관악구 난향길 9(신림동),126.9182,37.4622,실내대피소,1454.0,지진실내구호소
1152,남강고등학교 운동장,서울특별시,관악구,서울특별시 관악구 난곡로34길 80(신림동),126.9245,37.4725,실내대피소,5877.0,지진실내구호소
1153,남강중학교 운동장,서울특별시,관악구,서울특별시 관악구 난곡로34길 80(신림동),126.9237,37.4714,실내대피소,5371.0,지진실내구호소
1154,남부초등학교 운동장,서울특별시,관악구,서울특별시 관악구 남부순환로163길 14(신림동),126.922,37.4848,실내대피소,11909.0,지진실내구호소
1155,남서울중학교 운동장,서울특별시,관악구,서울특별시 관악구 남부순환로172길 97(신림동),126.9213,37.4816,실내대피소,5508.0,지진실내구호소
1156,미림여자고등학교 운동장,서울특별시,관악구,서울특별시 관악구 호암로 546(신림동),126.9321,37.4669,실내대피소,7004.0,지진실내구호소
1157,미성중학교 운동장,서울특별시,관악구,서울특별시 관악구 문성로16길 40(신림동),126.9126,37.4752,실내대피소,1618.0,지진실내구호소
1158,미성초등학교 운동장,서울특별시,관악구,서울특별시 관악구 문성로 79(신림동),126.9122,37.4777,실내대피소,3245.0,지진실내구호소
1159,삼성고등학교 운동장,서울특별시,관악구,서울특별시 관악구 신림로 41(신림동),126.9435,37.4698,실내대피소,4864.0,지진실내구호소
1160,삼성중학교 운동장,서울특별시,관악구,서울특별시 관악구 신림로3가길 39-24 (신림동),126.943,37.4681,실내대피소,3236.0,지진실내구호소
1161,신관중학교 운동장,서울특별시,관악구,서울특별시 관악구 신림로48길 17-16 (신림동),126.9338,37.4798,실내대피소,2044.0,지진실내구호소
1162,신림고등학교 운동장,서울특별시,관악구,서울특별시 관악구 문성로 119(신림동),126.9172,37.4783,실내대피소,4322.0,지진실내구호소
1163,신림중학교 운동장,서울특별시,관악구,서울특별시 관악구 신림로 40(신림동),126.945,37.4702,실내대피소,4342.0,지진실내구호소
1164,신림초등학교 운동장,서울특별시,관악구,서울특별시 관악구 문성로28길 31(신림동),126.9275,37.4776,실내대피소,1490.0,지진실내구호소
1165,신성초등학교 운동장,서울특별시,관악구,서울특별시 관악구 신림로 114(신림동),126.9368,37.4714,실내대피소,3692.0,지진실내구호소
1166,신우초등학교 운동장,서울특별시,관악구,서울특별시 관악구 호암로 498(신림동),126.9324,37.4627,실내대피소,3766.0,지진실내구호소
1167,원신초등학교 운동장,서울특별시,관악구,서울특별시 관악구 광신길 177(신림동),126.9271,37.4668,실내대피소,1588.0,지진실내구호소
1168,정문학교 운동장,서울특별시,관악구,서울특별시 관악구 난향3길 31(신림동),126.9161,37.4614,실내대피소,1699.0,지진실내구호소
1169,군인아파트 어린이공원,서울특별시,관악구,서울특별시 관악구 남현동 602-143,126.9789,37.4718,실내대피소,817.0,지진실내구호소
1170,상록어린이공원,서울특별시,관악구,서울특별시 관악구 승방3나길 14(남현동),126.9803,37.4728,실내대피소,1020.0,지진실내구호소
1171,예촌어린이공원,서울특별시,관악구,서울특별시 관악구 남현길 41(남현동),126.9766,37.4746,실내대피소,1177.0,지진실내구호소
1172,사당초등학교 운동장,서울특별시,관악구,서울특별시 관악구 남현4길 51(남현동),126.9745,37.4743,실내대피소,6335.7,지진실내구호소
1173,가꿀공원,서울특별시,서초구,서울특별시 서초구 방배동 859-1,126.9875,37.4879,실내대피소,402.0,지진실내구호소
1174,남태령공원,서울특별시,서초구,서울특별시 서초구 방배동 2956-4,126.9886,37.4662,실내대피소,1208.0,지진실내구호소
1175,동덕어린이공원,서울특별시,서초구,서울특별시 서초구 방배동 593-43,126.9937,37.4755,실내대피소,831.0,지진실내구호소
1176,뒷벌공원,서울특별시,서초구,서울특별시 서초구 방배중앙로 121(방배동),126.9868,37.4904,실내대피소,1448.0,지진실내구호소
1177,방현어린이공원,서울특별시,서초구,서울특별시 서초구 효령로14다길 21(방배동),126.9916,37.4784,실내대피소,1362.0,지진실내구호소
1178,새말어린이공원,서울특별시,서초구,서울특별시 서초구 방배동 794-16,126.9886,37.4933,실내대피소,853.0,지진실내구호소
1179,청두어린이공원,서울특별시,서초구,서울특별시 서초구 방배동 463-14,126.9849,37.4806,실내대피소,1049.0,지진실내구호소
1180,방배1동공영주차장,서울특별시,서초구,서울특별시 서초구 방배동 328-1,126.9924,37.4853,실내대피소,631.0,지진실내구호소
1181,동덕여자고등학교 운동장,서울특별시,서초구,서울특별시 서초구 효령로2길 123-5 (방배동),126.9923,37.4754,실내대피소,5015.0,지진실내구호소
1182,방배초등학교운동장,서울특별시,서초구,서울특별시 서초구 방배중앙로13길 26(방배동),126.9874,37.4871,실내대피소,3362.0,지진실내구호소
1183,방일초등학교운동장,서울특별시,서초구,서울특별시 서초구 방배로18길 52(방배동),126.9978,37.4852,실내대피소,3690.0,지진실내구호소
1184,상문고등학교 운동장,서울특별시,서초구,서울특별시 서초구 명달로 45(방배동),127.0044,37.4802,실내대피소,11591.0,지진실내구호소
1185,서래초등학교운동장,서울특별시,서초구,서울특별시 서초구 방배로 260(방배동),126.9894,37.4959,실내대피소,2852.0,지진실내구호소
1186,서문여자중학교 운동장,서울특별시,서초구,서울특별시 서초구 동광로12길 84(방배동),126.985,37.4889,실내대피소,7081.0,지진실내구호소
1187,서울전자고등학교운동장,서울특별시,서초구,서울특별시 서초구 과천대로 852-23 (방배동),126.9885,37.4695,실내대피소,2360.0,지진실내구호소
1188,이수중학교운동장,서울특별시,서초구,서울특별시 서초구 방배중앙로3길 32(방배동),126.9904,37.4807,실내대피소,8529.0,지진실내구호소
1189,이수초등학교운동장,서울특별시,서초구,서울특별시 서초구 방배천로4길 23(방배동),126.9845,37.478,실내대피소,5666.0,지진실내구호소
1190,동산어린이공원,서울특별시,서초구,서울특별시 서초구 동산로12길 8(양재동),127.0451,37.4711,실내대피소,1300.0,지진실내구호소
1191,양재근린공원,서울특별시,서초구,서울특별시 서초구 양재동 311,127.0426,37.4715,실내대피소,13592.0,지진실내구호소
1192,양재초등학교운동장,서울특별시,서초구,서울특별시 서초구 바우뫼로18길 14(양재동),127.0321,37.4738,실내대피소,4902.0,지진실내구호소
1193,언남고등학교 운동장,서울특별시,서초구,서울특별시 서초구 동산로13길 35(양재동),127.0433,37.473,실내대피소,6087.0,지진실내구호소
1194,언남중학교 운동장,서울특별시,서초구,서울특별시 서초구 동산로 55(양재동),127.0442,37.472,실내대피소,3838.0,지진실내구호소
1195,영동중학교운동장,서울특별시,서초구,서울특별시 서초구 성촌길 14(우면동),127.0256,37.4656,실내대피소,2353.0,지진실내구호소
1196,우면초등학교운동장,서울특별시,서초구,서울특별시 서초구 태봉로 59(우면동),127.0238,37.4642,실내대피소,2129.0,지진실내구호소
1197,우솔초등학교운동장,서울특별시,서초구,서울특별시 서초구 양재대로2길 74(우면동),127.0194,37.4568,실내대피소,1461.0,지진실내구호소
1198,우암초등학교운동장,서울특별시,서초구,서울특별시 서초구 바우뫼로7길 38(우면동),127.0247,37.4717,실내대피소,4881.0,지진실내구호소
1199,명주근린공원,서울특별시,서초구,서울특별시 서초구 잠원동 50-4,127.0151,37.5171,실내대피소,1849.0,지진실내구호소
1200,반원어린이공원,서울특별시,서초구,서울특별시 서초구 신반포로23길 48(잠원동),127.0031,37.5095,실내대피소,2724.0,지진실내구호소
1201,신동근린공원,서울특별시,서초구,서울특별시 서초구 잠원동 58-14,127.0137,37.514,실내대피소,1517.0,지진실내구호소
1202,싸리재공원,서울특별시,서초구,서울특별시 서초구 잠원동 30-10,127.0182,37.5133,실내대피소,547.0,지진실내구호소
1203,코아어린이공원,서울특별시,서초구,서울특별시 서초구 신반포로23길 30(잠원동),127.004,37.509,실내대피소,1054.0,지진실내구호소
1204,경원중학교운동장,서울특별시,서초구,서울특별시 서초구 신반포로33길 39(잠원동),127.0094,37.5109,실내대피소,7885.0,지진실내구호소
1205,반원초등학교운동장,서울특별시,서초구,서울특별시 서초구 잠원로3길 28(잠원동),127.004,37.5097,실내대피소,5485.0,지진실내구호소
1206,신동중학교운동장,서울특별시,서초구,서울특별시 서초구 나루터로 27(잠원동),127.013,37.5162,실내대피소,5464.0,지진실내구호소
1207,신동초등학교운동장,서울특별시,서초구,서울특별시 서초구 나루터로 15(잠원동),127.0118,37.5167,실내대피소,2792.0,지진실내구호소
1208,서래골근린공원,서울특별시,서초구,서울특별시 서초구 반포동 63-2,127.003,37.5014,실내대피소,1250.0,지진실내구호소
1209,청룡어린이공원,서울특별시,서초구,서울특별시 서초구 반포동 86-1,126.9996,37.4958,실내대피소,806.0,지진실내구호소
1210,파랑새어린이공원,서울특별시,서초구,서울특별시 서초구 신반포로15길 28(반포동),126.9951,37.5051,실내대피소,2238.0,지진실내구호소
1211,반포종합운동장,서울특별시,서초구,서울특별시 서초구 신반포로16길 30(반포동),126.9942,37.5005,실내대피소,43104.0,지진실내구호소
1212,반포고등학교운동장,서울특별시,서초구,서울특별시 서초구 고무래로 71(반포동),127.0167,37.5017,실내대피소,5603.0,지진실내구호소
1213,반포중학교운동장,서울특별시,서초구,서울특별시 서초구 신반포로 67(반포동),126.992,37.5029,실내대피소,5122.0,지진실내구호소
1214,반포초등학교운동장,서울특별시,서초구,서울특별시 서초구 신반포로 55-4 (반포동),126.991,37.5027,실내대피소,4267.0,지진실내구호소
1215,방배중학교운동장,서울특별시,서초구,서울특별시 서초구 동광로 144(반포동),126.9984,37.4945,실내대피소,6169.0,지진실내구호소
1216,서원초등학교운동장,서울특별시,서초구,서울특별시 서초구 고무래로 63(반포동),127.0151,37.5025,실내대피소,4862.0,지진실내구호소
1217,세화고등학교운동장,서울특별시,서초구,서울특별시 서초구 신반포로 56-7 (반포동),126.992,37.5013,실내대피소,19926.0,지진실내구호소
1218,신반포중학교운동장,서울특별시,서초구,서울특별시 서초구 신반포로19길 26(반포동),126.9961,37.5055,실내대피소,5299.0,지진실내구호소
1219,원촌중학교운동장,서울특별시,서초구,서울특별시 서초구 사평대로45길 10(반포동),127.0142,37.506,실내대피소,6640.0,지진실내구호소
1220,원촌초등학교운동장,서울특별시,서초구,서울특별시 서초구 사평대로45길 10(반포동),127.0128,37.5057,실내대피소,5588.0,지진실내구호소
1221,잠원초등학교운동장,서울특별시,서초구,서울특별시 서초구 신반포로16길 15-25 (반포동),126.9981,37.5013,실내대피소,5085.0,지진실내구호소
1222,당골어린이공원,서울특별시,서초구,서울특별시 서초구 효령로68길 49-3 (서초동),127.0226,37.4855,실내대피소,591.0,지진실내구호소
1223,마산말어린이공원,서울특별시,서초구,서울특별시 서초구 서초동 1343-8,127.0267,37.4871,실내대피소,466.0,지진실내구호소
1224,명달근린공원,서울특별시,서초구,서울특별시 서초구 서운로23길 17(서초동),127.0213,37.4981,실내대피소,732.0,지진실내구호소
1225,분토골어린이공원,서울특별시,서초구,서울특별시 서초구 서초동 1627-4,127.0174,37.4883,실내대피소,587.0,지진실내구호소
1226,사도감어린이공원,서울특별시,서초구,서울특별시 서초구 서초동 1359-12,127.0313,37.4857,실내대피소,419.0,지진실내구호소
1227,용허리근린공원,서울특별시,서초구,서울특별시 서초구 서초동 1324-1,127.0232,37.4942,실내대피소,938.0,지진실내구호소
1228,서운중학교운동장,서울특별시,서초구,서울특별시 서초구 서운로 115(서초동),127.0247,37.4936,실내대피소,5272.0,지진실내구호소
1229,서울고등학교 운동장,서울특별시,서초구,서울특별시 서초구 효령로 197(서초동),127.0071,37.4842,실내대피소,19158.0,지진실내구호소
1230,서울교육대학교 운동장,서울특별시,서초구,서울특별시 서초구 서초중앙로 96(서초동),127.0166,37.4906,실내대피소,9491.0,지진실내구호소
1231,서이초등학교 운동장,서울특별시,서초구,서울특별시 서초구 서운로 35(서초동),127.0259,37.4911,실내대피소,7309.0,지진실내구호소
1232,서일중학교 운동장,서울특별시,서초구,서울특별시 서초구 서운로21길 2(서초동),127.0225,37.4986,실내대피소,5283.0,지진실내구호소
1233,서일초등학교 운동장,서울특별시,서초구,서울특별시 서초구 남부순환로339길 38(서초동),127.0227,37.4846,실내대피소,3210.0,지진실내구호소
1234,서초고등학교 운동장,서울특별시,서초구,서울특별시 서초구 반포대로27길 29(서초동),127.0064,37.4892,실내대피소,3752.0,지진실내구호소
1235,서초중학교 운동장,서울특별시,서초구,서울특별시 서초구 반포대로13길 48(서초동),127.0086,37.4852,실내대피소,4915.0,지진실내구호소
1236,서초초등학교 운동장,서울특별시,서초구,서울특별시 서초구 서운로 178(서초동),127.0241,37.4991,실내대피소,7253.0,지진실내구호소
1237,신중초등학교 운동장,서울특별시,서초구,서울특별시 서초구 남부순환로317길 15(서초동),127.0097,37.4801,실내대피소,5768.0,지진실내구호소
1238,원명초등학교 운동장,서울특별시,서초구,서울특별시 서초구 고무래로 90-6 (서초동),127.0168,37.5004,실내대피소,4126.0,지진실내구호소
1239,본마을공원,서울특별시,서초구,서울특별시 서초구 신원동 445,127.053,37.4546,실내대피소,309.0,지진실내구호소
1240,역삼소나무공원,서울특별시,강남구,서울특별시 강남구 역삼동 836-21,127.0336,37.4909,실내대피소,987.0,지진실내구호소
1241,역삼은행나무공원,서울특별시,강남구,서울특별시 강남구 역삼동 611-0,127.0312,37.5054,실내대피소,1647.0,지진실내구호소
1242,역삼장미공원,서울특별시,강남구,서울특별시 강남구 역삼동 780-25,127.0448,37.4953,실내대피소,1637.0,지진실내구호소
1243,충현공원,서울특별시,강남구,서울특별시 강남구 역삼동 666-2,127.0365,37.5047,실내대피소,1536.0,지진실내구호소
1244,도성초등학교 운동장,서울특별시,강남구,서울특별시 강남구 역삼로 313(역삼동),127.0491,37.5006,실내대피소,1520.0,지진실내구호소
1245,역삼중학교 운동장,서울특별시,강남구,서울특별시 강남구 도곡로43길 10(역삼동),127.0487,37.4955,실내대피소,2424.0,지진실내구호소
1246,역삼초등학교 운동장,서울특별시,강남구,서울특별시 강남구 강남대로66길 21(역삼동),127.0327,37.4926,실내대피소,4594.0,지진실내구호소
1247,진선여자중학교 운동장,서울특별시,강남구,서울특별시 강남구 선릉로85길 27(역삼동),127.048,37.5017,실내대피소,16783.0,지진실내구호소
1248,개포동근린공원,서울특별시,강남구,서울특별시 강남구 개포로 509(개포동),127.0686,37.4897,실내대피소,9706.0,지진실내구호소
1249,개포서근린공원,서울특별시,강남구,서울특별시 강남구 개포로 409-1 (개포동),127.0645,37.4888,실내대피소,11627.0,지진실내구호소
1250,개포서근린공원,서울특별시,강남구,서울특별시 강남구 개포동 180-0,127.0637,37.4888,실내대피소,11219.0,지진실내구호소
1251,개포은행나무공원,서울특별시,강남구,서울특별시 강남구 개포로20길 48(개포동),127.049,37.476,실내대피소,1642.0,지진실내구호소
1252,대진근린공원,서울특별시,강남구,서울특별시 강남구 개포로109길 62(개포동),127.0785,37.4955,실내대피소,13568.0,지진실내구호소
1253,학여울근린공원(개포동근린공원),서울특별시,강남구,서울특별시 강남구 개포로 509(개포동),127.0688,37.4903,실내대피소,12506.0,지진실내구호소
1254,한마음어린이공원,서울특별시,강남구,서울특별시 강남구 개포동 12-3,127.0758,37.4957,실내대피소,2488.0,지진실내구호소
1255,개원중학교 운동장,서울특별시,강남구,서울특별시 강남구 영동대로 101(개포동),127.0713,37.4912,실내대피소,10260.0,지진실내구호소
1256,개일초등학교 운동장,서울특별시,강남구,서울특별시 강남구 개포로 401(개포동),127.058,37.4857,실내대피소,6600.0,지진실내구호소
1257,개포고등학교 운동장,서울특별시,강남구,서울특별시 강남구 개포로 402(개포동),127.0589,37.4846,실내대피소,8882.0,지진실내구호소
1258,경기여자고등학교 운동장,서울특별시,강남구,서울특별시 강남구 삼성로 29(개포동),127.0659,37.4862,실내대피소,8292.0,지진실내구호소
1259,구룡중학교 운동장,서울특별시,강남구,서울특별시 강남구 선릉로 103(개포동),127.0566,37.4856,실내대피소,7038.0,지진실내구호소
1260,구룡초등학교 운동장,서울특별시,강남구,서울특별시 강남구 개포로 263(개포동),127.0519,37.4807,실내대피소,12874.0,지진실내구호소
1261,국립국악고등학교 운동장,서울특별시,강남구,서울특별시 강남구 개포로22길 65(개포동),127.0508,37.4758,실내대피소,1392.0,지진실내구호소
1262,대진초등학교 운동장,서울특별시,강남구,서울특별시 강남구 개포동 13-0,127.078,37.4964,실내대피소,4494.0,지진실내구호소
1263,수도전기공업고등학교 운동장,서울특별시,강남구,서울특별시 강남구 개포로 410(개포동),127.0636,37.4868,실내대피소,20800.0,지진실내구호소
1264,양전초등학교 운동장,서울특별시,강남구,서울특별시 강남구 개포로 513(개포동),127.0704,37.4904,실내대피소,7515.0,지진실내구호소
1265,포이초등학교 운동장,서울특별시,강남구,서울특별시 강남구 개포로22길 87(개포동),127.0524,37.4755,실내대피소,12279.0,지진실내구호소
1266,청담목련어린이공원,서울특별시,강남구,서울특별시 강남구 청담동 51-0,127.0499,37.5229,실내대피소,1642.0,지진실내구호소
1267,청담은행나무공원,서울특별시,강남구,서울특별시 강남구 도산대로67길 15(청담동),127.044,37.5251,실내대피소,1644.0,지진실내구호소
1268,청수근린공원,서울특별시,강남구,서울특별시 강남구 청담동 134-13,127.0584,37.5232,실내대피소,17402.0,지진실내구호소
1269,언북초등학교 운동장,서울특별시,강남구,서울특별시 강남구 삼성로135길 42(청담동),127.0462,37.52,실내대피소,4617.0,지진실내구호소
1270,영동고등학교 운동장,서울특별시,강남구,서울특별시 강남구 선릉로 742(청담동),127.0419,37.5204,실내대피소,43546.0,지진실내구호소
1271,청담중학교 운동장,서울특별시,강남구,서울특별시 강남구 압구정로61길 36(청담동),127.0453,37.5289,실내대피소,3660.0,지진실내구호소
1272,청담초등학교 운동장,서울특별시,강남구,서울특별시 강남구 청담동 142-0,127.0451,37.5278,실내대피소,5684.0,지진실내구호소
1273,삼성까치공원,서울특별시,강남구,서울특별시 강남구 삼성동 85-0,127.0607,37.5182,실내대피소,1463.0,지진실내구호소
1274,삼성목련공원,서울특별시,강남구,서울특별시 강남구 삼성동 55-1,127.054,37.5185,실내대피소,1641.0,지진실내구호소
1275,샘터근린공원,서울특별시,강남구,서울특별시 강남구 삼성동 16-4,127.0474,37.5153,실내대피소,1800.0,지진실내구호소
1276,강남구보건소 주차장,서울특별시,강남구,서울특별시 강남구 선릉로 668(삼성동),127.042,37.5162,실내대피소,3153.0,지진실내구호소
1277,강남구청 주차장,서울특별시,강남구,서울특별시 강남구 학동로 426(삼성동),127.0472,37.5177,실내대피소,4320.0,지진실내구호소
1278,경기고등학교 운동장,서울특별시,강남구,서울특별시 강남구 영동대로 643(삼성동),127.057,37.5174,실내대피소,13052.0,지진실내구호소
1279,봉은중학교 운동장,서울특별시,강남구,서울특별시 강남구 영동대로128길 59(삼성동),127.0628,37.5188,실내대피소,2822.0,지진실내구호소
1280,봉은초등학교 운동장,서울특별시,강남구,서울특별시 강남구 학동로 610(삼성동),127.0605,37.5206,실내대피소,2928.0,지진실내구호소
1281,삼릉초등학교 운동장,서울특별시,강남구,서울특별시 강남구 삼성동 42-0,127.0471,37.5127,실내대피소,6598.0,지진실내구호소
1282,언주중학교 운동장,서울특별시,강남구,서울특별시 강남구 삼성동 28-0,127.0469,37.5142,실내대피소,7448.0,지진실내구호소
1283,늘벗근린공원,서울특별시,강남구,서울특별시 강남구 대치동 501-0,127.0572,37.4895,실내대피소,19812.0,지진실내구호소
1284,대치근린공원,서울특별시,강남구,서울특별시 강남구 대치동 512-0,127.0699,37.495,실내대피소,10409.0,지진실내구호소
1285,단국대부속고등학교 운동장,서울특별시,강남구,서울특별시 강남구 대치동 1013-0,127.0559,37.4961,실내대피소,7800.0,지진실내구호소
1286,대곡초등학교 운동장,서울특별시,강남구,서울특별시 강남구 남부순환로 3022(대치동),127.0652,37.4944,실내대피소,7805.0,지진실내구호소
1287,대명중학교 운동장,서울특별시,강남구,서울특별시 강남구 역삼로87길 26(대치동),127.061,37.5058,실내대피소,5400.0,지진실내구호소
1288,대청중학교 운동장,서울특별시,강남구,서울특별시 강남구 양재천로 321(대치동),127.0586,37.4899,실내대피소,8336.0,지진실내구호소
1289,대치초등학교 운동장,서울특별시,강남구,서울특별시 강남구 양재천로 363(대치동),127.0621,37.4909,실내대피소,13435.0,지진실내구호소
1290,대현초등학교 운동장,서울특별시,강남구,서울특별시 강남구 대치동 969,127.0638,37.5035,실내대피소,8585.0,지진실내구호소
1291,도곡초등학교 운동장,서울특별시,강남구,서울특별시 강남구 대치동 924-10,127.0546,37.499,실내대피소,8080.0,지진실내구호소
1292,휘문고등학교 운동장,서울특별시,강남구,서울특별시 강남구 역삼로 541(대치동),127.061,37.505,실내대피소,20196.0,지진실내구호소
1293,휘문중학교운동장,서울특별시,강남구,서울특별시 강남구 역삼로 541(대치동),127.0628,37.5055,실내대피소,17440.0,지진실내구호소
1294,신사무궁화공원,서울특별시,강남구,서울특별시 강남구 신사동 625-5,127.0319,37.5241,실내대피소,1642.0,지진실내구호소
1295,신사은행나무공원,서울특별시,강남구,서울특별시 강남구 신사동 558,127.026,37.5205,실내대피소,1240.0,지진실내구호소
1296,신구중학교 운동장,서울특별시,강남구,서울특별시 강남구 압구정로36길 17(신사동),127.0322,37.5267,실내대피소,6332.0,지진실내구호소
1297,신구초등학교 운동장,서울특별시,강남구,서울특별시 강남구 신사동 550-11,127.0242,37.523,실내대피소,12986.0,지진실내구호소
1298,논현개나리공원,서울특별시,강남구,서울특별시 강남구 논현로123길 19(논현동),127.0299,37.5113,실내대피소,1653.0,지진실내구호소
1299,논현소나무공원,서울특별시,강남구,서울특별시 강남구 논현동 239,127.0374,37.5157,실내대피소,1820.0,지진실내구호소
1300,학동공원,서울특별시,강남구,서울특별시 강남구 강남대로140길 47(논현동),127.0254,37.5154,실내대피소,29947.0,지진실내구호소
1301,논현초등학교 운동장,서울특별시,강남구,서울특별시 강남구 논현동 168,127.0262,37.5081,실내대피소,3960.0,지진실내구호소
1302,언북중학교 운동장,서울특별시,강남구,서울특별시 강남구 도산대로38길 27(논현동),127.0332,37.5188,실내대피소,6136.0,지진실내구호소
1303,학동초등학교 운동장,서울특별시,강남구,서울특별시 강남구 논현동 264-7,127.0398,37.512,실내대피소,1820.0,지진실내구호소
1304,갈매기근린공원,서울특별시,강남구,서울특별시 강남구 압구정동 480,127.0346,37.5318,실내대피소,7732.0,지진실내구호소
1305,신사근린공원,서울특별시,강남구,서울특별시 강남구 압구정동 422,127.021,37.5264,실내대피소,6800.0,지진실내구호소
1306,신사중학교 운동장,서울특별시,강남구,서울특별시 강남구 압구정로 123(압구정동),127.0212,37.5242,실내대피소,7980.0,지진실내구호소
1307,압구정고등학교 운동장,서울특별시,강남구,서울특별시 강남구 압구정로39길 20(압구정동),127.0327,37.5307,실내대피소,5903.0,지진실내구호소
1308,압구정중학교 운동장,서울특별시,강남구,서울특별시 강남구 압구정로 225(압구정동),127.033,37.5297,실내대피소,6600.0,지진실내구호소
1309,압구정초등학교 운동장,서울특별시,강남구,서울특별시 강남구 압구정동 461,127.0309,37.5313,실내대피소,5500.0,지진실내구호소
1310,청담고등학교 운동장,서울특별시,강남구,서울특별시 강남구 압구정동 526,127.0431,37.5283,실내대피소,3522.0,지진실내구호소
1311,현대고등학교 운동장,서울특별시,강남구,서울특별시 강남구 압구정로 127(압구정동),127.0226,37.525,실내대피소,12230.0,지진실내구호소
1312,대왕어린이공원,서울특별시,강남구,서울특별시 강남구 세곡동 526-2,127.1045,37.4623,실내대피소,2633.0,지진실내구호소
1313,도담어린이공원,서울특별시,강남구,서울특별시 강남구 세곡동 548,127.0986,37.4672,실내대피소,4283.0,지진실내구호소
1314,세곡동공원,서울특별시,강남구,서울특별시 강남구 세곡동 525-1,127.1033,37.4603,실내대피소,10310.0,지진실내구호소
1315,세곡천공원,서울특별시,강남구,서울특별시 강남구 세곡동 522-1,127.1012,37.4632,실내대피소,2645.0,지진실내구호소
1316,윗반고개공원,서울특별시,강남구,서울특별시 강남구 세곡동 99-6,127.1092,37.4659,실내대피소,1250.0,지진실내구호소
1317,행복어린이공원,서울특별시,강남구,서울특별시 강남구 세곡동 546,127.0971,37.4672,실내대피소,2484.0,지진실내구호소
1318,대왕초등학교 운동장,서울특별시,강남구,서울특별시 강남구 헌릉로618길 8(세곡동),127.1055,37.4642,실내대피소,1836.0,지진실내구호소
1319,세명초등학교 운동장,서울특별시,강남구,서울특별시 강남구 세곡동 529,127.0913,37.4687,실내대피소,1365.0,지진실내구호소
1320,LH보금자리 근린공원2호,서울특별시,강남구,서울특별시 강남구 자곡동 625,127.0908,37.4694,실내대피소,5237.0,지진실내구호소
1321,LH보금자리 근린공원5호,서울특별시,강남구,서울특별시 강남구 자곡동 607,127.0976,37.4729,실내대피소,21561.0,지진실내구호소
1322,LH보금자리 근린공원7호,서울특별시,강남구,서울특별시 강남구 자곡동 627,127.0926,37.4708,실내대피소,12093.0,지진실내구호소
1323,못골공원,서울특별시,강남구,서울특별시 강남구 자곡동 447-23,127.1,37.4736,실내대피소,749.0,지진실내구호소
1324,세곡중학교 운동장,서울특별시,강남구,서울특별시 강남구 자곡로 81(자곡동),127.0924,37.4716,실내대피소,2433.0,지진실내구호소
1325,율현초등학교 운동장,서울특별시,강남구,서울특별시 강남구 밤고개로21길 15(자곡동),127.1087,37.4744,실내대피소,300.0,지진실내구호소
1326,자곡초등학교 운동장,서울특별시,강남구,서울특별시 강남구 자곡동 642,127.0998,37.472,실내대피소,1870.0,지진실내구호소
1327,풍문고등학교 운동장,서울특별시,강남구,서울특별시 강남구 자곡로 152(자곡동),127.1009,37.4716,실내대피소,2392.0,지진실내구호소
1328,윗방죽마을공원,서울특별시,강남구,서울특별시 강남구 율현동 308-29,127.1046,37.4703,실내대피소,935.0,지진실내구호소
1329,늘푸른근린공원,서울특별시,강남구,서울특별시 강남구 일원동 690,127.0775,37.4899,실내대피소,11410.0,지진실내구호소
1330,대청근린공원,서울특별시,강남구,서울특별시 강남구 개포로124길 24(일원동),127.0825,37.4926,실내대피소,14089.0,지진실내구호소
1331,일원개나리공원,서울특별시,강남구,서울특별시 강남구 일원동 730-3,127.0764,37.4829,실내대피소,4454.0,지진실내구호소
1332,일원까치공원,서울특별시,강남구,서울특별시 강남구 일원동 712-4,127.0882,37.492,실내대피소,1476.0,지진실내구호소
1333,일원느티나무공원,서울특별시,강남구,서울특별시 강남구 일원동 730-2,127.0774,37.483,실내대피소,1826.0,지진실내구호소
1334,일원장미공원,서울특별시,강남구,서울특별시 강남구 일원동 732-4,127.0807,37.4806,실내대피소,1500.0,지진실내구호소
1335,동북중고등학교 운동장,서울특별시,강동구,서울특별시 강동구 강동대로 305(둔촌동),127.1401,37.5197,실내대피소,8304.0,지진실내구호소
1336,둔촌고등학교 운동장,서울특별시,강동구,서울특별시 강동구 명일로 140(둔촌동),127.1439,37.5309,실내대피소,2883.0,지진실내구호소
1337,둔촌중학교 운동장,서울특별시,강동구,서울특별시 강동구 진황도로61길 25-30 (둔촌동),127.1461,37.5302,실내대피소,4081.0,지진실내구호소
1338,선린초등학교 운동장,서울특별시,강동구,서울특별시 강동구 진황도로61길 29(둔촌동),127.1457,37.5292,실내대피소,4732.0,지진실내구호소
1339,한산중학교 운동장,서울특별시,강동구,서울특별시 강동구 둔촌동 161-1,127.14,37.5282,실내대피소,3675.0,지진실내구호소
1340,한산초등학교운동장,서울특별시,강동구,서울특별시 강동구 풍성로 261(둔촌동),127.1414,37.528,실내대피소,5466.0,지진실내구호소
1341,암사유적지부설주차장,서울특별시,강동구,서울특별시 강동구 암사동 139-2,127.1303,37.5591,실내대피소,3016.0,지진실내구호소
1342,강일중학교 운동장,서울특별시,강동구,서울특별시 강동구 암사동 414-17,127.1382,37.5549,실내대피소,1102.0,지진실내구호소
1343,명일초등학교 운동장,서울특별시,강동구,서울특별시 강동구 암사동 418-18,127.1419,37.554,실내대피소,8204.0,지진실내구호소
1344,선사고등학교 운동장,서울특별시,강동구,서울특별시 강동구 고덕로25길 17(암사동),127.1359,37.5559,실내대피소,3571.0,지진실내구호소
1345,선사초등학교운동장,서울특별시,강동구,서울특별시 강동구 올림픽로 837(암사동),127.1292,37.5559,실내대피소,5760.0,지진실내구호소
1346,신암중학교 운동장,서울특별시,강동구,서울특별시 강동구 고덕로 65(암사동),127.1332,37.5553,실내대피소,5898.0,지진실내구호소
1347,신암초등학교 운동장,서울특별시,강동구,서울특별시 강동구 올림픽로93길 33-16 (암사동),127.1241,37.5489,실내대피소,1880.0,지진실내구호소
1348,성내하니공원,서울특별시,강동구,서울특별시 강동구 성내동 533-0,127.1267,37.5298,실내대피소,2850.0,지진실내구호소
1349,성내중학교 운동장,서울특별시,강동구,서울특별시 강동구 성안로7길 36(성내동),127.1295,37.5285,실내대피소,5162.0,지진실내구호소
1350,성내초등학교 운동장,서울특별시,강동구,서울특별시 강동구 성내로3길 19(성내동),127.1221,37.531,실내대피소,3323.0,지진실내구호소
1351,성일초등학교운동장,서울특별시,강동구,서울특별시 강동구 성내동 531-0,127.1283,37.5291,실내대피소,8065.0,지진실내구호소
1352,천호공원광장,서울특별시,강동구,서울특별시 강동구 천호동 360-0,127.1264,37.5445,실내대피소,1300.0,지진실내구호소
1353,강동초등학교 운동장,서울특별시,강동구,서울특별시 강동구 상암로14길 77(천호동),127.1299,37.5459,실내대피소,7452.0,지진실내구호소
1354,동신중학교 운동장,서울특별시,강동구,서울특별시 강동구 진황도로 72(천호동),127.1339,37.5364,실내대피소,12134.0,지진실내구호소
1355,성덕고등학교 운동장(성덕여자중학교 운동장),서울특별시,강동구,서울특별시 강동구 구천면로 396(천호동),127.1422,37.5498,실내대피소,5320.0,지진실내구호소
1356,천일초등학교운동장,서울특별시,강동구,서울특별시 강동구 천호동 217-70,127.1328,37.5439,실내대피소,1910.0,지진실내구호소
1357,천호중학교 운동장,서울특별시,강동구,서울특별시 강동구 상암로 153(천호동),127.1399,37.5463,실내대피소,2990.0,지진실내구호소
1358,천호초등학교 운동장,서울특별시,강동구,서울특별시 강동구 구천면로 310-11 (천호동),127.1362,37.547,실내대피소,1850.0,지진실내구호소
1359,강동중학교 운동장,서울특별시,강동구,서울특별시 강동구 풍산로 237(강일동),127.1779,37.5693,실내대피소,4044.0,지진실내구호소
1360,강명중학교 운동장,서울특별시,강동구,서울특별시 강동구 상일로12길 56(상일동),127.1751,37.5551,실내대피소,3213.0,지진실내구호소
1361,강일고등학교 운동장,서울특별시,강동구,서울특별시 강동구 아리수로98길 40(강일동),127.178,37.5634,실내대피소,4274.0,지진실내구호소
1362,강일초등학교 운동장,서울특별시,강동구,서울특별시 강동구 아리수로98길 24(강일동),127.1773,37.5647,실내대피소,4011.0,지진실내구호소
1363,한솔근린공원,서울특별시,강남구,서울특별시 강남구 일원동 732,127.079,37.4813,실내대피소,12878.0,지진실내구호소
1364,대모초등학교 운동장,서울특별시,강남구,서울특별시 강남구 일원동 736,127.086,37.481,실내대피소,4840.0,지진실내구호소
1365,대청초등학교 운동장,서울특별시,강남구,서울특별시 강남구 양재대로55길 28(일원동),127.0879,37.4927,실내대피소,6357.0,지진실내구호소
1366,로봇고등학교 운동장,서울특별시,강남구,서울특별시 강남구 광평로20길 63(일원동),127.0842,37.4804,실내대피소,8640.0,지진실내구호소
1367,영희초등학교 운동장,서울특별시,강남구,서울특별시 강남구 일원로 21(일원동),127.0812,37.4918,실내대피소,10545.0,지진실내구호소
1368,일원초등학교 운동장,서울특별시,강남구,서울특별시 강남구 영동대로4길 20(일원동),127.0764,37.4893,실내대피소,6881.0,지진실내구호소
1369,중동고등학교 운동장,서울특별시,강남구,서울특별시 강남구 일원동 618,127.0809,37.4927,실내대피소,10419.0,지진실내구호소
1370,중동중학교 운동장,서울특별시,강남구,서울특별시 강남구 일원로8길 37(일원동),127.0777,37.4888,실내대피소,4641.0,지진실내구호소
1371,중산고등학교 운동장,서울특별시,강남구,서울특별시 강남구 일원로14길 22(일원동),127.0805,37.4853,실내대피소,10763.0,지진실내구호소
1372,탄천어울림공원,서울특별시,강남구,서울특별시 강남구 수서동 722,127.1065,37.4876,실내대피소,10011.0,지진실내구호소
1373,대왕중학교 운동장,서울특별시,강남구,서울특별시 강남구 광평로20길 7(수서동),127.0873,37.483,실내대피소,9069.0,지진실내구호소
1374,대진디자인고등학교 운동장,서울특별시,강남구,서울특별시 강남구 광평로39길 93(수서동),127.0962,37.4907,실내대피소,2952.0,지진실내구호소
1375,세종고등학교 운동장,서울특별시,강남구,서울특별시 강남구 광평로51길 36(수서동),127.1026,37.4899,실내대피소,10500.0,지진실내구호소
1376,수서중학교 운동장,서울특별시,강남구,서울특별시 강남구 광평로59길 57(수서동),127.1026,37.4907,실내대피소,2728.0,지진실내구호소
1377,수서초등학교 운동장,서울특별시,강남구,서울특별시 강남구 수서동 709,127.1017,37.4906,실내대피소,7774.0,지진실내구호소
1378,왕북초등학교 운동장,서울특별시,강남구,서울특별시 강남구 광평로31길 74(수서동),127.0867,37.486,실내대피소,3074.0,지진실내구호소
1379,도곡목련공원,서울특별시,강남구,서울특별시 강남구 도곡동 415-3,127.0443,37.4849,실내대피소,1709.0,지진실내구호소
1380,독골공원(개포근린공원),서울특별시,강남구,서울특별시 강남구 남부순환로378길 29(도곡동),127.0469,37.4851,실내대피소,10023.0,지진실내구호소
1381,대도초등학교 운동장,서울특별시,강남구,서울특별시 강남구 선릉로 209(도곡동),127.0537,37.4925,실내대피소,6852.0,지진실내구호소
1382,대치중학교 운동장,서울특별시,강남구,서울특별시 강남구 남부순환로378길 39(도곡동),127.0478,37.484,실내대피소,5587.0,지진실내구호소
1383,도곡중학교 운동장,서울특별시,강남구,서울특별시 강남구 언주로57길 31(도곡동),127.0449,37.4926,실내대피소,3200.0,지진실내구호소
1384,숙명여자고등학교 운동장,서울특별시,강남구,서울특별시 강남구 남부순환로 2807(도곡동),127.054,37.4915,실내대피소,13170.0,지진실내구호소
1385,언주초등학교 운동장,서울특별시,강남구,서울특별시 강남구 도곡동 922,127.0375,37.4868,실내대피소,9078.0,지진실내구호소
1386,은성중학교 운동장(은광여자고등학교운동장),서울특별시,강남구,서울특별시 강남구 남부순환로359길 36(도곡동),127.0363,37.4872,실내대피소,16544.0,지진실내구호소
1387,중대부속고등학교 운동장,서울특별시,강남구,서울특별시 강남구 선릉로 207(도곡동),127.0519,37.4924,실내대피소,9107.0,지진실내구호소
1388,아시아공원,서울특별시,송파구,서울특별시 송파구 올림픽로 44(잠실동),127.0778,37.5102,실내대피소,65818.0,지진실내구호소
1389,버들초등학교 운동장,서울특별시,송파구,서울특별시 송파구 석촌호수로 81(잠실동),127.089,37.51,실내대피소,960.0,지진실내구호소
1390,송전초등학교 운동장,서울특별시,송파구,서울특별시 송파구 석촌호수로 159(잠실동),127.0945,37.5083,실내대피소,2260.0,지진실내구호소
1391,신천중학교 운동장,서울특별시,송파구,서울특별시 송파구 백제고분로 11(잠실동),127.0784,37.5159,실내대피소,4819.0,지진실내구호소
1392,신천초등학교 운동장,서울특별시,송파구,서울특별시 송파구 올림픽로 215(잠실동),127.0951,37.5135,실내대피소,5750.0,지진실내구호소
1393,아주중학교 운동장,서울특별시,송파구,서울특별시 송파구 올림픽로4길 69(잠실동),127.0759,37.5048,실내대피소,7279.0,지진실내구호소
1394,아주초등학교 운동장,서울특별시,송파구,서울특별시 송파구 올림픽로4길 59(잠실동),127.0755,37.5055,실내대피소,6938.0,지진실내구호소
1395,영동일고등학교 운동장,서울특별시,송파구,서울특별시 송파구 석촌호수로 93(잠실동),127.0893,37.5096,실내대피소,1970.0,지진실내구호소
1396,잠신고등학교 운동장,서울특별시,송파구,서울특별시 송파구 잠실로 24(잠실동),127.0892,37.5151,실내대피소,4969.0,지진실내구호소
1397,잠신중학교 운동장,서울특별시,송파구,서울특별시 송파구 잠실로 12(잠실동),127.0878,37.5157,실내대피소,6770.0,지진실내구호소
1398,잠신초등학교 운동장,서울특별시,송파구,서울특별시 송파구 잠실로 32(잠실동),127.0884,37.5138,실내대피소,2800.0,지진실내구호소
1399,잠일고등학교 운동장,서울특별시,송파구,서울특별시 송파구 백제고분로 21(잠실동),127.0823,37.5141,실내대피소,1532.0,지진실내구호소
1400,잠일초등학교 운동장,서울특별시,송파구,서울특별시 송파구 올림픽로 95(잠실동),127.0811,37.5146,실내대피소,2146.0,지진실내구호소
1401,잠전초등학교 운동장,서울특별시,송파구,서울특별시 송파구 올림픽로12길 51(잠실동),127.0841,37.5066,실내대피소,4926.0,지진실내구호소
1402,정신여자고등학교운동장,서울특별시,송파구,서울특별시 송파구 올림픽로4길 16(잠실동),127.0722,37.5099,실내대피소,10092.0,지진실내구호소
1403,정신여자중학교 운동장,서울특별시,송파구,서울특별시 송파구 올림픽로4길 16(잠실동),127.0721,37.5099,실내대피소,10092.0,지진실내구호소
1404,잠동초등학교 운동장,서울특별시,송파구,서울특별시 송파구 올림픽로35길 122(신천동),127.1001,37.5179,실내대피소,2947.0,지진실내구호소
1405,잠실고등학교 운동장,서울특별시,송파구,서울특별시 송파구 올림픽로33길 71(신천동),127.1061,37.5222,실내대피소,4778.0,지진실내구호소
1406,잠실중학교 운동장,서울특별시,송파구,서울특별시 송파구 올림픽로35길 130(신천동),127.0994,37.5171,실내대피소,6556.0,지진실내구호소
1407,잠실초등학교 운동장,서울특별시,송파구,서울특별시 송파구 올림픽로35길 20(신천동),127.111,37.5199,실내대피소,1785.0,지진실내구호소
1408,잠현초등학교 운동장,서울특별시,송파구,서울특별시 송파구 올림픽로37길 109(신천동),127.1048,37.522,실내대피소,1574.0,지진실내구호소
1409,영파여자고등학교 운동장,서울특별시,송파구,서울특별시 송파구 올림픽로 565(풍납동),127.1203,37.5325,실내대피소,5385.0,지진실내구호소
1410,영파여자중학교운동장,서울특별시,송파구,서울특별시 송파구 올림픽로 565(풍납동),127.1203,37.5326,실내대피소,5385.0,지진실내구호소
1411,토성초등학교 운동장,서울특별시,송파구,서울특별시 송파구 풍성로20길 44(풍납동),127.1151,37.5318,실내대피소,3456.0,지진실내구호소
1412,풍납중학교 운동장,서울특별시,송파구,서울특별시 송파구 올림픽로43길 20(풍납동),127.1163,37.5253,실내대피소,4070.0,지진실내구호소
1413,풍납초등학교 운동장,서울특별시,송파구,서울특별시 송파구 풍성로 43(풍납동),127.1179,37.5347,실내대피소,5900.0,지진실내구호소
1414,풍성중학교 운동장,서울특별시,송파구,서울특별시 송파구 강동대로2길 27(풍납동),127.1124,37.5253,실내대피소,7260.0,지진실내구호소
1415,풍성초등학교 운동장,서울특별시,송파구,서울특별시 송파구 강동대로2길 27(풍납동),127.1131,37.5259,실내대피소,6240.0,지진실내구호소
1416,가락고등학교 운동장,서울특별시,송파구,서울특별시 송파구 송이로 42(송파동),127.1172,37.501,실내대피소,5478.0,지진실내구호소
1417,가락중학교 운동장,서울특별시,송파구,서울특별시 송파구 송이로 45(송파동),127.1182,37.5021,실내대피소,6944.0,지진실내구호소
1418,송파초등학교 운동장,서울특별시,송파구,서울특별시 송파구 백제고분로 400(송파동),127.1106,37.507,실내대피소,5547.0,지진실내구호소
1419,일신여자상업고등학교운동장,서울특별시,송파구,서울특별시 송파구 송파대로38길 8(송파동),127.1139,37.5012,실내대피소,13369.0,지진실내구호소
1420,일신여자중학교 운동장,서울특별시,송파구,서울특별시 송파구 송파대로38길 8(송파동),127.1136,37.501,실내대피소,13369.0,지진실내구호소
1421,잠실여자고등학교 운동장,서울특별시,송파구,서울특별시 송파구 송파대로38길 8(송파동),127.1132,37.5018,실내대피소,13369.0,지진실내구호소
1422,중대초등학교 운동장,서울특별시,송파구,서울특별시 송파구 송파대로36길 8(송파동),127.1142,37.5005,실내대피소,5100.0,지진실내구호소
1423,석촌초등학교 운동장,서울특별시,송파구,서울특별시 송파구 가락로11길 26(석촌동),127.1046,37.5025,실내대피소,4600.0,지진실내구호소
1424,배명고등학교운동장,서울특별시,송파구,서울특별시 송파구 삼학사로 11(삼전동),127.0958,37.4983,실내대피소,4006.0,지진실내구호소
1425,배명중학교 운동장,서울특별시,송파구,서울특별시 송파구 삼학사로 11(삼전동),127.0959,37.4983,실내대피소,4006.0,지진실내구호소
1426,삼전초등학교 운동장,서울특별시,송파구,서울특별시 송파구 백제고분로28길 19(삼전동),127.0926,37.5013,실내대피소,3645.0,지진실내구호소
1427,개롱공원,서울특별시,송파구,서울특별시 송파구 동남로 178(가락동),127.1307,37.4936,실내대피소,19800.0,지진실내구호소
1428,가동초등학교 운동장,서울특별시,송파구,서울특별시 송파구 중대로20길 47(가락동),127.1303,37.497,실내대피소,5250.0,지진실내구호소
1429,가원중학교 운동장,서울특별시,송파구,서울특별시 송파구 중대로10길 40-18 (가락동),127.1224,37.4907,실내대피소,2224.0,지진실내구호소
1430,가주초등학교 운동장,서울특별시,송파구,서울특별시 송파구 오금로40길 37(가락동),127.1286,37.4966,실내대피소,3103.0,지진실내구호소
1431,석촌중학교 운동장,서울특별시,송파구,서울특별시 송파구 송이로15길 13(가락동),127.1212,37.5006,실내대피소,7303.0,지진실내구호소
1432,송파중학교 운동장,서울특별시,송파구,서울특별시 송파구 동남로 203(가락동),127.1297,37.4955,실내대피소,6246.0,지진실내구호소
1433,신가초등학교 운동장,서울특별시,송파구,서울특별시 송파구 송이로 75(가락동),127.12,37.4999,실내대피소,5768.0,지진실내구호소
1434,평화초등학교 운동장,서울특별시,송파구,서울특별시 송파구 송파대로26길 22(가락동),127.1221,37.4912,실내대피소,8136.0,지진실내구호소
1435,가원초등학교 운동장,서울특별시,송파구,서울특별시 송파구 중대로4길 8(문정동),127.1114,37.489,실내대피소,3763.0,지진실내구호소
1436,문덕초등학교 운동장,서울특별시,송파구,서울특별시 송파구 송이로34길 60(문정동),127.1274,37.4849,실내대피소,1714.0,지진실내구호소
1437,문정고등학교 운동장,서울특별시,송파구,서울특별시 송파구 송이로34길 62(문정동),127.1274,37.4855,실내대피소,3581.0,지진실내구호소
1438,문정중학교 운동장,서울특별시,송파구,서울특별시 송파구 문정로 73(문정동),127.1295,37.488,실내대피소,4848.0,지진실내구호소
1439,문정초등학교 운동장,서울특별시,송파구,서울특별시 송파구 문정로5길 20(문정동),127.1286,37.4888,실내대피소,6230.0,지진실내구호소
1440,문현고등학교 운동장,서울특별시,송파구,서울특별시 송파구 충민로 115(장지동),127.1289,37.4808,실내대피소,2157.0,지진실내구호소
1441,문현중학교 운동장,서울특별시,송파구,서울특별시 송파구 충민로 99(장지동),127.1277,37.4802,실내대피소,2478.0,지진실내구호소
1442,문현초등학교 운동장,서울특별시,송파구,서울특별시 송파구 충민로 137(장지동),127.1304,37.4824,실내대피소,2113.0,지진실내구호소
1443,송례중학교 운동장,서울특별시,송파구,서울특별시 송파구 위례순환로 429(장지동),127.1396,37.4773,실내대피소,2220.0,지진실내구호소
1444,송례초등학교 운동장,서울특별시,송파구,서울특별시 송파구 위례순환로 439(장지동),127.1383,37.4773,실내대피소,1760.0,지진실내구호소
1445,위례별초등학교 운동장,서울특별시,송파구,서울특별시 송파구 위례광장로 243(장지동),127.1451,37.4785,실내대피소,1873.0,지진실내구호소
1446,올림픽공원,서울특별시,송파구,서울특별시 송파구 올림픽로 424(방이동),127.116,37.5213,실내대피소,37270.0,지진실내구호소
1447,방산고등학교 운동장,서울특별시,송파구,서울특별시 송파구 오금로27길 18(방이동),127.1211,37.5081,실내대피소,3717.0,지진실내구호소
1448,방산중학교 운동장,서울특별시,송파구,서울특별시 송파구 오금로29길 31(방이동),127.1216,37.5089,실내대피소,6510.0,지진실내구호소
1449,방산초등학교 운동장,서울특별시,송파구,서울특별시 송파구 오금로27길 42(방이동),127.1208,37.5092,실내대피소,6510.0,지진실내구호소
1450,방이중학교 운동장,서울특별시,송파구,서울특별시 송파구 오금로11길 64(방이동),127.1129,37.5143,실내대피소,4985.0,지진실내구호소
1451,방이초등학교 운동장,서울특별시,송파구,서울특별시 송파구 위례성대로10길 4(방이동),127.1209,37.5133,실내대피소,5921.0,지진실내구호소
1452,보성고등학교 운동장,서울특별시,송파구,서울특별시 송파구 양재대로 1278(방이동),127.134,37.5196,실내대피소,8119.0,지진실내구호소
1453,보성중학교운동장,서울특별시,송파구,서울특별시 송파구 양재대로 1278(방이동),127.1338,37.5195,실내대피소,8119.0,지진실내구호소
1454,서울체육고등학교 운동장,서울특별시,송파구,서울특별시 송파구 강동대로 232(방이동),127.1286,37.5223,실내대피소,6447.0,지진실내구호소
1455,서울체육중학교운동장,서울특별시,송파구,서울특별시 송파구 강동대로 232(방이동),127.1287,37.5222,실내대피소,6447.0,지진실내구호소
1456,세륜초등학교 운동장,서울특별시,송파구,서울특별시 송파구 양재대로 1264(방이동),127.1335,37.5186,실내대피소,4193.0,지진실내구호소
1457,오륜중학교 운동장,서울특별시,송파구,서울특별시 송파구 양재대로 1242(방이동),127.1386,37.5157,실내대피소,2650.0,지진실내구호소
1458,오륜초등학교 운동장,서울특별시,송파구,서울특별시 송파구 양재대로 1196(방이동),127.1344,37.512,실내대피소,5364.0,지진실내구호소
1459,창덕여자고등학교 운동장,서울특별시,송파구,서울특별시 송파구 양재대로 1240(방이동),127.1398,37.5155,실내대피소,8845.0,지진실내구호소
1460,한국체육대학교 운동장,서울특별시,송파구,서울특별시 송파구 양재대로 1239(방이동),127.1309,37.5192,실내대피소,19800.0,지진실내구호소
1461,오금공원,서울특별시,송파구,서울특별시 송파구 오금로 363(오금동),127.1316,37.5008,실내대피소,219167.0,지진실내구호소
1462,개롱초등학교 운동장,서울특별시,송파구,서울특별시 송파구 문정로 211(오금동),127.1395,37.4969,실내대피소,2441.0,지진실내구호소
1463,거여초등학교 운동장,서울특별시,송파구,서울특별시 송파구 마천로25길 18(오금동),127.1408,37.5045,실내대피소,2100.0,지진실내구호소
1464,보인고등학교운동장,서울특별시,송파구,서울특별시 송파구 오금로49길 18(오금동),127.1384,37.4976,실내대피소,7343.0,지진실내구호소
1465,보인중학교 운동장,서울특별시,송파구,서울특별시 송파구 오금로49길 18(오금동),127.1381,37.4977,실내대피소,7343.0,지진실내구호소
1466,세륜중학교 운동장,서울특별시,송파구,서울특별시 송파구 양재대로72길 41(오금동),127.1314,37.5084,실내대피소,2558.0,지진실내구호소
1467,오금고등학교 운동장,서울특별시,송파구,서울특별시 송파구 중대로 247(오금동),127.1292,37.5041,실내대피소,9264.0,지진실내구호소
1468,오금중학교 운동장,서울특별시,송파구,서울특별시 송파구 오금로35길 20(오금동),127.1283,37.5049,실내대피소,8171.0,지진실내구호소
1469,오금초등학교 운동장,서울특별시,송파구,서울특별시 송파구 위례성대로22길 11(오금동),127.1319,37.509,실내대피소,2850.0,지진실내구호소
1470,오주중학교 운동장,서울특별시,송파구,서울특별시 송파구 동남로 281(오금동),127.1362,37.501,실내대피소,5160.0,지진실내구호소
1471,거원중학교 운동장,서울특별시,송파구,서울특별시 송파구 양산로2길 30(거여동),127.1461,37.4876,실내대피소,5142.0,지진실내구호소
1472,거원초등학교 운동장,서울특별시,송파구,서울특별시 송파구 양산로2길 26(거여동),127.1452,37.4878,실내대피소,5142.0,지진실내구호소
1473,서울인공지능고등학교 운동장,서울특별시,송파구,서울특별시 송파구 양산로 21(거여동),127.1428,37.4913,실내대피소,4405.0,지진실내구호소
1474,영풍초등학교 운동장,서울특별시,송파구,서울특별시 송파구 오금로57길 15(거여동),127.1428,37.4958,실내대피소,3025.0,지진실내구호소
1475,천마공원,서울특별시,송파구,서울특별시 송파구 성내천로33가길 20(마천동),127.1586,37.5004,실내대피소,7311.0,지진실내구호소
1476,남천초등학교 운동장,서울특별시,송파구,서울특별시 송파구 성내천로 207(마천동),127.1509,37.501,실내대피소,2259.0,지진실내구호소
1477,마천초등학교 운동장,서울특별시,송파구,서울특별시 송파구 마천로61다길 24(마천동),127.1522,37.4953,실내대피소,3600.0,지진실내구호소
1478,고명초등학교 운동장,서울특별시,강동구,서울특별시 강동구 고덕로46길 53(명일동),127.1468,37.5526,실내대피소,3045.0,지진실내구호소
1479,대명초등학교 운동장,서울특별시,강동구,서울특별시 강동구 상암로 271(명일동),127.1532,37.5471,실내대피소,5550.0,지진실내구호소
1480,명원초등학교 운동장,서울특별시,강동구,서울특별시 강동구 명일동 39-0,127.1503,37.5508,실내대피소,6580.0,지진실내구호소
1481,명일여자고등학교 운동장,서울특별시,강동구,서울특별시 강동구 명일로 350(명일동),127.1502,37.5495,실내대피소,5221.0,지진실내구호소
1482,두레근린공원,서울특별시,강동구,서울특별시 강동구 고덕동 497-0,127.1522,37.5579,실내대피소,13549.0,지진실내구호소
1483,동명근린공원 축구장,서울특별시,강동구,서울특별시 강동구 고덕동 229-0,127.1649,37.5617,실내대피소,5000.0,지진실내구호소
1484,고덕중학교 운동장,서울특별시,강동구,서울특별시 강동구 동남로82길 94(고덕동),127.1613,37.5598,실내대피소,4000.0,지진실내구호소
1485,고덕초등학교 운동장,서울특별시,강동구,서울특별시 강동구 아리수로82길 42(고덕동),127.1665,37.5606,실내대피소,2500.0,지진실내구호소
1486,광문고등학교 운동장,서울특별시,강동구,서울특별시 강동구 동남로 968(고덕동),127.1578,37.5599,실내대피소,3000.0,지진실내구호소
1487,명덕초등학교 운동장,서울특별시,강동구,서울특별시 강동구 양재대로156길 11(고덕동),127.1454,37.5569,실내대피소,3460.0,지진실내구호소
1488,묘곡초등학교 운동장,서울특별시,강동구,서울특별시 강동구 동남로79길 46(고덕동),127.1533,37.5581,실내대피소,15334.0,지진실내구호소
1489,배재고등학교 운동장,서울특별시,강동구,서울특별시 강동구 고덕동 313-0,127.1519,37.5554,실내대피소,15000.0,지진실내구호소
1490,서울컨벤션고등학교 운동장,서울특별시,강동구,서울특별시 강동구 동남로 964(고덕동),127.1576,37.5593,실내대피소,300.0,지진실내구호소
1491,명일공원(상일동산),서울특별시,강동구,서울특별시 강동구 상일동 184-0,127.1655,37.549,실내대피소,215706.0,지진실내구호소
1492,강동아트센터(잔디광장),서울특별시,강동구,서울특별시 강동구 동남로 870(상일동),127.1574,37.5513,실내대피소,2300.0,지진실내구호소
1493,강동고등학교 운동장,서울특별시,강동구,서울특별시 강동구 구천면로 572(상일동),127.161,37.5502,실내대피소,4560.0,지진실내구호소
1494,강명초등학교 운동장,서울특별시,강동구,서울특별시 강동구 상일로 74-1 (상일동),127.1734,37.5542,실내대피소,2747.0,지진실내구호소
1495,상일여자고등학교 운동장,서울특별시,강동구,서울특별시 강동구 상일동 189-0,127.1701,37.549,실내대피소,5400.0,지진실내구호소
1496,상일초등학교 운동장,서울특별시,강동구,서울특별시 강동구 천호대로 1477(상일동),127.1723,37.5469,실내대피소,2180.0,지진실내구호소
1497,한영고등학교 운동장,서울특별시,강동구,서울특별시 강동구 동남로 832(상일동),127.1573,37.5488,실내대피소,5380.0,지진실내구호소
1498,길동초등학교 운동장,서울특별시,강동구,서울특별시 강동구 양재대로116길 69(길동),127.1446,37.5381,실내대피소,4120.0,지진실내구호소
1499,신명중학교 운동장,서울특별시,강동구,서울특별시 강동구 명일로24길 33(길동),127.1494,37.5421,실내대피소,2904.0,지진실내구호소
1500,신명초등학교 운동장,서울특별시,강동구,서울특별시 강동구 명일로24길 33(길동),127.1493,37.5411,실내대피소,3075.0,지진실내구호소
1501,천동초등학교 운동장,서울특별시,강동구,서울특별시 강동구 성안로 200(길동),127.1375,37.5405,실내대피소,1567.0,지진실내구호소
1502,일자산 그린웨이캠핑장,서울특별시,강동구,서울특별시 강동구 천호대로206길 87(둔촌동),127.1546,37.5362,실내대피소,13000.0,지진실내구호소
1503,일자산공원 중앙광장,서울특별시,강동구,서울특별시 강동구 동남로 660(둔촌동),127.1508,37.5323,실내대피소,4628.0,지진실내구호소
1504,서울항공비즈니스고등학교 운동장,서울특별시,강서구,서울특별시 강서구 방화대로34길 13(마곡동),126.8174,37.5697,실내대피소,1960.0,지진실내구호소
1505,발산근린공원,서울특별시,강서구,서울특별시 강서구 마곡중앙로 11(내발산동),126.8254,37.5545,실내대피소,17826.0,지진실내구호소
1506,발음어린이공원,서울특별시,강서구,서울특별시 강서구 강서로47길 61-21 (내발산동),126.8331,37.5522,실내대피소,914.0,지진실내구호소
1507,신광명공원,서울특별시,강서구,서울특별시 강서구 내발산동 761,126.8229,37.5473,실내대피소,8597.0,지진실내구호소
1508,가곡초등학교운동장,서울특별시,강서구,서울특별시 강서구 내발산동 153-7,126.8358,37.5553,실내대피소,1650.0,지진실내구호소
1509,내발산초등학교운동장,서울특별시,강서구,서울특별시 강서구 내발산동 707,126.8378,37.5512,실내대피소,2256.0,지진실내구호소
1510,덕원중학교 운동장,서울특별시,강서구,서울특별시 강서구 강서로45길 91-44 (내발산동),126.8289,37.5499,실내대피소,1485.0,지진실내구호소
1511,명덕여자고등학교 운동장,서울특별시,강서구,서울특별시 강서구 강서로47길 34-10 (내발산동),126.8343,37.5545,실내대피소,6399.0,지진실내구호소
1512,발산초등학교운동장,서울특별시,강서구,서울특별시 강서구 내발산동 408,126.831,37.5496,실내대피소,9714.0,지진실내구호소
1513,수명중학교 운동장,서울특별시,강서구,서울특별시 강서구 수명로2길 16(내발산동),126.8238,37.5491,실내대피소,1255.0,지진실내구호소
1514,화곡보건경영고등학교 운동장,서울특별시,강서구,서울특별시 강서구 강서로45길 70(내발산동),126.8329,37.5486,실내대피소,3027.0,지진실내구호소
1515,다솔어린이공원,서울특별시,강서구,서울특별시 강서구 공항동 1361,126.8183,37.5546,실내대피소,1000.0,지진실내구호소
1516,장미공원,서울특별시,강서구,서울특별시 강서구 방화대로7다길 35-18 (공항동),126.8138,37.5566,실내대피소,500.0,지진실내구호소
1517,활주로상상어린이공원,서울특별시,강서구,서울특별시 강서구 공항동 1341,126.8159,37.5544,실내대피소,500.0,지진실내구호소
1518,공항중학교 운동장,서울특별시,강서구,서울특별시 강서구 방화대로 241(공항동),126.815,37.5624,실내대피소,3294.0,지진실내구호소
1519,송정중학교 운동장,서울특별시,강서구,서울특별시 강서구 공항동 768-1,126.8155,37.5537,실내대피소,4400.0,지진실내구호소
1520,송정초등학교 운동장,서울특별시,강서구,서울특별시 강서구 공항대로3길 18(공항동),126.8108,37.562,실내대피소,8300.0,지진실내구호소
1521,도레미공원,서울특별시,강서구,서울특별시 강서구 방화동 184-66,126.8192,37.5716,실내대피소,6002.0,지진실내구호소
1522,마곡나루근린공원,서울특별시,강서구,서울특별시 강서구 방화동 211-8,126.8219,37.5664,실내대피소,11447.0,지진실내구호소
1523,민들레공원,서울특별시,강서구,서울특별시 강서구 방화동 648-13,126.8067,37.5672,실내대피소,564.0,지진실내구호소
1524,방화근린공원,서울특별시,강서구,서울특별시 강서구 금낭화로 176(방화동),126.8141,37.5814,실내대피소,45735.0,지진실내구호소
1525,새싹어린이공원,서울특별시,강서구,서울특별시 강서구 방화동 583,126.8093,37.5697,실내대피소,3582.0,지진실내구호소
1526,쌈지어린이공원,서울특별시,강서구,서울특별시 강서구 방화동 266-24,126.815,37.5712,실내대피소,2875.0,지진실내구호소
1527,강서공업고등학교 운동장,서울특별시,강서구,서울특별시 강서구 방화대로47길 9(방화동),126.8156,37.5754,실내대피소,1748.0,지진실내구호소
1528,방원중학교운동장,서울특별시,강서구,서울특별시 강서구 방화동 808,126.8088,37.5757,실내대피소,4889.0,지진실내구호소
1529,방화중학교 운동장,서울특별시,강서구,서울특별시 강서구 개화동로27길 9(방화동),126.8067,37.5647,실내대피소,3030.0,지진실내구호소
1530,삼정중학교운동장,서울특별시,강서구,서울특별시 강서구 방화동 856,126.8107,37.5812,실내대피소,6230.0,지진실내구호소
1531,삼정초등학교운동장,서울특별시,강서구,서울특별시 강서구 방화동 798,126.8102,37.5799,실내대피소,5660.0,지진실내구호소
1532,서울방화초등학교 운동장,서울특별시,강서구,서울특별시 강서구 양천로6길 92(방화동),126.8068,37.5684,실내대피소,2145.0,지진실내구호소
1533,서울정곡초등학교 운동장,서울특별시,강서구,서울특별시 강서구 방화대로50길 22(방화동),126.8189,37.5764,실내대피소,1912.0,지진실내구호소
1534,송화초등학교 운동장,서울특별시,강서구,서울특별시 강서구 방화대로34길 2(마곡동),126.8174,37.568,실내대피소,5518.0,지진실내구호소
1535,치현초등학교운동장,서울특별시,강서구,서울특별시 강서구 방화동 833,126.8145,37.5756,실내대피소,4886.0,지진실내구호소
1536,한서고등학교 운동장,서울특별시,강서구,서울특별시 강서구 양천로11길 47(방화동),126.8084,37.5744,실내대피소,2551.0,지진실내구호소
1537,내촌어린이공원,서울특별시,강서구,서울특별시 강서구 개화동 551-26,126.8013,37.5775,실내대피소,1091.0,지진실내구호소
1538,신대부석공원,서울특별시,강서구,서울특별시 강서구 개화동 411,126.7988,37.5828,실내대피소,714.0,지진실내구호소
1539,신도림고등학교운동장,서울특별시,구로구,서울특별시 구로구 신도림동 270-2,126.8813,37.5137,실내대피소,2115.0,지진실내구호소
1540,신도림중학교운동장,서울특별시,구로구,서울특별시 구로구 경인로63길 74(신도림동),126.8852,37.5102,실내대피소,4476.0,지진실내구호소
1541,신도림초등학교운동장,서울특별시,구로구,서울특별시 구로구 신도림로19길 44(신도림동),126.8824,37.5122,실내대피소,2116.0,지진실내구호소
1542,신미림초등학교운동장,서울특별시,구로구,서울특별시 구로구 신도림로 18(신도림동),126.8795,37.5064,실내대피소,2104.0,지진실내구호소
1543,구로근린공원,서울특별시,구로구,서울특별시 구로구 구로동 102-0,126.8896,37.4967,실내대피소,1853.0,지진실내구호소
1544,삼각(어린이)공원,서울특별시,구로구,서울특별시 구로구 구로동 47,126.892,37.5014,실내대피소,1205.0,지진실내구호소
1545,화원어린이공원,서울특별시,구로구,서울특별시 구로구 구로동 478-1,126.8802,37.4977,실내대피소,3759.0,지진실내구호소
1546,구로구시설관리공단,서울특별시,구로구,서울특별시 구로구 구로동로26길 54(구로동),126.8869,37.4897,실내대피소,1574.0,지진실내구호소
1547,구로고등학교운동장,서울특별시,구로구,서울특별시 구로구 구로동 105-1,126.89,37.4983,실내대피소,4854.0,지진실내구호소
1548,구로남초등학교운동장,서울특별시,구로구,서울특별시 구로구 구로동 253-0,126.8909,37.4846,실내대피소,3934.0,지진실내구호소
1549,구로중학교운동장,서울특별시,구로구,서울특별시 구로구 구로동 90,126.8907,37.4943,실내대피소,5715.0,지진실내구호소
1550,구로초등학교운동장,서울특별시,구로구,서울특별시 구로구 구로동 443,126.886,37.4968,실내대피소,3657.0,지진실내구호소
1551,구일고등학교운동장,서울특별시,구로구,서울특별시 구로구 구일로 90-51 (구로동),126.874,37.4938,실내대피소,4618.0,지진실내구호소
