shelter_id,region_code,shelter_name,sido,sigungu,address,lon,lat,shelter_type,area
185,1165000000,서울지방조달청 테니스장,서울특별시,서초구,서울특별시 서초구 반포대로 217(반포동),127.002453,37.499301,옥외대피소,1184.0
186,1162000000,사우촌어린이공원,서울특별시,관악구,서울특별시 관악구 신림동 1555-1,126.934174,37.467563,옥외대피소,339.0
187,1162000000,태양어린이공원,서울특별시,관악구,서울특별시 관악구 신림동 1542-1,126.936486,37.468497,옥외대피소,345.0
188,1162000000,무궁화어린이공원,서울특별시,관악구,서울특별시 관악구 신림동 645-1,126.923566,37.469681,옥외대피소,660.0
189,1165000000,누에소공원,서울특별시,서초구,서울특별시 서초구 잠원동 160-3,127.008449,37.50923,옥외대피소,1720.0
190,1171000000,가락초등학교,서울특별시,송파구,서울특별시 송파구 송파대로37길 45(가락동),127.107791,37.499908,옥외대피소,2303.0
191,1162000000,신라어린이공원,서울특별시,관악구,서울특별시 관악구 신림동 744-1,126.912582,37.473606,옥외대피소,514.0
192,1162000000,한라어린이공원,서울특별시,관악구,서울특별시 관악구 신림동 750-39,126.914744,37.475677,옥외대피소,479.0
193,1129000000,아름어린이공원,서울특별시,성북구,서울특별시 성북구 길음동 1287-3,127.015968,37.607553,옥외대피소,3735.0
194,1165000000,잠원흥동소공원,서울특별시,서초구,서울특별시 서초구 잠원동 162-1,127.000426,37.507746,옥외대피소,2000.0
195,1165000000,새싹어린이공원,서울특별시,서초구,서울특별시 서초구 서초동 1686-10,127.018272,37.497541,옥외대피소,840.0
196,1114000000,훈련원공원,서울특별시,중구,서울특별시 중구 을지로 227(을지로5가),127.003892,37.56737,옥외대피소,13685.0
197,1111000000,국립 서울농학교 운동장,서울특별시,종로구,서울특별시 종로구 필운대로 103(신교동),126.968651,37.584888,옥외대피소,500.0
198,1162000000,은천어린이공원,서울특별시,관악구,서울특별시 관악구 봉천동 635-309,126.94302,37.488301,옥외대피소,443.0
199,1165000000,효령어린이공원,서울특별시,서초구,서울특별시 서초구 방배동 906-14,126.997549,37.483163,옥외대피소,1432.0
200,1165000000,우면수변공원,서울특별시,서초구,서울특별시 서초구 우면동 749,127.013599,37.45584,옥외대피소,21609.0
201,1162000000,봉천어린이공원,서울특별시,관악구,서울특별시 관악구 봉천동 1707-2,126.964469,37.469262,옥외대피소,651.0
202,1162000000,대협어린이공원,서울특별시,관악구,서울특별시 관악구 신림동 746-32,126.913376,37.474833,옥외대피소,391.0
203,1162000000,장미어린이공원,서울특별시,관악구,서울특별시 관악구 봉천동 148-103,126.962395,37.479126,옥외대피소,423.0
204,1135000000,청암중고등학교,서울특별시,노원구,서울특별시 노원구 중계로 244(중계동),127.073654,37.651345,옥외대피소,1280.0
205,1174000000,고덕중학교 운동장,서울특별시,강동구,서울특별시 강동구 동남로82길 94(고덕동),127.161314,37.560198,옥외대피소,4000.0
206,1129000000,장위3동 마을공원,서울특별시,성북구,서울특별시 성북구 돌곶이로32길 39-8 (장위동),127.053366,37.617002,옥외대피소,5331.0
207,1129000000,간대어린이공원,서울특별시,성북구,서울특별시 성북구 장월로33길 5-10 (장위동),127.050662,37.618209,옥외대피소,6192.1
208,1135000000,불암초등학교,서울특별시,노원구,서울특별시 노원구 중계로 178(중계동),127.0804,37.651,옥외대피소,11351.0
209,1135000000,영신여자고등학교,서울특별시,노원구,서울특별시 노원구 중계로16나길 13(중계동),127.0829,37.6522,옥외대피소,14886.0
210,1165000000,파리15구공원,서울특별시,서초구,서울특별시 서초구 반포동 68-2,126.999165,37.499517,옥외대피소,708.0
211,1162000000,으뜸어린이공원,서울특별시,관악구,서울특별시 관악구 봉천동 1731,126.94104,37.478485,옥외대피소,3232.0
212,1130500000,번남어린이공원,서울특별시,강북구,서울특별시 강북구 오패산로77길 41(번동),127.02493,37.635793,옥외대피소,1003.0
213,1130500000,강북중학교운동장,서울특별시,강북구,서울특별시 강북구 한천로150길 67(수유동),127.025972,37.644769,옥외대피소,3312.0
214,1130500000,솔밭(근린)공원,서울특별시,강북구,서울특별시 강북구 삼양로 561(우이동),127.012177,37.652119,옥외대피소,37911.0
215,1130500000,번동중학교운동장,서울특별시,강북구,서울특별시 강북구 오현로35길 87(번동),127.036848,37.632117,옥외대피소,4356.0
216,1126000000,중화고등학교운동장,서울특별시,중랑구,서울특별시 중랑구 봉화산로27길 62(중화동),127.082774,37.604472,옥외대피소,502.0
217,1130500000,화계초등학교운동장,서울특별시,강북구,서울특별시 강북구 솔매로50가길 25(미아동),127.029156,37.623864,옥외대피소,2135.0
218,1130500000,강북구견인차량보관소(우이동 교통광장),서울특별시,강북구,서울특별시 강북구 우이동 산 99-2,127.012734,37.663538,옥외대피소,2395.0
219,1129000000,서울대학교 사범대학 부설 중학교 운동장,서울특별시,성북구,서울특별시 성북구 월곡로 36(종암동),127.038968,37.595804,옥외대피소,18452.0
220,1129000000,서울대학교 사범대학 부설 고등학교 운동장,서울특별시,성북구,서울특별시 성북구 월곡로 6(종암동),127.037811,37.592727,옥외대피소,12736.0
221,1171000000,올림픽공원,서울특별시,송파구,서울특별시 송파구 올림픽로 424(방이동),127.116061,37.521353,옥외대피소,37270.0
222,1171000000,오금공원,서울특별시,송파구,서울특별시 송파구 오금로 363(오금동),127.131637,37.500811,옥외대피소,219167.0
223,1126000000,중곡초등학교운동장,서울특별시,중랑구,서울특별시 중랑구 면목로23길 20(면목동),127.083592,37.574329,옥외대피소,4900.0
224,1126000000,면남초등학교운동장,서울특별시,중랑구,서울특별시 중랑구 면목로30나길 38(면목동),127.087957,37.577507,옥외대피소,3515.0
225,1126000000,상봉중학교운동장,서울특별시,중랑구,서울특별시 중랑구 상봉중앙로8나길 28(상봉동),127.0905,37.601147,옥외대피소,4404.0
226,1126000000,신묵초등학교운동장,서울특별시,중랑구,서울특별시 중랑구 묵동 246-12,127.07548,37.607418,옥외대피소,6481.0
227,1129000000,개운산 공원,서울특별시,성북구,서울특별시 성북구 돈암동 산 6-23,127.025277,37.596533,옥외대피소,6999.0
228,1129000000,월곡인조잔디구장,서울특별시,성북구,서울특별시 성북구 화랑로13길 144(하월곡동),127.042328,37.608664,옥외대피소,17309.0
229,1129000000,서경대학교 운동장,서울특별시,성북구,서울특별시 성북구 서경로 124(정릉동),127.012085,37.615409,옥외대피소,8650.0
230,1126000000,중화초등학교운동장,서울특별시,중랑구,서울특별시 중랑구 신내로7가길 22(신내동),127.094908,37.602932,옥외대피소,4170.0
231,1126000000,용마중학교운동장,서울특별시,중랑구,서울특별시 중랑구 면목로28길 18(면목동),127.085984,37.574051,옥외대피소,2702.0
1,1123000000,배봉초등학교 운동장,서울특별시,동대문구,서울특별시 동대문구 사가정로 193(전농동),127.066661,37.579628,옥외대피소,3265.0
2,1123000000,은석초등학교 운동장,서울특별시,동대문구,서울특별시 동대문구 장안벚꽃로 201(장안동),127.075227,37.578352,옥외대피소,2732.0
3,1123000000,청량고등학교 운동장,서울특별시,동대문구,서울특별시 동대문구 왕산로 303(청량리동),127.050506,37.588642,옥외대피소,3772.0
4,1114000000,덕수중학교 운동장,서울특별시,중구,서울특별시 중구 마른내로9길 10(인현동2가),126.997199,37.565066,옥외대피소,5685.0
5,1135000000,신계초등학교 운동장,서울특별시,노원구,서울특별시 노원구 초안산로 29(월계동),127.053159,37.630028,옥외대피소,3470.0
6,1123000000,해성여자고등학교 운동장,서울특별시,동대문구,서울특별시 동대문구 전농로20길 31(전농동),127.057273,37.581211,옥외대피소,5900.0
7,1123000000,군자초등학교 운동장,서울특별시,동대문구,서울특별시 동대문구 한천로6길 21(장안동),127.061139,37.564099,옥외대피소,4390.0
8,1123000000,이문초등학교 운동장,서울특별시,동대문구,서울특별시 동대문구 신이문로 16(이문동),127.064482,37.60219,옥외대피소,2850.0
9,1123000000,홍파초등학교 운동장,서울특별시,동대문구,서울특별시 동대문구 고산자로 518(제기동),127.039149,37.586244,옥외대피소,441.0
10,1123000000,청량중학교 운동장,서울특별시,동대문구,서울특별시 동대문구 왕산로 301(청량리동),127.051484,37.587621,옥외대피소,5578.0
11,1123000000,삼육초등학교 운동장,서울특별시,동대문구,서울특별시 동대문구 회기로10길 63(회기동),127.047806,37.589139,옥외대피소,2080.0
12,1123000000,휘경초등학교 운동장,서울특별시,동대문구,서울특별시 동대문구 망우로6길 48(휘경동),127.05887,37.5855,옥외대피소,3415.0
13,1123000000,전동중학교 운동장,서울특별시,동대문구,서울특별시 동대문구 장안벚꽃로 291(휘경동),127.071181,37.585156,옥외대피소,4197.0
14,1123000000,휘봉고등학교 운동장,서울특별시,동대문구,서울특별시 동대문구 한천로 290(휘경동),127.067989,37.586529,옥외대피소,4048.0
15,1135000000,중평중학교 운동장,서울특별시,노원구,서울특별시 노원구 동일로203길 87(하계동),127.062424,37.636845,옥외대피소,2870.0
16,1135000000,청계초등학교 운동장,서울특별시,노원구,서울특별시 노원구 공릉로 431(중계동),127.066435,37.644424,옥외대피소,4200.0
17,1135000000,재현고등학교 운동장,서울특별시,노원구,서울특별시 노원구 덕릉로82길 64(중계동),127.07975,37.659542,옥외대피소,4340.0
18,1135000000,원광초등학교 운동장,서울특별시,노원구,서울특별시 노원구 덕릉로76길 18(중계동),127.074867,37.653761,옥외대피소,2280.0
19,1135000000,신창중학교 운동장,서울특별시,노원구,서울특별시 노원구 월계로45길 92(월계동),127.047956,37.628227,옥외대피소,2540.0
20,1135000000,갈울근린공원,서울특별시,노원구,서울특별시 노원구 상계동 644,127.061018,37.666828,옥외대피소,3200.0
21,1135000000,온수근린공원,서울특별시,노원구,서울특별시 노원구 노원로34길 43(상계동),127.063727,37.660915,옥외대피소,550.0
22,1135000000,상경초등학교 운동장,서울특별시,노원구,서울특별시 노원구 수락산로 237(상계동),127.051701,37.670123,옥외대피소,2660.0
23,1135000000,하계어린이공원,서울특별시,노원구,서울특별시 노원구 하계동 273-3,127.068952,37.632236,옥외대피소,1150.0
24,1135000000,상계근린공원,서울특별시,노원구,서울특별시 노원구 상계동 620,127.050808,37.669797,옥외대피소,4860.0
25,1123000000,동국대학교사범대학부속고등학교 운동장,서울특별시,동대문구,서울특별시 동대문구 장안벚꽃로 201(장안동),127.075108,37.577569,옥외대피소,7283.0
26,1114000000,창덕여자중학교 운동장,서울특별시,중구,서울특별시 중구 정동길 22(정동),126.969599,37.566564,옥외대피소,5969.0
27,1114000000,장충초등학교 운동장,서울특별시,중구,서울특별시 중구 청구로17길 40(신당동),127.011148,37.559574,옥외대피소,3123.0
28,1135000000,태랑중학교 운동장,서울특별시,노원구,서울특별시 노원구 화랑로51나길 51(공릉동),127.09172,37.626535,옥외대피소,4870.0
29,1135000000,노일중학교 운동장,서울특별시,노원구,서울특별시 노원구 동일로231길 24(상계동),127.053902,37.672866,옥외대피소,4580.0
30,1114000000,광희초등학교 운동장,서울특별시,중구,서울특별시 중구 다산로 269(신당동),127.015146,37.56719,옥외대피소,4499.0
31,1114000000,서울의료보건고등학교(경기여자상업고등학교) 운동장,서울특별시,중구,서울특별시 중구 만리재로37길 30(만리동1가),126.966743,37.556975,옥외대피소,788.0
32,1135000000,한천초등학교 운동장,서울특별시,노원구,서울특별시 노원구 마들로 45(월계동),127.069053,37.620108,옥외대피소,4430.0
33,1135000000,월계초등학교 운동장,서울특별시,노원구,서울특별시 노원구 월계로45가길 10(월계동),127.050879,37.62752,옥외대피소,3950.0
34,1135000000,선곡초등학교,서울특별시,노원구,서울특별시 노원구 광운로2길 1(월계동),127.058145,37.618459,옥외대피소,3400.0
35,1135000000,중계초등학교 운동장,서울특별시,노원구,서울특별시 노원구 한글비석로19길 39(중계동),127.073235,37.657419,옥외대피소,4030.0
36,1135000000,노원초등학교 운동장,서울특별시,노원구,서울특별시 노원구 동일로230나길 32(상계동),127.058291,37.672832,옥외대피소,4010.0
37,1135000000,을지초등학교 운동장,서울특별시,노원구,서울특별시 노원구 중계로 239(중계동),127.072571,37.650605,옥외대피소,2910.0
38,1135000000,중현초등학교 운동장,서울특별시,노원구,서울특별시 노원구 섬밭로 181(하계동),127.066551,37.632111,옥외대피소,3220.0
39,1135000000,연지초등학교 운동장,서울특별시,노원구,서울특별시 노원구 월계로55길 48(월계동),127.05979,37.633293,옥외대피소,2020.0
40,1135000000,노원중학교 운동장,서울특별시,노원구,서울특별시 노원구 동일로213길 26(상계동),127.0598,37.649013,옥외대피소,2540.0
41,1135000000,녹천초등학교 운동장,서울특별시,노원구,서울특별시 노원구 마들로3길 34(월계동),127.063509,37.628401,옥외대피소,2740.0
42,1135000000,중원초등학교 운동장,서울특별시,노원구,서울특별시 노원구 섬밭로 316(중계동),127.062812,37.643473,옥외대피소,4020.0
43,1135000000,상수초등학교 운동장,서울특별시,노원구,서울특별시 노원구 동일로216길 66(상계동),127.064823,37.651447,옥외대피소,2230.0
44,1135000000,중원중학교 운동장,서울특별시,노원구,서울특별시 노원구 공릉로 420(중계동),127.068118,37.643867,옥외대피소,3120.0
45,1135000000,청원초등학교 운동장,서울특별시,노원구,서울특별시 노원구 한글비석로 506(상계동),127.061338,37.665748,옥외대피소,3140.0
46,1135000000,경기기계공업고등학교 운동장,서울특별시,노원구,서울특별시 노원구 공릉로 264(하계동),127.074115,37.633232,옥외대피소,12900.0
47,1135000000,혜성여자고등학교 운동장,서울특별시,노원구,서울특별시 노원구 하계동 산 16-38,127.073858,37.641184,옥외대피소,8880.0
48,1135000000,불암중학교 운동장,서울특별시,노원구,서울특별시 노원구 한글비석로5길 45(하계동),127.073823,37.645554,옥외대피소,3680.0
49,1135000000,신상계초등학교 운동장,서울특별시,노원구,서울특별시 노원구 상계로 267(상계동),127.076151,37.66778,옥외대피소,2560.0
50,1135000000,월계중학교 운동장,서울특별시,노원구,서울특별시 노원구 월계로45가길 54(월계동),127.051731,37.630254,옥외대피소,4360.0
51,1135000000,상천초등학교 운동장,서울특별시,노원구,서울특별시 노원구 덕릉로 443(상계동),127.057883,37.645922,옥외대피소,3500.0
52,1135000000,상원중학교 운동장,서울특별시,노원구,서울특별시 노원구 수락산로 182(상계동),127.059496,37.67129,옥외대피소,2180.0
53,1135000000,동일초등학교 운동장,서울특별시,노원구,서울특별시 노원구 한글비석로 566(상계동),127.054657,37.664834,옥외대피소,2380.0
54,1135000000,상월초등학교 운동장,서울특별시,노원구,서울특별시 노원구 동일로221길 27(상계동),127.057241,37.658271,옥외대피소,4330.0
55,1135000000,한내근린공원,서울특별시,노원구,서울특별시 노원구 마들로 86(월계동),127.06942,37.622104,옥외대피소,1740.0
56,1135000000,녹천중학교 운동장,서울특별시,노원구,서울특별시 노원구 월계로 376(월계동),127.062383,37.631016,옥외대피소,4670.0
57,1135000000,수락초등학교 운동장,서울특별시,노원구,서울특별시 노원구 동일로 1745(상계동),127.054544,37.683796,옥외대피소,4930.0
58,1135000000,중현어린이공원,서울특별시,노원구,서울특별시 노원구 하계동 272-1,127.065645,37.631881,옥외대피소,3780.0
59,1114000000,흥인초등학교 운동장,서울특별시,중구,서울특별시 중구 청구로6길 11(신당동),127.014267,37.560395,옥외대피소,1339.0
60,1135000000,상계초등학교 운동장,서울특별시,노원구,서울특별시 노원구 상계로9길 39(상계동),127.065671,37.659118,옥외대피소,1830.0
61,1135000000,상명초등학교 운동장,서울특별시,노원구,서울특별시 노원구 덕릉로 541(중계동),127.06758,37.648215,옥외대피소,1700.0
62,1135000000,용화여자고등학교 운동장,서울특별시,노원구,서울특별시 노원구 동일로 1461(상계동),127.058526,37.658752,옥외대피소,3370.0
63,1114000000,청구초등학교 운동장,서울특별시,중구,서울특별시 중구 다산로 170(신당동),127.013863,37.558392,옥외대피소,5835.0
64,1114000000,봉래초등학교 운동장,서울특별시,중구,서울특별시 중구 손기정로 73(만리동2가),126.964083,37.55629,옥외대피소,2436.0
65,1135000000,노일초등학교 운동장,서울특별시,노원구,서울특별시 노원구 동일로 1625(상계동),127.054761,37.67309,옥외대피소,2360.0
66,1135000000,온곡초등학교 운동장,서울특별시,노원구,서울특별시 노원구 한글비석로52길 59(상계동),127.066109,37.667302,옥외대피소,1580.0
67,1135000000,온곡중학교운동장,서울특별시,노원구,서울특별시 노원구 노원로 492(상계동),127.064687,37.660066,옥외대피소,264.0
68,1135000000,수락중학교 운동장,서울특별시,노원구,서울특별시 노원구 동일로 1729(상계동),127.054568,37.68264,옥외대피소,4030.0
69,1114000000,장충단공원,서울특별시,중구,서울특별시 중구 장충동2가 197-1,127.005037,37.558556,옥외대피소,32651.0
70,1114000000,성동글로벌경영고등학교 운동장,서울특별시,중구,서울특별시 중구 퇴계로 375(신당동),127.013105,37.565554,옥외대피소,3002.0
71,1114000000,성동공업고등학교 운동장,서울특별시,중구,서울특별시 중구 다산로 290(흥인동),127.01649,37.568781,옥외대피소,3670.0
72,1114000000,손기정체육공원 ,서울특별시,중구,서울특별시 중구 손기정로 101(만리동2가),126.964965,37.555396,옥외대피소,4244.0
73,1114000000,한양공업고등학교 운동장,서울특별시,중구,서울특별시 중구 을지로 299(신당동),127.011767,37.565612,옥외대피소,2601.0
74,1114000000,충무초등학교 운동장,서울특별시,중구,서울특별시 중구 퇴계로50길 13(장충동2가),127.001883,37.562261,옥외대피소,3863.0
75,1135000000,공연초등학교 운동장,서울특별시,노원구,서울특별시 노원구 동일로192가길 16(공릉동),127.074461,37.62695,옥외대피소,3800.0
76,1135000000,연촌초등학교 운동장,서울특별시,노원구,서울특별시 노원구 공릉로58길 36(하계동),127.072801,37.634747,옥외대피소,3680.0
77,1135000000,월계고등학교 운동장,서울특별시,노원구,서울특별시 노원구 초안산로5길 66(월계동),127.048725,37.631805,옥외대피소,1760.0
78,1114000000,덕수초등학교 운동장,서울특별시,중구,서울특별시 중구 덕수궁길 140(정동),126.974526,37.568468,옥외대피소,2536.0
79,1123000000,용두초등학교 운동장,서울특별시,동대문구,서울특별시 동대문구 천호대로13길 43(용두동),127.028934,37.575628,옥외대피소,529.0
80,1123000000,전농초등학교 운동장,서울특별시,동대문구,서울특별시 동대문구 사가정로 66(전농동),127.054528,37.574218,옥외대피소,2066.0
81,1123000000,간데메공원,서울특별시,동대문구,서울특별시 동대문구 서울시립대로2길 59(답십리동),127.048752,37.573324,옥외대피소,15179.0
82,1123000000,안골어린이공원,서울특별시,동대문구,서울특별시 동대문구 천호대로77다길 20(장안동),127.064349,37.56532,옥외대피소,1652.0
83,1123000000,신답초등학교 운동장,서울특별시,동대문구,서울특별시 동대문구 천호대로 177(답십리동),127.043338,37.572881,옥외대피소,1942.0
84,1123000000,성일중학교 운동장,서울특별시,동대문구,서울특별시 동대문구 왕산로23길 55(제기동),127.033915,37.581178,옥외대피소,441.0
85,1123000000,동대문중학교 운동장,서울특별시,동대문구,서울특별시 동대문구 사가정로 59(전농동),127.052434,37.574246,옥외대피소,2031.0
86,1123000000,장일어린이공원,서울특별시,동대문구,서울특별시 동대문구 장안동 164-1,127.065186,37.569913,옥외대피소,992.0
87,1123000000,답십리초등학교 운동장,서울특별시,동대문구,서울특별시 동대문구 전농로3길 23(답십리동),127.055412,37.568669,옥외대피소,2550.0
88,1123000000,장평근린공원,서울특별시,동대문구,서울특별시 동대문구 장안벚꽃로 67(장안동),127.074007,37.567317,옥외대피소,15698.0
89,1123000000,경희초등학교 운동장,서울특별시,동대문구,서울특별시 동대문구 경희대로 23(회기동),127.049525,37.59485,옥외대피소,4500.0
90,1123000000,늘봄어린이공원,서울특별시,동대문구,서울특별시 동대문구 장한로26나길 6(장안동),127.072386,37.571455,옥외대피소,1659.0
91,1123000000,서울반도체고등학교 운동장,서울특별시,동대문구,서울특별시 동대문구 겸재로 21(휘경동),127.069856,37.584888,옥외대피소,3456.0
92,1135000000,중계중학교 운동장,서울특별시,노원구,서울특별시 노원구 덕릉로76길 23(중계동),127.075253,37.655097,옥외대피소,4170.0
93,1135000000,태랑초등학교 운동장,서울특별시,노원구,서울특별시 노원구 화랑로51나길 31(공릉동),127.090928,37.625871,옥외대피소,2020.0
94,1135000000,한천중학교 운동장,서울특별시,노원구,서울특별시 노원구 공릉로 265(공릉동),127.07288,37.630909,옥외대피소,3580.0
95,1135000000,노원고등학교 운동장,서울특별시,노원구,서울특별시 노원구 노원로 586(상계동),127.053395,37.66222,옥외대피소,2930.0
96,1135000000,태릉초등학교 운동장,서울특별시,노원구,서울특별시 노원구 노원로1길 36(공릉동),127.084996,37.622405,옥외대피소,4630.0
97,1135000000,광운인공지능고등학교,서울특별시,노원구,서울특별시 노원구 광운로1길 24(월계동),127.056128,37.620231,옥외대피소,9540.0
98,1123000000,방아다리어린이공원,서울특별시,동대문구,서울특별시 동대문구 제기동 132-1,127.034882,37.585084,옥외대피소,441.0
99,1123000000,숭인중학교 운동장,서울특별시,동대문구,서울특별시 동대문구 천호대로47길 34(답십리동),127.044269,37.573484,옥외대피소,1577.0
100,1123000000,동산어린이공원,서울특별시,동대문구,서울특별시 동대문구 답십리동 998-1,127.057552,37.566974,옥외대피소,1231.0
101,1123000000,동답초등학교 운동장,서울특별시,동대문구,서울특별시 동대문구 답십리로60길 12(답십리동),127.064793,37.572026,옥외대피소,2158.0
102,1123000000,안평초등학교 운동장,서울특별시,동대문구,서울특별시 동대문구 장한로14길 61(장안동),127.071871,37.565624,옥외대피소,3433.0
103,1123000000,대광고등학교,서울특별시,동대문구,서울특별시 동대문구 안암로 6(신설동),127.024577,37.577651,옥외대피소,4500.0
104,1123000000,홍릉초등학교 운동장,서울특별시,동대문구,서울특별시 동대문구 회기로 90(청량리동),127.047032,37.590747,옥외대피소,3968.0
105,1123000000,장평초등학교 운동장,서울특별시,동대문구,서울특별시 동대문구 답십리로69길 27(장안동),127.073278,37.573355,옥외대피소,4157.0
106,1123000000,경희여자고등학교 운동장,서울특별시,동대문구,서울특별시 동대문구 경희대로 23(회기동),127.051023,37.594709,옥외대피소,3131.0
107,1135000000,을지중학교 운동장,서울특별시,노원구,서울특별시 노원구 덕릉로 580(중계동),127.072116,37.650118,옥외대피소,2950.0
108,1135000000,재현중학교 운동장,서울특별시,노원구,서울특별시 노원구 덕릉로82길 64(중계동),127.080614,37.660932,옥외대피소,2050.0
109,1135000000,서라벌고등학교 운동장,서울특별시,노원구,서울특별시 노원구 한글비석로5길 18(중계동),127.075267,37.645139,옥외대피소,295.0
110,1123000000,정화고등학교 운동장,서울특별시,동대문구,서울특별시 동대문구 제기동 299,127.040795,37.585645,옥외대피소,441.0
111,1123000000,장평중학교 운동장,서울특별시,동대문구,서울특별시 동대문구 답십리로72길 158(장안동),127.070505,37.566267,옥외대피소,8207.0
112,1123000000,청량초등학교 운동장,서울특별시,동대문구,서울특별시 동대문구 회기로25길 31(회기동),127.055063,37.59197,옥외대피소,2750.0
113,1123000000,휘봉초등학교 운동장,서울특별시,동대문구,서울특별시 동대문구 장안벚꽃로 309(휘경동),127.070296,37.585874,옥외대피소,2368.0
114,1123000000,아름드리어린이공원,서울특별시,동대문구,서울특별시 동대문구 전농동 688-7,127.059696,37.579083,옥외대피소,2626.0
115,1123000000,종암초등학교 운동장,서울특별시,동대문구,서울특별시 동대문구 무학로44길 25(제기동),127.031421,37.581787,옥외대피소,4412.0
116,1123000000,전곡초등학교 운동장,서울특별시,동대문구,서울특별시 동대문구 전농로 172(전농동),127.056883,37.580268,옥외대피소,2230.0
117,1123000000,전동초등학교 운동장,서울특별시,동대문구,서울특별시 동대문구 전농로16길 61(전농동),127.061512,37.578995,옥외대피소,1755.0
118,1123000000,배봉산근린공원 야외무대,서울특별시,동대문구,서울특별시 동대문구 사가정로 187(전농동),127.063048,37.578494,옥외대피소,1745.0
119,1114000000,남산초등학교 운동장,서울특별시,중구,서울특별시 중구 퇴계로22길 17(남산동2가),126.986276,37.560271,옥외대피소,1148.0
120,1154500000,꿈나무어린이공원,서울특별시,금천구,서울특별시 금천구 독산동 378-434,126.905017,37.463575,옥외대피소,567.0
121,1174000000,신암중학교 운동장,서울특별시,강동구,서울특별시 강동구 고덕로 65(암사동),127.133172,37.555461,옥외대피소,5898.0
122,1111000000,낙산(어린이)공원,서울특별시,종로구,서울특별시 종로구 창신동 611-48,127.010445,37.579568,옥외대피소,1641.0
123,1174000000,강명중학교운동장,서울특별시,강동구,서울특별시 강동구 상일로12길 56(상일동),127.175084,37.555333,옥외대피소,3213.0
124,1114000000,"이화여자외국어고등학교, 이화여자고등학교 운동장 및 노천극장",서울특별시,중구,서울특별시 중구 통일로4길 30(순화동),126.969749,37.564886,옥외대피소,9150.0
125,1121500000,어린이대공원,서울특별시,광진구,서울특별시 광진구 능동로 216(능동),127.081218,37.549086,옥외대피소,225000.0
126,1156000000,신길중학교 운동장,서울특별시,영등포구,서울특별시 영등포구 신길로28길 43(신길동),126.91608,37.501891,옥외대피소,1200.0
127,1154500000,옥계어린이공원,서울특별시,금천구,서울특별시 금천구 시흥대로86길 20(독산동),126.90046,37.460099,옥외대피소,1058.0
128,1154500000,중앙어린이공원,서울특별시,금천구,"서울특별시 금천구 시흥대로 165(시흥동, 남서울힐스테이트)",126.901399,37.447159,옥외대피소,1515.0
129,1153000000,항동중학교 운동장,서울특별시,구로구,서울특별시 구로구 항동 235-31,126.820486,37.482453,옥외대피소,4601.0
130,1123000000,전농중학교 운동장,서울특별시,동대문구,서울특별시 동대문구 사가정로13길 71(전농동),127.060173,37.580414,옥외대피소,6640.0
131,1132000000,서울문화고등학교 운동장,서울특별시,도봉구,서울특별시 도봉구 마들로 598(방학동),127.047159,37.663703,옥외대피소,5982.0
132,1154500000,풍림어린이공원,서울특별시,금천구,"서울특별시 금천구 시흥대로 165(시흥동, 남서울힐스테이트)",126.901437,37.448327,옥외대피소,2195.0
133,1135000000,계상초등학교 운동장,서울특별시,노원구,서울특별시 노원구 한글비석로41가길 24(상계동),127.067604,37.663057,옥외대피소,4270.0
134,1135000000,상원초등학교 운동장,서울특별시,노원구,서울특별시 노원구 한글비석로54길 119(상계동),127.060217,37.667606,옥외대피소,3970.0
135,1135000000,용동초등학교 운동장,서울특별시,노원구,서울특별시 노원구 한글비석로1길 81-11 (중계동),127.069485,37.641472,옥외대피소,3270.0
136,1135000000,하계중학교 운동장,서울특별시,노원구,서울특별시 노원구 노원로 261-8 (하계동),127.071503,37.640762,옥외대피소,4890.0
137,1135000000,덕암초등학교 운동장,서울특별시,노원구,서울특별시 노원구 덕릉로112길 68(상계동),127.080835,37.666351,옥외대피소,1790.0
138,1135000000,중평초등학교 운동장,서울특별시,노원구,서울특별시 노원구 섬밭로 241(하계동),127.064183,37.637306,옥외대피소,2660.0
139,1135000000,공릉초등학교 운동장,서울특별시,노원구,서울특별시 노원구 동일로173길 12(공릉동),127.074244,37.619067,옥외대피소,4540.0
140,1135000000,공릉중학교 운동장,서울특별시,노원구,서울특별시 노원구 노원로1길 42(공릉동),127.084164,37.62187,옥외대피소,4590.0
141,1135000000,용원초등학교 운동장,서울특별시,노원구,서울특별시 노원구 섬밭로 144(공릉동),127.069106,37.628949,옥외대피소,3490.0
142,1135000000,상계중학교 운동장,서울특별시,노원구,서울특별시 노원구 노원로 398(상계동),127.06896,37.652212,옥외대피소,7190.0
143,1135000000,신상중학교 운동장,서울특별시,노원구,서울특별시 노원구 동일로216길 42(상계동),127.063564,37.651115,옥외대피소,4220.0
144,1135000000,상경중학교 운동장,서울특별시,노원구,서울특별시 노원구 동일로227길 61(상계동),127.053599,37.666462,옥외대피소,3530.0
145,1135000000,당현초등학교 운동장,서울특별시,노원구,서울특별시 노원구 동일로213길 52(상계동),127.05832,37.64857,옥외대피소,3580.0
146,1135000000,상계제일중학교 운동장,서울특별시,노원구,서울특별시 노원구 덕릉로86길 29-15 (중계동),127.077744,37.66116,옥외대피소,3470.0
147,1135000000,상곡초등학교 운동장,서울특별시,노원구,서울특별시 노원구 노원로38길 34(상계동),127.062382,37.662338,옥외대피소,2640.0
148,1114000000,성동고등학교 운동장,서울특별시,중구,서울특별시 중구 퇴계로90길 17(신당동),127.022446,37.563782,옥외대피소,3670.0
149,1154500000,금나래중앙공원,서울특별시,금천구,서울특별시 금천구 벚꽃로 14(독산동),126.8948,37.4576,옥외대피소,16250.0
150,1154500000,까치공원,서울특별시,금천구,서울특별시 금천구 시흥동 959-2,126.905,37.4396,옥외대피소,230.0
151,1117000000,신계역사공원,서울특별시,용산구,서울특별시 용산구 청파로 139-25 (신계동),126.966283,37.535058,옥외대피소,15000.0
152,1174000000,선사고등학교 운동장,서울특별시,강동구,서울특별시 강동구 고덕로25길 17(암사동),127.135849,37.555946,옥외대피소,3571.0
153,1174000000,강일중학교 운동장,서울특별시,강동구,서울특별시 강동구 고덕로27길 12(암사동),127.138252,37.554972,옥외대피소,1102.0
154,1162000000,탑골어린이공원,서울특별시,관악구,서울특별시 관악구 봉천동 1510,126.961103,37.474456,옥외대피소,492.0
155,1162000000,남강어린이공원,서울특별시,관악구,서울특별시 관악구 신림동 1678-12,126.924641,37.473513,옥외대피소,774.0
156,1162000000,목화어린이공원,서울특별시,관악구,서울특별시 관악구 신림동 1716-1,126.942301,37.467912,옥외대피소,388.0
157,1162000000,약수어린이공원,서울특별시,관악구,서울특별시 관악구 신림동 1685,126.91247,37.473186,옥외대피소,533.0
158,1162000000,청룡어린이공원,서울특별시,관악구,서울특별시 관악구 봉천동 1557-34,126.94479,37.477672,옥외대피소,852.0
159,1171000000,해누리이음학교,서울특별시,송파구,서울특별시 송파구 송파대로37길 95(가락동),127.102147,37.498424,옥외대피소,2303.0
160,1165000000,미도어린이공원,서울특별시,서초구,서울특별시 서초구 반포동 53-1,127.010758,37.501711,옥외대피소,988.0
161,1162000000,국사봉어린이공원,서울특별시,관악구,서울특별시 관악구 봉천동 1511-5,126.934107,37.489989,옥외대피소,412.0
162,1165000000,서울교육대학교 부설초등학교 운동장,서울특별시,서초구,서울특별시 서초구 서초중앙로 96(서초동),127.016948,37.490249,옥외대피소,2254.0
163,1174000000,강일초등학교운동장,서울특별시,강동구,서울특별시 강동구 아리수로98길 24(강일동),127.177318,37.564978,옥외대피소,4044.0
164,1162000000,용담어린이공원,서울특별시,관악구,서울특별시 관악구 봉천동 850-8,126.94358,37.475512,옥외대피소,646.0
165,1144000000,서강대학교 대운동장,서울특별시,마포구,서울특별시 마포구 고산16길 58(대흥동),126.942173,37.551081,옥외대피소,7618.5
166,1162000000,서광어린이공원,서울특별시,관악구,서울특별시 관악구 신림동 98-402,126.942666,37.475209,옥외대피소,459.0
167,1129000000,일신어린이공원,서울특별시,성북구,서울특별시 성북구 종암동 134-8,127.039576,37.600001,옥외대피소,942.0
168,1129000000,성북동길 공영주차,서울특별시,성북구,서울특별시 성북구 성북동 230-20,126.993732,37.594848,옥외대피소,1269.0
169,1129000000,성북동 우리마을 공동 제9호 주차장,서울특별시,성북구,서울특별시 성북구 성북동 348-19,126.98947,37.59536,옥외대피소,991.0
170,1130500000,북서울꿈의숲,서울특별시,강북구,서울특별시 강북구 월계로 173(번동),127.040899,37.621557,옥외대피소,684157.0
171,1165000000,누리숲어린이공원,서울특별시,서초구,서울특별시 서초구 서초동 1301-25,127.021195,37.502051,옥외대피소,2233.0
172,1165000000,서래상상어린이공원,서울특별시,서초구,서울특별시 서초구 반포동 71-6,127.000331,37.498289,옥외대피소,997.0
173,1165000000,햇님어린이공원,서울특별시,서초구,서울특별시 서초구 방배동 424-29,126.985131,37.482956,옥외대피소,2119.0
174,1165000000,이수중학교 운동장,서울특별시,서초구,서울특별시 서초구 방배중앙로3길 32(방배동),126.990389,37.480816,옥외대피소,4033.0
175,1165000000,서울특별시교육청 교육연수원,서울특별시,서초구,서울특별시 서초구 남부순환로 2248(방배동),126.997245,37.471664,옥외대피소,2500.0
176,1165000000,청계산수변공원,서울특별시,서초구,서울특별시 서초구 신원동 296,127.053319,37.451931,옥외대피소,58346.0
177,1126000000,면중초등학교운동장,서울특별시,중랑구,서울특별시 중랑구 용마산로70길 43(면목동),127.096946,37.582099,옥외대피소,1751.0
178,1162000000,e편한세상어린이공원,서울특별시,관악구,서울특별시 관악구 봉천동 1734,126.941147,37.47717,옥외대피소,3114.0
179,1162000000,인헌어린이공원,서울특별시,관악구,서울특별시 관악구 봉천동 196-240,126.962581,37.475399,옥외대피소,469.0
180,1162000000,색동어린이공원,서울특별시,관악구,서울특별시 관악구 신림로70길 74(신림동),126.932709,37.486454,옥외대피소,952.0
181,1162000000,난곡어린이공원,서울특별시,관악구,서울특별시 관악구 신림동 1563-56,126.915275,37.474117,옥외대피소,632.0
182,1162000000,난우어린이공원,서울특별시,관악구,서울특별시 관악구 난곡로61길 1(신림동),126.914084,37.480233,옥외대피소,470.0
183,1129000000,범바위 어린이 공원,서울특별시,성북구,서울특별시 성북구 고려대로8길 7-2 (안암동2가),127.021523,37.58539,옥외대피소,1263.0
184,1123000000,용두희망어린이공원,서울특별시,동대문구,서울특별시 동대문구 용두동 716-1,127.026443,37.580078,옥외대피소,529.0
370,1144000000,창천초등학교 운동장 ,서울특별시,마포구,서울특별시 마포구 백범로1길 56(노고산동),126.939547,37.554464,옥외대피소,3544.0
371,1144000000,동교초등학교 운동장,서울특별시,마포구,서울특별시 마포구 월드컵로25길 86(망원동),126.9027,37.5583,옥외대피소,3047.0
372,1144000000,쌈지마당,서울특별시,마포구,서울특별시 마포구 방울내로 24-12 (망원동),126.898525,37.557649,옥외대피소,2850.0
373,1144000000,상지초등학교 운동장,서울특별시,마포구,서울특별시 마포구 월드컵로42길 30(상암동),126.882376,37.579382,옥외대피소,3054.0
374,1156000000,당산초등학교 운동장,서울특별시,영등포구,서울특별시 영등포구 선유로55길 32(양평동4가),126.896102,37.53939,옥외대피소,6160.6
375,1153000000,구일중학교 운동장,서울특별시,구로구,서울특별시 구로구 구일로 90-133 (구로동),126.873971,37.494803,옥외대피소,3835.0
376,1153000000,오류초등학교 운동장,서울특별시,구로구,서울특별시 구로구 경인로19길 39(오류동),126.842309,37.497976,옥외대피소,4619.0
377,1153000000,신도림초등학교 운동장,서울특별시,구로구,서울특별시 구로구 신도림로19길 44(신도림동),126.882592,37.512343,옥외대피소,2116.2
378,1156000000,영원중학교 운동장,서울특별시,영등포구,서울특별시 영등포구 영등포로62길 31(영등포동),126.914245,37.515845,옥외대피소,3559.0
379,1156000000,영동초등학교 운동장,서울특별시,영등포구,서울특별시 영등포구 국회대로53길 20(당산동),126.907228,37.526626,옥외대피소,1650.6
380,1126000000,면목고등학교운동장,서울특별시,중랑구,서울특별시 중랑구 용마산로72길 36-14 (면목동),127.096801,37.584522,옥외대피소,4273.0
381,1126000000,묵현초등학교운동장,서울특별시,중랑구,서울특별시 중랑구 동일로157길 75(묵동),127.073359,37.608789,옥외대피소,1200.0
382,1126000000,봉화산근린공원,서울특별시,중랑구,서울특별시 중랑구 신내동 산 124,127.092762,37.608095,옥외대피소,977.0
383,1150000000,서울염창초등학교 운동장,서울특별시,강서구,서울특별시 강서구 양천로 646-28 (염창동),126.867975,37.552818,옥외대피소,3649.0
384,1150000000,염창중학교 운동장,서울특별시,강서구,서울특별시 강서구 양천로67가길 83(염창동),126.871951,37.553543,옥외대피소,3663.0
385,1150000000,서울등원초등학교 운동장,서울특별시,강서구,서울특별시 강서구 화곡로65길 90(등촌동),126.849686,37.56032,옥외대피소,2207.0
386,1150000000,서울등양초등학교 운동장,서울특별시,강서구,서울특별시 강서구 강서로56나길 140(등촌동),126.844667,37.564685,옥외대피소,3437.0
387,1150000000,서울등명초등학교 운동장,서울특별시,강서구,서울특별시 강서구 강서로56나길 34(등촌동),126.842058,37.560431,옥외대피소,3032.0
388,1130500000,미양초등학교 운동장,서울특별시,강북구,서울특별시 강북구 솔샘로 195(미아동),127.013786,37.620872,옥외대피소,2660.0
389,1150000000,등원중학교 운동장,서울특별시,강서구,서울특별시 강서구 화곡로65길 50(등촌동),126.851308,37.559328,옥외대피소,2838.0
390,1130500000,번동초등학교운동장,서울특별시,강북구,서울특별시 강북구 오현로 204(번동),127.04075,37.628963,옥외대피소,3329.0
391,1126000000,면일초등학교운동장,서울특별시,중랑구,서울특별시 중랑구 용마산로100길 13(망우동),127.099529,37.591691,옥외대피소,2524.0
392,1130500000,창문여자고등학교운동장,서울특별시,강북구,서울특별시 강북구 월계로 61(미아동),127.036629,37.61295,옥외대피소,2324.0
393,1130500000,송중초등학교운동장,서울특별시,강북구,서울특별시 강북구 오현로 9(미아동),127.031663,37.616852,옥외대피소,2495.0
394,1130500000,샛강어린이공원,서울특별시,강북구,서울특별시 강북구 도봉로96다길 6(번동),127.032982,37.639335,옥외대피소,634.0
395,1130500000,오현초등학교운동장,서울특별시,강북구,서울특별시 강북구 월계로 221(번동),127.046881,37.623176,옥외대피소,4045.0
396,1171000000,개롱공원,서울특별시,송파구,서울특별시 송파구 동남로 178(가락동),127.130796,37.493698,옥외대피소,19800.0
397,1174000000,선사초등학교운동장,서울특별시,강동구,서울특별시 강동구 올림픽로 837(암사동),127.129233,37.555984,옥외대피소,5760.0
398,1138000000,신진과학기술고등학교 운동장,서울특별시,은평구,서울특별시 은평구 은평로6길 16(응암동),126.918183,37.598419,옥외대피소,2478.0
399,1138000000,예일여자고등학교 운동장,서울특별시,은평구,서울특별시 은평구 연서로 117(구산동),126.915272,37.61013,옥외대피소,6569.0
400,1138000000,선정고등학교 운동장,서울특별시,은평구,서울특별시 은평구 서오릉로20길 19(갈현동),126.908865,37.618037,옥외대피소,28574.0
401,1138000000,길마어린이공원,서울특별시,은평구,서울특별시 은평구 연서로21길 15(갈현동),126.915868,37.614708,옥외대피소,1590.0
402,1156000000,선유중학교 운동장,서울특별시,영등포구,서울특별시 영등포구 선유로 213(양평동3가),126.894287,37.53275,옥외대피소,3841.0
403,1111000000,서울예술고등학교 운동장,서울특별시,종로구,서울특별시 종로구 평창문화로 70(평창동),126.96963,37.605477,옥외대피소,4725.0
404,1156000000,윤중중학교 운동장,서울특별시,영등포구,서울특별시 영등포구 여의동로3길 3(여의도동),126.923678,37.518749,옥외대피소,5783.0
405,1120000000,용답근린공원(용답휴식공원),서울특별시,성동구,서울특별시 성동구 용답동 128-3,127.047575,37.569935,옥외대피소,6046.0
406,1138000000,증산초등학교 운동장,서울특별시,은평구,서울특별시 은평구 증산서길 61(증산동),126.904809,37.582191,옥외대피소,2224.0
407,1150000000,유석초등학교 운동장,서울특별시,강서구,서울특별시 강서구 화곡로 403(등촌동),126.853533,37.56023,옥외대피소,2503.0
408,1150000000,동양고등학교 운동장,서울특별시,강서구,서울특별시 강서구 허준로 50(가양동),126.847797,37.568806,옥외대피소,3077.0
409,1174000000,성내하니공원,서울특별시,강동구,서울특별시 강동구 성내로3가길 71(성내동),127.126703,37.529802,옥외대피소,2850.0
410,1156000000,영신고등학교 운동장,서울특별시,영등포구,서울특별시 영등포구 대방천로14길 18(신길동),126.909621,37.497329,옥외대피소,4189.9
411,1120000000,서울숲공원,서울특별시,성동구,서울특별시 성동구 성수동1가 720,127.039736,37.544665,옥외대피소,22178.0
412,1138000000,서신초등학교 운동장,서울특별시,은평구,서울특별시 은평구 은평터널로 150(신사동),126.907236,37.59217,옥외대피소,1092.0
413,1120000000,향림공원,서울특별시,성동구,서울특별시 성동구 성수동2가 289-28,127.053432,37.546749,옥외대피소,248.0
414,1174000000,명원초등학교 운동장,서울특별시,강동구,서울특별시 강동구 명일로 364(명일동),127.150393,37.55084,옥외대피소,6580.0
415,1111000000,후창공원,서울특별시,종로구,서울특별시 종로구 평창동 568-2,126.96463,37.610131,옥외대피소,1651.0
416,1111000000,월암근린공원,서울특별시,종로구,서울특별시 종로구 송월동 1-2,126.965666,37.571016,옥외대피소,12000.0
417,1111000000,상명대학교사범대학부속여자중고등학교 운동장,서울특별시,종로구,서울특별시 종로구 홍지문2길 20(홍지동),126.957136,37.603833,옥외대피소,5053.0
418,1111000000,상명대학교사범대학 부속초등학교 운동장,서울특별시,종로구,서울특별시 종로구 홍지문2길 1(홍지동),126.956535,37.60066,옥외대피소,1340.0
419,1111000000,중앙고등학교 운동장,서울특별시,종로구,서울특별시 종로구 창덕궁길 164(계동),126.986978,37.585426,옥외대피소,10218.0
420,1144000000,현석어린이공원,서울특별시,마포구,서울특별시 마포구 현석동 1-5,126.933274,37.544343,옥외대피소,1595.0
421,1111000000,대동세무고등학교 운동장,서울특별시,종로구,서울특별시 종로구 계동길 84-10 (계동),126.987853,37.580996,옥외대피소,4257.0
422,1126000000,면동초등학교운동장,서울특별시,중랑구,서울특별시 중랑구 면목로57길 32(면목동),127.086656,37.585122,옥외대피소,3006.0
423,1130500000,영훈고등학교운동장,서울특별시,강북구,서울특별시 강북구 도봉로13가길 19(미아동),127.027902,37.613993,옥외대피소,4975.0
424,1130500000,강북구민운동장,서울특별시,강북구,서울특별시 강북구 오현로 187-25 (번동),127.037279,37.629316,옥외대피소,6514.0
425,1138000000,금암문화공원,서울특별시,은평구,서울특별시 은평구 진관3로 15-59 (진관동),126.918082,37.644325,옥외대피소,6587.0
426,1111000000,청운초등학교 운동장,서울특별시,종로구,서울특별시 종로구 자하문로 105(청운동),126.969713,37.585555,옥외대피소,1993.0
427,1129000000,삼선초등학교 운동장,서울특별시,성북구,서울특별시 성북구 보문로29길 106(삼선동3가),127.012446,37.586205,옥외대피소,6603.0
428,1120000000,도선어린이공원,서울특별시,성동구,서울특별시 성동구 무학로8길 8(홍익동),127.031558,37.56542,옥외대피소,2232.0
429,1120000000,덕수고등학교 운동장,서울특별시,성동구,서울특별시 성동구 왕십리로 199(행당동),127.042252,37.555243,옥외대피소,8640.0
430,1121500000,광양고등학교 운동장,서울특별시,광진구,서울특별시 광진구 자양로3가길 31(자양동),127.085466,37.529332,옥외대피소,4669.0
431,1174000000,천호공원광장,서울특별시,강동구,서울특별시 강동구 올림픽로 702(천호동),127.126437,37.544513,옥외대피소,1300.0
432,1174000000,신명초등학교 운동장,서울특별시,강동구,서울특별시 강동구 명일로24길 33(길동),127.149338,37.541152,옥외대피소,3075.0
433,1117000000,늘푸른어린이공원,서울특별시,용산구,서울특별시 용산구 원효로41가길 14-19 (원효로3가),126.956702,37.534837,옥외대피소,720.0
434,1111000000,청운중학교 운동장,서울특별시,종로구,서울특별시 종로구 창의문로 51(청운동),126.971057,37.588807,옥외대피소,4133.0
435,1111000000,매동초등학교 운동장,서울특별시,종로구,서울특별시 종로구 사직로9길 19(필운동),126.96689,37.577226,옥외대피소,2593.0
436,1129000000,삼선중학교 운동장,서울특별시,성북구,서울특별시 성북구 동소문동4가 278-174,127.008527,37.591513,옥외대피소,4608.0
437,1129000000,개운초등학교 운동장,서울특별시,성북구,서울특별시 성북구 정릉로48길 52(돈암동),127.027927,37.601791,옥외대피소,1336.0
438,1111000000,덕성여자고등학교 운동장,서울특별시,종로구,서울특별시 종로구 율곡로3길 50(안국동),126.982727,37.577976,옥외대피소,3560.0
439,1153000000,오류고등학교운동장,서울특별시,구로구,서울특별시 구로구 오리로21길 2(궁동),126.827452,37.500105,옥외대피소,3609.7
440,1121500000,신양초등학교 운동장,서울특별시,광진구,서울특별시 광진구 능동로 42(자양동),127.069324,37.534499,옥외대피소,2344.0
441,1121500000,화양초등학교 운동장,서울특별시,광진구,서울특별시 광진구 군자로 9(화양동),127.07124,37.544146,옥외대피소,1793.0
442,1121500000,동의초등학교 운동장 ,서울특별시,광진구,서울특별시 광진구 영화사로 111(구의동),127.098465,37.553505,옥외대피소,3826.0
443,1121500000,중마초등학교 운동장,서울특별시,광진구,서울특별시 광진구 동일로72길 43(중곡동),127.079836,37.565791,옥외대피소,2088.0
444,1162000000,새빛어린이공원,서울특별시,관악구,서울특별시 관악구 신사로10길 29(신림동),126.915184,37.486155,옥외대피소,320.0
445,1162000000,문성어린이공원,서울특별시,관악구,서울특별시 관악구 시흥대로164길 27(신림동),126.903051,37.481869,옥외대피소,955.0
446,1162000000,장군봉근린공원,서울특별시,관악구,서울특별시 관악구 봉천동 산 149-8,126.936502,37.481005,옥외대피소,4653.0
447,1174000000,천일초등학교운동장,서울특별시,강동구,서울특별시 강동구 구천면로 266(천호동),127.133113,37.544031,옥외대피소,1910.0
448,1111000000,교동초등학교 운동장,서울특별시,종로구,서울특별시 종로구 삼일대로 446(경운동),126.987661,37.57473,옥외대피소,2600.0
449,1129000000,대광초등학교 운동장,서울특별시,성북구,서울특별시 성북구 안암로 5(보문동7가),127.023534,37.579281,옥외대피소,977.0
450,1129000000,숭덕초등학교 운동장,서울특별시,성북구,서울특별시 성북구 정릉로 279(정릉동),127.013946,37.604112,옥외대피소,4865.0
451,1129000000,길원초등학교 운동장,서울특별시,성북구,서울특별시 성북구 길음로15길 55(길음동),127.016591,37.609694,옥외대피소,2119.0
452,1129000000,월곡중학교 운동장,서울특별시,성북구,서울특별시 성북구 장월로 6(상월곡동),127.048125,37.606592,옥외대피소,2308.0
453,1129000000,도시공단 공영주차장,서울특별시,성북구,서울특별시 성북구 하월곡동 226-4,127.041193,37.600373,옥외대피소,1453.0
454,1129000000,장월초등학교 운동장,서울특별시,성북구,서울특별시 성북구 한천로101길 66(장위동),127.046879,37.622007,옥외대피소,1452.0
455,1129000000,의릉 공영주차장,서울특별시,성북구,서울특별시 성북구 화랑로32길 146-35 (석관동),127.058536,37.604897,옥외대피소,1171.0
456,1129000000,개운중학교 운동장,서울특별시,성북구,서울특별시 성북구 북악산로 935(돈암동),127.024885,37.594966,옥외대피소,1924.0
457,1132000000,서원어린이공원,서울특별시,도봉구,서울특별시 도봉구 도봉동 576-13,127.043296,37.683826,옥외대피소,922.0
458,1162000000,새싹어린이공원,서울특별시,관악구,서울특별시 관악구 양녕로6다길 11-4 (봉천동),126.949599,37.484458,옥외대피소,1490.0
459,1174000000,한산초등학교운동장,서울특별시,강동구,서울특별시 강동구 풍성로 261(둔촌동),127.141413,37.528037,옥외대피소,5466.0
460,1150000000,등마초등학교 운동장,서울특별시,강서구,서울특별시 강서구 등촌로35길 12(등촌동),126.862063,37.541965,옥외대피소,2627.0
461,1132000000,샘말어린이공원,서울특별시,도봉구,서울특별시 도봉구 방학동 611-5,127.031552,37.668454,옥외대피소,1085.0
462,1111000000,운현초등학교 운동장,서울특별시,종로구,서울특별시 종로구 삼일대로 460(운니동),126.988372,37.575747,옥외대피소,2300.0
463,1111000000,올림픽기념국민생활관,서울특별시,종로구,서울특별시 종로구 성균관로 91(혜화동),126.998898,37.590121,옥외대피소,1402.0
464,1132000000,밤골어린이공원,서울특별시,도봉구,서울특별시 도봉구 창동 368,127.045797,37.648808,옥외대피소,2279.0
465,1150000000,송정초등학교 운동장,서울특별시,강서구,서울특별시 강서구 공항대로3길 18(공항동),126.810855,37.562063,옥외대피소,8300.0
466,1132000000,장미어린이공원,서울특별시,도봉구,서울특별시 도봉구 창동 553-8,127.036328,37.638144,옥외대피소,1000.0
467,1111000000,지봉골공원,서울특별시,종로구,서울특별시 종로구 지봉로 97(창신동),127.014728,37.578719,옥외대피소,1312.0
468,1111000000,숭인(근린)공원,서울특별시,종로구,서울특별시 종로구 숭인동 58-149,127.017784,37.576307,옥외대피소,34047.0
469,1111000000,종로산업정보학교 운동장,서울특별시,종로구,서울특별시 종로구 종로58길 30(숭인동),127.017373,37.571828,옥외대피소,1910.0
470,1162000000,봉림어린이공원,서울특별시,관악구,서울특별시 관악구 신림동 1510-2,126.935697,37.482721,옥외대피소,885.0
471,1129000000,길음중학교 운동장,서울특별시,성북구,서울특별시 성북구 길음로 144(길음동),127.018385,37.613634,옥외대피소,2062.0
472,1111000000,와룡공원,서울특별시,종로구,서울특별시 종로구 와룡공원길 192(명륜3가),126.990267,37.591069,옥외대피소,1200.0
473,1111000000,창신초등학교 운동장,서울특별시,종로구,서울특별시 종로구 지봉로 73(창신동),127.015015,37.576338,옥외대피소,2123.0
474,1132000000,창2동마을공원,서울특별시,도봉구,서울특별시 도봉구 덕릉로59길 63(창동),127.036266,37.641245,옥외대피소,3104.0
475,1150000000,서울시교육청학생교육원(구.공진중학교),서울특별시,강서구,서울특별시 강서구 양천로55길 56(가양동),126.850744,37.566241,옥외대피소,2424.0
476,1150000000,송화초등학교 운동장,서울특별시,강서구,서울특별시 강서구 마곡동 734-5,126.817431,37.56826,옥외대피소,5518.0
477,1132000000,물방울어린이공원,서울특별시,도봉구,서울특별시 도봉구 창동 458-6,127.041269,37.637571,옥외대피소,646.0
478,1132000000,창3동마을공원,서울특별시,도봉구,서울특별시 도봉구 우이천로4길 24-11 (창동),127.041512,37.633336,옥외대피소,310.0
479,1132000000,미화어린이공원,서울특별시,도봉구,서울특별시 도봉구 창동 715-17,127.03968,37.654933,옥외대피소,996.0
480,1132000000,창원어린이공원,서울특별시,도봉구,서울특별시 도봉구 창동 307,127.040306,37.653,옥외대피소,2329.0
481,1159000000,동양중학교 운동장,서울특별시,동작구,서울특별시 동작구 흑석로9길 94(흑석동),126.956276,37.509668,옥외대피소,952.0
482,1159000000,상현중학교 운동장,서울특별시,동작구,서울특별시 동작구 사당로2길 2-19 (상도동),126.961116,37.493864,옥외대피소,2367.0
483,1159000000,동작초등학교 운동장,서울특별시,동작구,서울특별시 동작구 동작대로29길 214(사당동),126.976881,37.49405,옥외대피소,2763.0
484,1159000000,서울공업고등학교 운동장,서울특별시,동작구,서울특별시 동작구 대방동1길 46(대방동),126.922149,37.500877,옥외대피소,12822.0
485,1162000000,충효어린이공원,서울특별시,관악구,서울특별시 관악구 봉천동 1526-1,126.941037,37.481033,옥외대피소,3294.0
486,1132000000,도봉우체국휴게공원,서울특별시,도봉구,서울특별시 도봉구 노해로 150(쌍문동),127.027305,37.647887,옥외대피소,183.0
487,1132000000,방학3동가로공원,서울특별시,도봉구,서울특별시 도봉구 방학동 443,127.027577,37.663412,옥외대피소,735.0
488,1159000000,영등포중학교 운동장,서울특별시,동작구,서울특별시 동작구 등용로8길 5(대방동),126.932861,37.508125,옥외대피소,3361.0
489,1126000000,면목5동 집하장 녹지대,서울특별시,중랑구,서울특별시 중랑구 면목동 734-2,127.079032,37.579846,옥외대피소,1592.0
490,1126000000,사가정공원,서울특별시,중랑구,서울특별시 중랑구 면목동 산 50-15,127.094532,37.580271,옥외대피소,109653.0
491,1126000000,상봉초등학교운동장,서울특별시,중랑구,서울특별시 중랑구 동일로126가길 11(상봉동),127.083689,37.598057,옥외대피소,4958.0
492,1126000000,중흥초등학교운동장,서울특별시,중랑구,서울특별시 중랑구 봉화산로 82(중화동),127.084519,37.60148,옥외대피소,3030.0
493,1126000000,장안중학교운동장,서울특별시,중랑구,서울특별시 중랑구 동일로 780(중화동),127.080802,37.600536,옥외대피소,5327.0
494,1126000000,중랑중학교운동장,서울특별시,중랑구,서울특별시 중랑구 동일로140길 33(중화동),127.081314,37.604876,옥외대피소,5025.0
495,1162000000,신화어린이공원,서울특별시,관악구,서울특별시 관악구 신림동 408-10,126.935703,37.476721,옥외대피소,710.0
496,1129000000,북악중학교 운동장,서울특별시,성북구,서울특별시 성북구 정릉로12길 41(정릉동),127.001694,37.606576,옥외대피소,1844.0
497,1129000000,석관중학교 운동장,서울특별시,성북구,서울특별시 성북구 한천로 526(석관동),127.066598,37.607656,옥외대피소,4760.0
498,1132000000,무수어린이공원,서울특별시,도봉구,서울특별시 도봉구 도봉동 585-2,127.042679,37.68059,옥외대피소,1003.0
499,1159000000,영본초등학교 운동장,서울특별시,동작구,서울특별시 동작구 만양로12가길 69(본동),126.948904,37.510688,옥외대피소,2683.0
500,1159000000,장승중학교 운동장,서울특별시,동작구,서울특별시 동작구 장승배기로10가길 25(상도동),126.940754,37.503498,옥외대피소,2250.0
501,1126000000,면목천로 녹지대,서울특별시,중랑구,서울특별시 중랑구 면목동 1508-10,127.083297,37.584347,옥외대피소,2183.0
502,1126000000,신현초등학교운동장,서울특별시,중랑구,서울특별시 중랑구 봉화산로 188(신내동),127.094028,37.605498,옥외대피소,3600.0
503,1150000000,서낭당근린공원,서울특별시,강서구,서울특별시 강서구 공항대로43길 46(등촌동),126.849963,37.558535,옥외대피소,10249.0
504,1150000000,바탕골공원,서울특별시,강서구,서울특별시 강서구 강서로45다길 74(화곡동),126.834761,37.544541,옥외대피소,887.0
505,1150000000,하마터어린이공원,서울특별시,강서구,서울특별시 강서구 곰달래로36길 22(화곡동),126.853649,37.530019,옥외대피소,1026.0
506,1150000000,미리내공원,서울특별시,강서구,서울특별시 강서구 화곡동 1008-32,126.834761,37.547679,옥외대피소,968.0
507,1150000000,두레어린이공원,서울특별시,강서구,서울특별시 강서구 강서로8길 203(화곡동),126.859337,37.531212,옥외대피소,986.0
508,1150000000,달빛공원,서울특별시,강서구,서울특별시 강서구 화곡동 783-1,126.862933,37.531171,옥외대피소,976.0
509,1150000000,모태어린이공원,서울특별시,강서구,서울특별시 강서구 화곡동 892-17,126.849515,37.529508,옥외대피소,1003.0
510,1162000000,인헌고등학교 운동장,서울특별시,관악구,서울특별시 관악구 인헌9길 74(봉천동),126.969893,37.471886,옥외대피소,4283.0
511,1162000000,삼성중학교 운동장,서울특별시,관악구,서울특별시 관악구 신림로3가길 39-24 (신림동),126.943074,37.468124,옥외대피소,9936.0
512,1138000000,대조어린이공원,서울특별시,은평구,서울특별시 은평구 연서로22길 9-30 (대조동),126.919883,37.615471,옥외대피소,3294.0
513,1129000000,안암초등학교 운동장,서울특별시,성북구,서울특별시 성북구 고려대로7가길 39(안암동2가),127.022604,37.587217,옥외대피소,2916.0
514,1129000000,대일외국어고등학교 운동장,서울특별시,성북구,서울특별시 성북구 서경로 116(정릉동),127.013555,37.613344,옥외대피소,5088.0
515,1129000000,계성고등학교 운동장,서울특별시,성북구,서울특별시 성북구 길음로 63(길음동),127.020879,37.607626,옥외대피소,3759.0
516,1129000000,숭례초등학교 운동장,서울특별시,성북구,서울특별시 성북구 종암로5길 14(종암동),127.035051,37.594822,옥외대피소,3968.0
517,1150000000,염경중학교 운동장,서울특별시,강서구,서울특별시 강서구 양천로69길 35(염창동),126.870897,37.554212,옥외대피소,2352.0
518,1150000000,방화중학교 운동장,서울특별시,강서구,서울특별시 강서구 개화동로27길 9(방화동),126.806629,37.565165,옥외대피소,3030.0
519,1150000000,등마루공원,서울특별시,강서구,서울특별시 강서구 등촌동 641-5,126.857348,37.556031,옥외대피소,969.0
520,1150000000,큰별공원,서울특별시,강서구,서울특별시 강서구 화곡동 46-41,126.848938,37.544481,옥외대피소,1081.0
521,1150000000,호돌이공원,서울특별시,강서구,서울특별시 강서구 화곡동 906-26,126.845992,37.528225,옥외대피소,661.0
522,1150000000,수명어린이공원,서울특별시,강서구,서울특별시 강서구 화곡로15길 18(화곡동),126.83444,37.54084,옥외대피소,880.0
523,1162000000,신림근린공원,서울특별시,관악구,서울특별시 관악구 남부순환로152길 53(신림동),126.917678,37.480801,옥외대피소,19802.0
524,1162000000,신림중학교 운동장,서울특별시,관악구,서울특별시 관악구 신림로 40(신림동),126.94494,37.470533,옥외대피소,6599.0
525,1150000000,허준근린공원,서울특별시,강서구,서울특별시 강서구 허준로5길 42(가양동),126.85241,37.567841,옥외대피소,29844.0
526,1153000000,신미림초등학교 운동장,서울특별시,구로구,서울특별시 구로구 신도림로 26(신도림동),126.879586,37.506441,옥외대피소,2104.0
527,1150000000,발산근린공원,서울특별시,강서구,서울특별시 강서구 마곡중앙로 11(내발산동),126.825484,37.554547,옥외대피소,17826.0
528,1150000000,발음어린이공원,서울특별시,강서구,서울특별시 강서구 강서로47길 61-21 (내발산동),126.833179,37.55224,옥외대피소,914.0
529,1150000000,신광명공원,서울특별시,강서구,서울특별시 강서구 내발산동 761,126.822932,37.547303,옥외대피소,8597.0
530,1150000000,다솔어린이공원,서울특별시,강서구,서울특별시 강서구 공항동 1361,126.818349,37.554635,옥외대피소,1000.0
531,1150000000,장미공원,서울특별시,강서구,서울특별시 강서구 방화대로7다길 35-18 (공항동),126.813826,37.556672,옥외대피소,500.0
532,1150000000,새싹어린이공원,서울특별시,강서구,서울특별시 강서구 방화동 583,126.809396,37.569736,옥외대피소,3582.0
533,1130500000,희망어린이공원(미루나무어린이공원),서울특별시,강북구,서울특별시 강북구 수유동 193-1,127.024448,37.640552,옥외대피소,841.0
534,1130500000,흰구름공원(수유2동근린공원),서울특별시,강북구,서울특별시 강북구 노해로23길 58(수유동),127.020429,37.645717,옥외대피소,1092.0
535,1153000000,영서초등학교 운동장,서울특별시,구로구,서울특별시 구로구 도림로20길 57(구로동),126.89519,37.488129,옥외대피소,2912.0
536,1153000000,영림중학교 운동장,서울특별시,구로구,서울특별시 구로구 가마산로27길 17(구로동),126.890631,37.49772,옥외대피소,5080.0
537,1153000000,영일초등학교 운동장,서울특별시,구로구,서울특별시 구로구 남부순환로105길 218(가리봉동),126.883735,37.485096,옥외대피소,3830.0
538,1153000000,고산초등학교 운동장,서울특별시,구로구,서울특별시 구로구 중앙로 6(고척동),126.865599,37.499008,옥외대피소,2675.0
539,1153000000,고척중학교 운동장,서울특별시,구로구,서울특별시 구로구 중앙로3길 20(고척동),126.861951,37.499776,옥외대피소,4897.0
540,1153000000,고척고등학교 운동장,서울특별시,구로구,서울특별시 구로구 중앙로15길 162(고척동),126.852071,37.509087,옥외대피소,7282.0
541,1153000000,우신고등학교 운동장,서울특별시,구로구,서울특별시 구로구 부일로 917(궁동),126.827157,37.494958,옥외대피소,11246.0
542,1153000000,서울정진학교 운동장,서울특별시,구로구,서울특별시 구로구 부일로9길 158(궁동),126.822072,37.498271,옥외대피소,4649.0
543,1153000000,세종과학고등학교 운동장,서울특별시,구로구,서울특별시 구로구 오리로21길 79(궁동),126.827039,37.497205,옥외대피소,3207.0
544,1129000000,고려대학사범대학부속고등학교 운동장,서울특별시,성북구,서울특별시 성북구 정릉동 산 1-2,127.00209,37.608414,옥외대피소,16119.0
545,1111000000,효제초등학교 운동장,서울특별시,종로구,서울특별시 종로구 대학로 12(효제동),127.003039,37.572629,옥외대피소,5794.0
546,1132000000,반석어린이공원,서울특별시,도봉구,서울특별시 도봉구 창동 354,127.041245,37.647101,옥외대피소,2597.0
547,1132000000,월천공원,서울특별시,도봉구,서울특별시 도봉구 창동 28,127.050847,37.647561,옥외대피소,10712.0
548,1126000000,용마폭포공원,서울특별시,중랑구,서울특별시 중랑구 용마산로 250-12 (면목동),127.090871,37.57329,옥외대피소,270.0
549,1126000000,원묵중학교운동장,서울특별시,중랑구,서울특별시 중랑구 신내로23길 57(묵동),127.085015,37.617799,옥외대피소,3936.0
550,1126000000,원묵고등학교운동장,서울특별시,중랑구,서울특별시 중랑구 숙선옹주로 82(묵동),127.086353,37.615519,옥외대피소,2816.0
551,1126000000,혜원여자고등학교운동장,서울특별시,중랑구,서울특별시 중랑구 봉우재로58길 39(망우동),127.096603,37.593723,옥외대피소,5866.0
552,1150000000,원당근린공원,서울특별시,강서구,서울특별시 강서구 강서로56길 49(등촌동),126.842062,37.559757,옥외대피소,10096.0
553,1150000000,새나라공원,서울특별시,강서구,서울특별시 강서구 등촌동 707-2,126.852055,37.561555,옥외대피소,1563.0
554,1150000000,솔뫼공원,서울특별시,강서구,서울특별시 강서구 가로공원로77길 30(화곡동),126.838431,37.537864,옥외대피소,2097.0
555,1150000000,까치어린이공원,서울특별시,강서구,서울특별시 강서구 화곡동 354-14,126.841893,37.533424,옥외대피소,1193.0
556,1150000000,골말어린이공원,서울특별시,강서구,서울특별시 강서구 곰달래로45길 17(화곡동),126.856108,37.533243,옥외대피소,977.0
557,1153000000,화원어린이공원,서울특별시,구로구,서울특별시 구로구 벚꽃로 490(구로동),126.880285,37.497719,옥외대피소,3759.0
558,1153000000,구로근린공원,서울특별시,구로구,서울특별시 구로구 가마산로25길 21(구로동),126.889712,37.496854,옥외대피소,1853.0
559,1153000000,경인고등학교 운동장,서울특별시,구로구,서울특별시 구로구 경인로46길 31(고척동),126.865858,37.496354,옥외대피소,4071.0
560,1153000000,고척근린공원 축구장,서울특별시,구로구,서울특별시 구로구 고척로45길 39(고척동),126.851759,37.505988,옥외대피소,6690.0
561,1126000000,능말공원,서울특별시,중랑구,서울특별시 중랑구 신내동 817-5,127.107267,37.615634,옥외대피소,19101.0
562,1162000000,정문학교 운동장,서울특별시,관악구,서울특별시 관악구 난향3길 31(신림동),126.916138,37.461484,옥외대피소,1699.0
563,1162000000,삼성고등학교 운동장,서울특별시,관악구,서울특별시 관악구 신림로 41(신림동),126.943639,37.469783,옥외대피소,8580.0
564,1130500000,새싹어린이공원,서울특별시,강북구,서울특별시 강북구 수유동 134-40,127.019559,37.636118,옥외대피소,644.0
565,1126000000,능산공원,서울특별시,중랑구,서울특별시 중랑구 신내동 317-2,127.097348,37.611771,옥외대피소,388.0
566,1126000000,봉화중학교운동장,서울특별시,중랑구,서울특별시 중랑구 망우로70길 89(망우동),127.103758,37.596635,옥외대피소,2754.0
567,1126000000,영란여자중학교운동장,서울특별시,중랑구,서울특별시 중랑구 망우로73길 56(망우동),127.104478,37.603522,옥외대피소,7085.0
568,1120000000,성동구보건소 주차장,서울특별시,성동구,서울특별시 성동구 마장로23길 10(홍익동),127.032952,37.567087,옥외대피소,570.0
569,1120000000,무학봉근린공원,서울특별시,성동구,서울특별시 성동구 하왕십리동 1050-2,127.026565,37.562399,옥외대피소,28845.0
570,1120000000,마장중학교 운동장,서울특별시,성동구,서울특별시 성동구 마장로35나길 31(마장동),127.041272,37.568567,옥외대피소,3280.0
571,1120000000,사근초등학교 운동장,서울특별시,성동구,서울특별시 성동구 사근동11길 16(사근동),127.04795,37.562529,옥외대피소,2200.0
572,1120000000,한양여자대학교 운동장,서울특별시,성동구,서울특별시 성동구 사근동8길 24(사근동),127.04759,37.558908,옥외대피소,2270.0
573,1120000000,금호근린공원,서울특별시,성동구,서울특별시 성동구 금호산9길 9(금호동3가),127.019062,37.549814,옥외대피소,13467.0
574,1120000000,옥수초등학교 운동장,서울특별시,성동구,서울특별시 성동구 금호로1길 25(금호동4가),127.022106,37.545934,옥외대피소,2521.0
575,1120000000,달맞이공원,서울특별시,성동구,서울특별시 성동구 옥수동 산 1-1,127.020121,37.544554,옥외대피소,9246.0
576,1120000000,경일고등학교 운동장,서울특별시,성동구,서울특별시 성동구 성수일로 27(성수동1가),127.04775,37.543256,옥외대피소,4240.0
577,1120000000,경동초등학교 운동장,서울특별시,성동구,서울특별시 성동구 성수일로 34(성수동1가),127.050888,37.542727,옥외대피소,2849.0
578,1120000000,성원중학교 운동장,서울특별시,성동구,서울특별시 성동구 성덕정9가길 13(성수동2가),127.052368,37.539229,옥외대피소,3435.0
579,1162000000,국지어린이공원,서울특별시,관악구,서울특별시 관악구 봉천동 635-429,126.940673,37.489885,옥외대피소,1837.0
580,1162000000,관악중학교 운동장,서울특별시,관악구,서울특별시 관악구 남부순환로237길 60(봉천동),126.961471,37.480104,옥외대피소,7365.0
581,1162000000,밤골어린이공원,서울특별시,관악구,서울특별시 관악구 인헌3가길 8(봉천동),126.967251,37.474081,옥외대피소,1118.0
582,1162000000,남강중학교 운동장,서울특별시,관악구,서울특별시 관악구 난곡로34길 80(신림동),126.924137,37.471537,옥외대피소,9914.0
583,1130500000,혜화여자고등학교 운동장,서울특별시,강북구,서울특별시 강북구 인수봉로 127(수유동),127.013177,37.630624,옥외대피소,2951.0
584,1120000000,송정체육공원,서울특별시,성동구,서울특별시 성동구 중랑천동자전거길 366(송정동),127.066558,37.552877,옥외대피소,3350.0
585,1120000000,독서당공원,서울특별시,성동구,서울특별시 성동구 금호동1가 산 37-7,127.029097,37.550659,옥외대피소,2852.0
586,1174000000,배재고등학교 운동장,서울특별시,강동구,서울특별시 강동구 고덕로 227(고덕동),127.151957,37.555419,옥외대피소,56521.0
587,1150000000,백석중학교 운동장,서울특별시,강서구,서울특별시 강서구 등촌로51나길 35(등촌동),126.859342,37.548073,옥외대피소,1658.0
588,1120000000,송원초등학교 운동장,서울특별시,성동구,서울특별시 성동구 동일로43길 9(송정동),127.069247,37.553907,옥외대피소,738.0
589,1165000000,분토골어린이공원,서울특별시,서초구,서울특별시 서초구 서초동 1627-4,127.017458,37.488375,옥외대피소,587.0
590,1165000000,용허리근린공원,서울특별시,서초구,서울특별시 서초구 서초동 1324-1,127.02328,37.494286,옥외대피소,4580.0
591,1165000000,코아어린이공원,서울특별시,서초구,서울특별시 서초구 잠원동 72-4,127.004037,37.509037,옥외대피소,1300.0
592,1165000000,영동중학교 운동장,서울특별시,서초구,서울특별시 서초구 성촌길 14(우면동),127.025644,37.465666,옥외대피소,2353.0
593,1162000000,영락고등학교 운동장,서울특별시,관악구,서울특별시 관악구 청룡16길 25(봉천동),126.944307,37.47628,옥외대피소,12249.0
594,1162000000,원당어린이공원,서울특별시,관악구,서울특별시 관악구 봉천동 196-2,126.963437,37.474854,옥외대피소,1647.0
595,1162000000,새들어린이공원,서울특별시,관악구,서울특별시 관악구 신림동 1441-42,126.925735,37.488668,옥외대피소,810.0
596,1162000000,서원어린이공원,서울특별시,관악구,서울특별시 관악구 서원3길 10(신림동),126.933421,37.476716,옥외대피소,2110.0
597,1165000000,청룡어린이공원,서울특별시,서초구,서울특별시 서초구 반포동 86-1,126.999696,37.495872,옥외대피소,1010.0
598,1117000000,백범김구기념관,서울특별시,용산구,서울특별시 용산구 임정로 26(효창동),126.959789,37.544739,옥외대피소,1492.0
599,1117000000,솔밭어린이공원,서울특별시,용산구,서울특별시 용산구 한강로1가 30-3,126.973648,37.537302,옥외대피소,2090.0
600,1168000000,구룡중학교 운동장,서울특별시,강남구,서울특별시 강남구 선릉로 103(개포동),127.05661,37.485693,옥외대피소,5820.0
601,1168000000,개포서근린공원,서울특별시,강남구,서울특별시 강남구 개포동 180,127.063797,37.488824,옥외대피소,1500.0
602,1117000000,이태원마을숲 소공원,서울특별시,용산구,서울특별시 용산구 이태원동 260-87,126.991538,37.541264,옥외대피소,661.0
232,1129000000,종암 5-1 어린이 공원,서울특별시,성북구,서울특별시 성북구 종암동 134-3,127.03663,37.599639,옥외대피소,1965.0
233,1129000000,홍익대학교 사범대학 부속 중-고등학교 운동장,서울특별시,성북구,서울특별시 성북구 성북로14가길 23(성북동),127.003655,37.594074,옥외대피소,9518.0
234,1126000000,면목중학교운동장,서울특별시,중랑구,서울특별시 중랑구 용마산로70길 37(면목동),127.095754,37.582888,옥외대피소,4197.0
235,1154500000,독산근린공원,서울특별시,금천구,서울특별시 금천구 범안로 1096(독산동),126.8847,37.4631,옥외대피소,19100.0
236,1154500000,해태공원,서울특별시,금천구,서울특별시 금천구 시흥동 871-24,126.9018,37.4578,옥외대피소,962.0
237,1154500000,진달래공원,서울특별시,금천구,서울특별시 금천구 시흥동 970-3,126.9049,37.4348,옥외대피소,298.0
238,1154500000,비둘기공원,서울특별시,금천구,서울특별시 금천구 시흥동 947-4,126.9062,37.4415,옥외대피소,298.0
239,1154500000,꾸러기공원,서울특별시,금천구,서울특별시 금천구 시흥동 943-16,126.9059,37.4432,옥외대피소,165.0
240,1130500000,벌리어린이공원,서울특별시,강북구,서울특별시 강북구 번동 240,127.044429,37.627576,옥외대피소,4083.5
241,1130500000,송월어린이공원,서울특별시,강북구,서울특별시 강북구 미아동 89-6,127.032134,37.616101,옥외대피소,807.0
242,1130500000,우이초등학교 운동장,서울특별시,강북구,서울특별시 강북구 삼양로99길 36(수유동),127.014358,37.638359,옥외대피소,1105.0
243,1129000000,동망봉 어린이 공원,서울특별시,성북구,서울특별시 성북구 보문사길 30(보문동3가),127.016993,37.583682,옥외대피소,1355.0
244,1130500000,서울인수초등학교운동장,서울특별시,강북구,서울특별시 강북구 인수봉로 269(수유동),127.010237,37.642679,옥외대피소,1562.0
245,1130500000,삼양초등학교 운동장,서울특별시,강북구,서울특별시 강북구 삼양로49길 17(미아동),127.016787,37.623429,옥외대피소,3315.0
246,1154500000,도하공원,서울특별시,금천구,서울특별시 금천구 독산동 1149,126.8953,37.4587,옥외대피소,3155.0
247,1130500000,논골어린이공원,서울특별시,강북구,서울특별시 강북구 덕릉로41길 92(번동),127.028046,37.638382,옥외대피소,845.0
248,1171000000,천마공원,서울특별시,송파구,서울특별시 송파구 성내천로35길 53(마천동),127.160241,37.500189,옥외대피소,7311.0
249,1130500000,수송중학교운동장,서울특별시,강북구,서울특별시 강북구 한천로122길 21(번동),127.033321,37.636268,옥외대피소,4071.0
250,1126000000,중랑초등학교운동장,서울특별시,중랑구,서울특별시 중랑구 봉우재로6길 26(면목동),127.075746,37.589292,옥외대피소,2150.0
251,1126000000,신내근린공원,서울특별시,중랑구,서울특별시 중랑구 신내동 652,127.089189,37.613747,옥외대피소,34016.0
252,1126000000,면목초등학교운동장,서울특별시,중랑구,서울특별시 중랑구 면목로 434(면목동),127.087563,37.591047,옥외대피소,2177.0
253,1126000000,중화중학교운동장,서울특별시,중랑구,서울특별시 중랑구 용마산로 364(면목동),127.095177,37.584232,옥외대피소,2751.0
254,1126000000,동원초등학교운동장,서울특별시,중랑구,서울특별시 중랑구 송림길 114(망우동),127.104845,37.604953,옥외대피소,4393.0
255,1126000000,망우초등학교운동장,서울특별시,중랑구,서울특별시 중랑구 망우로72길 49(망우동),127.103358,37.598225,옥외대피소,2800.0
256,1141000000,서대문독립공원,서울특별시,서대문구,서울특별시 서대문구 독립문공원길 80(현저동),126.956409,37.574107,옥외대피소,103713.0
257,1129000000,성북초등학교 운동장,서울특별시,성북구,서울특별시 성북구 성북로 102-10 (성북동),126.998239,37.593559,옥외대피소,5045.0
258,1141000000,명지고등학교 운동장,서울특별시,서대문구,서울특별시 서대문구 명지2길 56(홍은동),126.927082,37.584076,옥외대피소,3624.0
259,1159000000,동작고등학교 운동장,서울특별시,동작구,서울특별시 동작구 솔밭로 51(사당동),126.96553,37.482083,옥외대피소,3246.0
260,1138000000,응암초등학교 운동장 ,서울특별시,은평구,서울특별시 은평구 가좌로6길 20(응암동),126.921224,37.588381,옥외대피소,2000.0
261,1138000000,신사초등학교 운동장,서울특별시,은평구,서울특별시 은평구 가좌로 275-2 (신사동),126.912387,37.592731,옥외대피소,1555.0
262,1156000000,당서초등학교 운동장,서울특별시,영등포구,서울특별시 영등포구 당산로 187(당산동5가),126.899289,37.531467,옥외대피소,3540.0
263,1138000000,은평고등학교 운동장,서울특별시,은평구,서울특별시 은평구 갈현로15길 51(구산동),126.906116,37.608981,옥외대피소,1350.0
264,1141000000,감리교신학대 운동장,서울특별시,서대문구,서울특별시 서대문구 냉천동 31,126.963036,37.567195,옥외대피소,846.0
265,1156000000,한강미디어고등학교 운동장,서울특별시,영등포구,서울특별시 영등포구 선유로55길 22(양평동4가),126.897267,37.538903,옥외대피소,2282.6
266,1153000000,구로중학교 운동장,서울특별시,구로구,서울특별시 구로구 구로중앙로 48(구로동),126.890871,37.494272,옥외대피소,5715.0
267,1159000000,남사초등학교 운동장,서울특별시,동작구,서울특별시 동작구 동작대로13길 22(사당동),126.978867,37.482242,옥외대피소,4274.0
268,1168000000,논현초등학교 운동장,서울특별시,강남구,서울특별시 강남구 논현동 168,127.026206,37.508142,옥외대피소,3960.0
269,1144000000,공덕초등학교 운동장,서울특별시,마포구,서울특별시 마포구 만리재옛길 13(공덕동),126.954124,37.545785,옥외대피소,5141.0
270,1141000000,안산초등학교 운동장,서울특별시,서대문구,서울특별시 서대문구 통일로 321(홍제동),126.951601,37.57938,옥외대피소,1931.0
271,1156000000,장훈고등학교 운동장,서울특별시,영등포구,서울특별시 영등포구 영등포로64길 26(신길동),126.915551,37.513615,옥외대피소,7167.6
272,1156000000,영남중학교 운동장,서울특별시,영등포구,서울특별시 영등포구 대림로31나길 17(대림동),126.896038,37.497418,옥외대피소,6155.9
273,1156000000,여의도여자고등학교 운동장,서울특별시,영등포구,서울특별시 영등포구 국제금융로7가길 13(여의도동),126.934909,37.522576,옥외대피소,4079.0
274,1156000000,신대림초등학교 운동장,서울특별시,영등포구,서울특별시 영등포구 대림로8길 25(대림동),126.90589,37.491853,옥외대피소,7412.0
275,1156000000,윤중초등학교 운동장,서울특별시,영등포구,서울특별시 영등포구 여의나루로2길 14(여의도동),126.923107,37.519549,옥외대피소,6586.0
276,1156000000,우신초등학교 운동장,서울특별시,영등포구,서울특별시 영등포구 신길로 190(신길동),126.912131,37.509336,옥외대피소,5236.1
277,1156000000,대동초등학교 운동장,서울특별시,영등포구,서울특별시 영등포구 대림로21길 6(대림동),126.900072,37.493281,옥외대피소,6378.0
278,1141000000,고은초등학교 운동장,서울특별시,서대문구,서울특별시 서대문구 모래내로 441(홍제동),126.943621,37.584714,옥외대피소,954.0
279,1156000000,양화중학교 운동장,서울특별시,영등포구,서울특별시 영등포구 당산로 56(문래동3가),126.89636,37.519291,옥외대피소,2343.6
280,1141000000,명지전문대 운동장,서울특별시,서대문구,서울특별시 서대문구 가좌로 134(홍은동),126.925305,37.583792,옥외대피소,4556.0
281,1141000000,명지중학교 운동장,서울특별시,서대문구,서울특별시 서대문구 명지2길 56(홍은동),126.927102,37.58402,옥외대피소,738.0
282,1156000000,도림초등학교 운동장,서울특별시,영등포구,서울특별시 영등포구 가마산로65길 22(신길동),126.90748,37.508296,옥외대피소,4413.6
283,1159000000,신남성초등학교 운동장,서울특별시,동작구,서울특별시 동작구 사당로 146(사당동),126.965277,37.488503,옥외대피소,4052.0
284,1159000000,문창초등학교 운동장,서울특별시,동작구,서울특별시 동작구 신대방2길 14(신대방동),126.914363,37.489171,옥외대피소,3044.0
285,1132000000,신도봉중학교 운동장,서울특별시,도봉구,서울특별시 도봉구 도봉로115길 16(쌍문동),127.033395,37.649281,옥외대피소,183.0
286,1132000000,창원초등학교 운동장,서울특별시,도봉구,서울특별시 도봉구 해등로 103(창동),127.040713,37.652104,옥외대피소,4163.0
287,1132000000,창림초등학교운동장,서울특별시,도봉구,서울특별시 도봉구 덕릉로63길 46(창동),127.041796,37.643152,옥외대피소,183.0
288,1159000000,흑석초등학교 운동장,서울특별시,동작구,서울특별시 동작구 현충로 87(흑석동),126.965093,37.508658,옥외대피소,2440.0
289,1141000000,연희중학교 운동장,서울특별시,서대문구,서울특별시 서대문구 증가로 170(남가좌동),126.918913,37.579123,옥외대피소,3290.0
290,1141000000,대신초등학교 운동장,서울특별시,서대문구,서울특별시 서대문구 이화여대2길 27(대현동),126.947459,37.55768,옥외대피소,1011.0
291,1129000000,길음초등학교 운동장,서울특별시,성북구,서울특별시 성북구 길음로 142(길음동),127.017084,37.6132,옥외대피소,3479.0
292,1156000000,선유고등학교 운동장,서울특별시,영등포구,서울특별시 영등포구 선유로 227(양평동4가),126.89507,37.53339,옥외대피소,2055.7
293,1159000000,국사봉중학교운동장,서울특별시,동작구,서울특별시 동작구 양녕로20길 20(상도동),126.945071,37.493777,옥외대피소,3062.0
294,1168000000,삼릉초등학교 운동장,서울특별시,강남구,서울특별시 강남구 봉은사로63길 22(삼성동),127.047155,37.512774,옥외대피소,2218.0
295,1168000000,도성초등학교 운동장,서울특별시,강남구,서울특별시 강남구 역삼로 313(역삼동),127.049165,37.500667,옥외대피소,3800.0
296,1168000000,대모초등학교 운동장,서울특별시,강남구,서울특별시 강남구 일원동 736,127.086048,37.481077,옥외대피소,2727.0
297,1153000000,유한공업고등학교 운동장,서울특별시,구로구,서울특별시 구로구 경인로 8(항동),126.823629,37.488029,옥외대피소,6259.0
298,1141000000,중앙여자고등학교 운동장,서울특별시,서대문구,서울특별시 서대문구 북아현로11가길 7(북아현동),126.95248,37.562144,옥외대피소,5150.0
299,1132000000,방학중학교 운동장,서울특별시,도봉구,서울특별시 도봉구 시루봉로 188(방학동),127.031764,37.665443,옥외대피소,6742.0
300,1138000000,은진초등학교 운동장,서울특별시,은평구,서울특별시 은평구 진관1로 21-20 (진관동),126.921146,37.633021,옥외대피소,2000.0
301,1129000000,숭인초등학교 운동장,서울특별시,성북구,서울특별시 성북구 오패산로16길 37(하월곡동),127.038806,37.608916,옥외대피소,2042.0
302,1141000000,연희초등학교 운동장,서울특별시,서대문구,서울특별시 서대문구 연희로 136(연희동),126.933561,37.569069,옥외대피소,1257.0
303,1159000000,본동초등학교 운동장,서울특별시,동작구,서울특별시 동작구 노량진로26길 16-40 (본동),126.953744,37.510282,옥외대피소,1400.0
304,1159000000,남성초등학교 운동장,서울특별시,동작구,서울특별시 동작구 사당로23길 57-14 (사당동),126.976303,37.484244,옥외대피소,3465.0
305,1159000000,대림초등학교운동장,서울특별시,동작구,서울특별시 동작구 대방동1길 22(대방동),126.926168,37.500569,옥외대피소,1778.0
306,1141000000,홍제초등학교 운동장,서울특별시,서대문구,서울특별시 서대문구 홍은중앙로 13(홍은동),126.944278,37.592803,옥외대피소,639.0
307,1165000000,서일초등학교 운동장,서울특별시,서초구,서울특별시 서초구 남부순환로339길 38(서초동),127.022712,37.484607,옥외대피소,3210.0
308,1165000000,서이초등학교 운동장,서울특별시,서초구,서울특별시 서초구 서운로 35(서초동),127.025936,37.49112,옥외대피소,16830.0
309,1165000000,서울고등학교 운동장,서울특별시,서초구,서울특별시 서초구 효령로 197(서초동),127.005762,37.48414,옥외대피소,73592.0
310,1165000000,서일중학교 운동장,서울특별시,서초구,서울특별시 서초구 서운로21길 2(서초동),127.022581,37.498687,옥외대피소,6464.0
311,1165000000,신동초등학교 운동장,서울특별시,서초구,서울특별시 서초구 나루터로 15(잠원동),127.0119,37.516736,옥외대피소,10829.0
312,1165000000,반포고등학교 운동장,서울특별시,서초구,서울특별시 서초구 고무래로 71(반포동),127.016788,37.501767,옥외대피소,8780.0
313,1165000000,잠원초등학교 운동장,서울특별시,서초구,서울특별시 서초구 신반포로16길 15-25 (반포동),126.998186,37.501364,옥외대피소,14058.0
314,1165000000,신반포중학교 운동장,서울특별시,서초구,서울특별시 서초구 신반포로19길 26(반포동),126.996153,37.505596,옥외대피소,14926.0
315,1165000000,반원초등학교 운동장,서울특별시,서초구,서울특별시 서초구 잠원로3길 28(잠원동),127.004053,37.509737,옥외대피소,5100.0
316,1165000000,방배중학교 운동장,서울특별시,서초구,서울특별시 서초구 동광로 144(반포동),126.99844,37.494591,옥외대피소,6169.0
317,1168000000,언북초등학교 운동장,서울특별시,강남구,서울특별시 강남구 삼성로135길 42(청담동),127.046262,37.520082,옥외대피소,4617.0
318,1144000000,소의초등학교 운동장,서울특별시,마포구,서울특별시 마포구 마포대로24길 42(아현동),126.961153,37.552146,옥외대피소,2722.0
319,1165000000,방일초등학교 운동장,서울특별시,서초구,서울특별시 서초구 방배로18길 52(방배동),126.9979,37.48526,옥외대피소,12294.0
320,1165000000,남태령어린이공원,서울특별시,서초구,서울특별시 서초구 방배동 2956-4,126.988618,37.466169,옥외대피소,1208.0
321,1165000000,방배초등학교 운동장,서울특별시,서초구,서울특별시 서초구 방배중앙로13길 26(방배동),126.987454,37.487124,옥외대피소,9734.0
322,1165000000,서문여자중학교 운동장,서울특별시,서초구,서울특별시 서초구 동광로12길 84(방배동),126.985081,37.488973,옥외대피소,22755.0
323,1165000000,양재근린공원,서울특별시,서초구,서울특별시 서초구 양재동 311,127.042646,37.471502,옥외대피소,32582.0
324,1144000000,마포초등학교 운동장,서울특별시,마포구,서울특별시 마포구 도화2길 64(도화동),126.949093,37.538583,옥외대피소,2077.0
325,1162000000,신성초등학교 운동장,서울특별시,관악구,서울특별시 관악구 신림로 114(신림동),126.936852,37.47148,옥외대피소,6052.0
326,1144000000,신석초등학교 운동장,서울특별시,마포구,서울특별시 마포구 대흥로 33(신수동),126.937938,37.544016,옥외대피소,1355.0
327,1144000000,신수중학교 운동장,서울특별시,마포구,서울특별시 마포구 신수로 49(신수동),126.9337,37.5454,옥외대피소,4138.0
328,1144000000,와우어린이공원,서울특별시,마포구,서울특별시 마포구 독막로19길 20-13 (상수동),126.9253,37.549,옥외대피소,3166.0
329,1144000000,망원초등학교 운동장,서울특별시,마포구,서울특별시 마포구 방울내로5길 28(망원동),126.900983,37.560533,옥외대피소,1389.0
330,1141000000,미동초등학교 운동장,서울특별시,서대문구,서울특별시 서대문구 충정로 52(미근동),126.965894,37.562845,옥외대피소,1529.0
331,1141000000,금화초등학교 운동장,서울특별시,서대문구,서울특별시 서대문구 통일로 165(천연동),126.96323,37.568557,옥외대피소,886.0
332,1117000000,삼광초등학교 운동장,서울특별시,용산구,서울특별시 용산구 두텁바위로1나길 19(후암동),126.97662,37.546898,옥외대피소,3328.0
333,1144000000,아현중학교 운동장,서울특별시,마포구,서울특별시 마포구 마포대로 247(아현동),126.957183,37.556405,옥외대피소,4596.0
334,1165000000,청두어린이공원,서울특별시,서초구,서울특별시 서초구 방배동 463-14,126.985,37.480618,옥외대피소,1049.0
335,1144000000,용강초등학교 운동장 ,서울특별시,마포구,서울특별시 마포구 백범로17길 9(대흥동),126.9441,37.5491,옥외대피소,3588.0
336,1144000000,와우근린공원,서울특별시,마포구,서울특별시 마포구 창전동 3-181,126.9301,37.553,옥외대피소,68623.0
337,1144000000,서교초등학교 운동장,서울특별시,마포구,서울특별시 마포구 와우산로23길 20-27 (서교동),126.924712,37.55474,옥외대피소,3465.0
338,1144000000,경성고등학교 운동장,서울특별시,마포구,서울특별시 마포구 성미산로 111(연남동),126.919445,37.563111,옥외대피소,11801.0
339,1144000000,성서중학교 운동장 ,서울특별시,마포구,서울특별시 마포구 성산로4길 42(성산동),126.9084,37.5631,옥외대피소,2795.0
340,1132000000,덕성여자대학교 운동장,서울특별시,도봉구,서울특별시 도봉구 삼양로144길 33(쌍문동),127.017703,37.649934,옥외대피소,71693.0
341,1141000000,이화금란중학교 운동장,서울특별시,서대문구,서울특별시 서대문구 성산로 520(대신동),126.9449,37.5626,옥외대피소,8514.0
342,1141000000,연세대학교 운동장,서울특별시,서대문구,서울특별시 서대문구 연세로 50(신촌동),126.933436,37.562213,옥외대피소,12645.0
343,1129000000,장위초등학교 운동장,서울특별시,성북구,서울특별시 성북구 장월로8가길 41(장위동),127.050028,37.611671,옥외대피소,3462.0
344,1138000000,은평초등학교 운동장,서울특별시,은평구,서울특별시 은평구 은평로 239(녹번동),126.934441,37.601627,옥외대피소,14908.0
345,1138000000,동명여자고등학교 운동장,서울특별시,은평구,서울특별시 은평구 통일로 793(대조동),126.923967,37.613907,옥외대피소,30554.0
346,1168000000,학동초등학교 운동장,서울특별시,강남구,서울특별시 강남구 선릉로115길 42(논현동),127.039891,37.512036,옥외대피소,1820.0
347,1129000000,석계초등학교 운동장,서울특별시,성북구,서울특별시 성북구 한천로58길 273(석관동),127.069672,37.6081,옥외대피소,2890.0
348,1129000000,석관고등학교 운동장,서울특별시,성북구,서울특별시 성북구 한천로70길 30(석관동),127.06664,37.608988,옥외대피소,6064.0
349,1156000000,영등포초등학교 운동장,서울특별시,영등포구,서울특별시 영등포구 경인로 756(문래동1가),126.898366,37.512628,옥외대피소,5661.7
350,1141000000,연가초등학교 운동장,서울특별시,서대문구,서울특별시 서대문구 증가로12가길 49-50 (남가좌동),126.918101,37.579733,옥외대피소,2401.0
351,1156000000,영신초등학교 운동장,서울특별시,영등포구,서울특별시 영등포구 도신로60길 23(신길동),126.91819,37.509711,옥외대피소,3195.2
352,1156000000,대방초등학교 운동장,서울특별시,영등포구,서울특별시 영등포구 여의대방로35길 14(신길동),126.918912,37.502377,옥외대피소,3000.0
353,1159000000,영등포고등학교 운동장,서울특별시,동작구,서울특별시 동작구 등용로8길 5(대방동),126.933834,37.507989,옥외대피소,5241.0
354,1132000000,도봉중학교 운동장,서울특별시,도봉구,서울특별시 도봉구 마들로 671(도봉동),127.045554,37.670191,옥외대피소,3375.0
355,1159000000,강남초등학교 운동장,서울특별시,동작구,서울특별시 동작구 강남초등길 15(상도1동),126.952702,37.505908,옥외대피소,4100.0
356,1159000000,은로초등학교 운동장,서울특별시,동작구,서울특별시 동작구 서달로 115(흑석동),126.960177,37.503732,옥외대피소,3654.0
357,1159000000,남성중학교 운동장,서울특별시,동작구,서울특별시 동작구 남부순환로269길 166(사당동),126.972369,37.478723,옥외대피소,2450.0
358,1132000000,방학초등학교 운동장,서울특별시,도봉구,서울특별시 도봉구 도당로9길 34(방학동),127.03234,37.663672,옥외대피소,436.0
359,1141000000,이화금란고등학교 운동장,서울특별시,서대문구,서울특별시 서대문구 성산로 560(대신동),126.947154,37.565681,옥외대피소,3288.0
360,1138000000,구산초등학교 운동장,서울특별시,은평구,서울특별시 은평구 갈현로15길 20-23 (구산동),126.908965,37.609489,옥외대피소,8588.0
361,1132000000,쌍문초등학교 운동장,서울특별시,도봉구,서울특별시 도봉구 우이천로 360(쌍문동),127.024206,37.648693,옥외대피소,1836.0
362,1171000000,아시아공원,서울특별시,송파구,서울특별시 송파구 올림픽로 44(잠실동),127.077893,37.510285,옥외대피소,65818.0
363,1141000000,창서초등학교 운동장,서울특별시,서대문구,서울특별시 서대문구 연세로5나길 30-3 (창천동),126.934055,37.557516,옥외대피소,2874.0
364,1129000000,경동고등학교 운동장,서울특별시,성북구,서울특별시 성북구 보문로29길 49(삼선동3가),127.014996,37.585699,옥외대피소,10750.0
365,1159000000,경문고등학교운동장,서울특별시,동작구,서울특별시 동작구 동작대로 171(동작동),126.981614,37.49175,옥외대피소,10503.0
366,1144000000,공덕소공원(법원및쉼터),서울특별시,마포구,서울특별시 마포구 공덕동 475-1,126.954557,37.548403,옥외대피소,689.0
367,1165000000,신중초등학교 운동장,서울특별시,서초구,서울특별시 서초구 남부순환로317길 15(서초동),127.009714,37.480106,옥외대피소,15696.0
368,1165000000,동덕여자고등학교 운동장,서울특별시,서초구,서울특별시 서초구 방배동 산 82,126.992721,37.476326,옥외대피소,5015.0
369,1165000000,우암초등학교 운동장,서울특별시,서초구,서울특별시 서초구 바우뫼로7길 38(우면동),127.024738,37.471787,옥외대피소,4881.0
698,1168000000,대청초등학교 운동장,서울특별시,강남구,서울특별시 강남구 양재대로55길 28(일원동),127.08791,37.492732,옥외대피소,4000.0
699,1168000000,중동중학교 운동장,서울특별시,강남구,서울특별시 강남구 일원로8길 37(일원동),127.077793,37.488896,옥외대피소,4641.0
700,1111000000,평창공원,서울특별시,종로구,서울특별시 종로구 평창동 108-3,126.977904,37.610551,옥외대피소,913.0
701,1117000000,성심여자중고등학교 운동장,서울특별시,용산구,서울특별시 용산구 원효로19길 49(원효로4가),126.954562,37.533871,옥외대피소,2006.0
702,1165000000,명주근린공원,서울특별시,서초구,서울특별시 서초구 잠원동 50-4,127.015168,37.517175,옥외대피소,4952.0
703,1165000000,반원어린이공원,서울특별시,서초구,서울특별시 서초구 신반포로23길 48(잠원동),127.003102,37.509517,옥외대피소,3716.0
704,1168000000,개원중학교 운동장,서울특별시,강남구,서울특별시 강남구 영동대로 101(개포동),127.071384,37.49129,옥외대피소,5500.0
705,1168000000,경기여자고등학교 운동장,서울특별시,강남구,서울특별시 강남구 삼성로 29(개포동),127.06592,37.486241,옥외대피소,8292.0
706,1117000000,이태원 어린이공원,서울특별시,용산구,서울특별시 용산구 회나무로6길 11-8 (이태원동),126.989272,37.538478,옥외대피소,2692.0
707,1168000000,배밭근린공원,서울특별시,강남구,서울특별시 강남구 개포로 409-1 (개포동),127.062458,37.488843,옥외대피소,11627.0
708,1168000000,삼성목련공원,서울특별시,강남구,서울특별시 강남구 삼성동 55-1,127.054043,37.518573,옥외대피소,1000.0
709,1168000000,세명근린공원,서울특별시,강남구,서울특별시 강남구 자곡동 625,127.090417,37.469021,옥외대피소,2000.0
710,1168000000,탄천근린공원,서울특별시,강남구,서울특별시 강남구 수서동 722,127.10652,37.487601,옥외대피소,10011.0
711,1168000000,압구정중학교 운동장,서울특별시,강남구,서울특별시 강남구 압구정로 225(압구정동),127.033073,37.529748,옥외대피소,6600.0
712,1168000000,역삼장미공원,서울특별시,강남구,서울특별시 강남구 역삼동 780-25,127.04481,37.495307,옥외대피소,880.0
713,1165000000,사도감어린이공원,서울특별시,서초구,서울특별시 서초구 서초동 1359-12,127.03132,37.485717,옥외대피소,642.0
714,1165000000,서초초등학교 운동장,서울특별시,서초구,서울특별시 서초구 서운로 178(서초동),127.024168,37.499145,옥외대피소,6535.0
715,1165000000,이수초등학교 운동장,서울특별시,서초구,서울특별시 서초구 방배천로4길 23(방배동),126.984582,37.478062,옥외대피소,5666.0
716,1117000000,한강중학교 운동장,서울특별시,용산구,서울특별시 용산구 녹사평대로 73(서빙고동),126.991611,37.524248,옥외대피소,6867.0
717,1168000000,대곡초등학교 운동장,서울특별시,강남구,서울특별시 강남구 남부순환로 3022(대치동),127.065244,37.494405,옥외대피소,4700.0
718,1168000000,은광여자고등학교(은성중) 운동장,서울특별시,강남구,서울특별시 강남구 남부순환로359길 36(도곡동),127.036332,37.487276,옥외대피소,7000.0
719,1168000000,신사은행나무공원,서울특별시,강남구,서울특별시 강남구 신사동 558,127.026036,37.520584,옥외대피소,650.0
720,1168000000,일원초등학교 운동장,서울특별시,강남구,서울특별시 강남구 영동대로4길 20(일원동),127.076421,37.489395,옥외대피소,5400.0
721,1168000000,중산고등학교 운동장,서울특별시,강남구,서울특별시 강남구 일원로14길 22(일원동),127.080595,37.48534,옥외대피소,4873.0
722,1120000000,응봉초등학교 운동장,서울특별시,성동구,서울특별시 성동구 응봉동 217-4,127.034959,37.551212,옥외대피소,3905.0
723,1165000000,원촌초등학교 운동장,서울특별시,서초구,서울특별시 서초구 사평대로45길 10(반포동),127.0141,37.505996,옥외대피소,6816.0
724,1165000000,새말어린이공원,서울특별시,서초구,서울특별시 서초구 방배동 794-16,126.988614,37.493331,옥외대피소,853.0
725,1165000000,서울웹툰애니메이션고등학교 운동장,서울특별시,서초구,서울특별시 서초구 과천대로 852-23 (방배동),126.988537,37.46959,옥외대피소,2360.0
726,1168000000,개포동근린공원,서울특별시,강남구,서울특별시 강남구 개포로 509(개포동),127.069229,37.490555,옥외대피소,9706.0
727,1117000000,응봉근린공원(매봉산공원),서울특별시,용산구,서울특별시 용산구 한남동 산 8-1,127.004871,37.54439,옥외대피소,4141.0
728,1168000000,언북중학교 운동장,서울특별시,강남구,서울특별시 강남구 도산대로38길 27(논현동),127.033293,37.51889,옥외대피소,4000.0
729,1168000000,삼성까치공원,서울특별시,강남구,서울특별시 강남구 삼성동 85,127.06071,37.51824,옥외대피소,630.0
730,1168000000,율현초등학교 운동장,서울특별시,강남구,서울특별시 강남구 밤고개로21길 15(자곡동),127.108709,37.474498,옥외대피소,1900.0
731,1168000000,도담공원,서울특별시,강남구,서울특별시 강남구 세곡동 548,127.098627,37.46728,옥외대피소,1900.0
732,1168000000,역삼은행나무공원,서울특별시,강남구,서울특별시 강남구 역삼동 611,127.031249,37.505447,옥외대피소,700.0
733,1168000000,역삼중학교 운동장,서울특별시,강남구,서울특별시 강남구 도곡로43길 10(역삼동),127.048726,37.495589,옥외대피소,4200.0
734,1154500000,금산초등학교 운동장,서울특별시,금천구,서울특별시 금천구 시흥대로24길 57(시흥동),126.908166,37.441878,옥외대피소,5313.0
735,1150000000,영일고등학교 운동장,서울특별시,강서구,서울특별시 강서구 등촌로51가길 26(등촌동),126.86171,37.547922,옥외대피소,2332.0
736,1141000000,홍연초등학교 운동장,서울특별시,서대문구,서울특별시 서대문구 백련사길 55(홍은동),126.931016,37.581559,옥외대피소,560.0
737,1165000000,방배1동 공영주차장,서울특별시,서초구,서울특별시 서초구 방배로23길 31-6 (방배동),126.992487,37.485346,옥외대피소,631.0
738,1117000000,한남어린이공원,서울특별시,용산구,서울특별시 용산구 한남동 15-5,127.013859,37.537241,옥외대피소,490.0
739,1168000000,세곡중학교 운동장,서울특별시,강남구,서울특별시 강남구 자곡로 81(자곡동),127.092497,37.471622,옥외대피소,2433.0
740,1168000000,세곡천공원,서울특별시,강남구,서울특별시 강남구 세곡동 522-1,127.101284,37.463208,옥외대피소,1200.0
741,1150000000,소나무 어린이 공원,서울특별시,강서구,서울특별시 강서구 화곡동 29-31,126.847839,37.547091,옥외대피소,876.0
742,1168000000,수서중학교 운동장,서울특별시,강남구,서울특별시 강남구 광평로59길 57(수서동),127.102691,37.49076,옥외대피소,2728.0
743,1168000000,압구정고등학교 운동장,서울특별시,강남구,서울특별시 강남구 압구정로39길 20(압구정동),127.032781,37.53075,옥외대피소,5903.0
744,1120000000,광희중학교 운동장,서울특별시,성동구,서울특별시 성동구 독서당로62길 46(응봉동),127.034603,37.551478,옥외대피소,3927.0
745,1120000000,옥정초등학교 운동장,서울특별시,성동구,서울특별시 성동구 한림말길 43(옥수동),127.015792,37.541685,옥외대피소,2006.0
746,1144000000,삼개어린이공원,서울특별시,마포구,서울특별시 마포구 토정로37길 12(도화동),126.945191,37.540662,옥외대피소,2314.0
747,1156000000,서강어린이공원,서울특별시,영등포구,서울특별시 영등포구 영등포동8가 28,126.905887,37.525877,옥외대피소,1811.6
748,1120000000,응봉동둔치 체육공원,서울특별시,성동구,서울특별시 성동구 응봉동 237-1,127.037256,37.551712,옥외대피소,34800.0
749,1138000000,불광어린이공원,서울특별시,은평구,서울특별시 은평구 불광동 236-5,126.931435,37.616373,옥외대피소,570.0
750,1111000000,감나무골공원,서울특별시,종로구,서울특별시 종로구 평창동 495-4,126.970316,37.612759,옥외대피소,2507.0
751,1168000000,역삼초등학교 운동장,서울특별시,강남구,서울특별시 강남구 강남대로66길 21(역삼동),127.032734,37.492636,옥외대피소,2650.0
752,1162000000,사당초등학교 운동장,서울특별시,관악구,서울특별시 관악구 남현4길 51(남현동),126.974396,37.474147,옥외대피소,11638.0
753,1162000000,남서울중학교 운동장,서울특별시,관악구,서울특별시 관악구 남부순환로172길 97(신림동),126.921476,37.481857,옥외대피소,9960.0
754,1111000000,참샘골공원,서울특별시,종로구,서울특별시 종로구 평창동 470,126.974614,37.615101,옥외대피소,2585.0
755,1111000000,원서공원,서울특별시,종로구,서울특별시 종로구 창덕궁길 19(원서동),126.988655,37.57828,옥외대피소,767.0
756,1162000000,군인아파트 어린이공원,서울특별시,관악구,서울특별시 관악구 남현동 602-143,126.978956,37.471833,옥외대피소,817.0
757,1162000000,신림고등학교 운동장,서울특별시,관악구,서울특별시 관악구 문성로 119(신림동),126.917239,37.478363,옥외대피소,6386.0
758,1162000000,난우중학교 운동장,서울특별시,관악구,서울특별시 관악구 난곡로16길 32(신림동),126.922534,37.466686,옥외대피소,2770.0
759,1162000000,신림초등학교 운동장,서울특별시,관악구,서울특별시 관악구 문성로28길 31(신림동),126.927498,37.477553,옥외대피소,4252.0
760,1150000000,꿈돌이 어린이공원,서울특별시,강서구,서울특별시 강서구 화곡로 234(화곡동),126.845362,37.545908,옥외대피소,1549.0
761,1150000000,한광고등학교 운동장,서울특별시,강서구,서울특별시 강서구 화곡동 488-3,126.858176,37.538665,옥외대피소,2652.0
762,1138000000,연신중학교 운동장,서울특별시,은평구,서울특별시 은평구 연서로33길 16-32 (불광동),126.925261,37.62318,옥외대피소,5635.0
763,1130500000,수유일공원(삼각산공원),서울특별시,강북구,서울특별시 강북구 수유동 605-399,127.017267,37.630439,옥외대피소,2459.0
764,1144000000,물빛문화공원,서울특별시,마포구,서울특별시 마포구 상암동 1608,126.893142,37.580133,옥외대피소,3014.0
765,1144000000,서교어린이공원,서울특별시,마포구,서울특별시 마포구 양화로11길 21(서교동),126.915428,37.551859,옥외대피소,1417.0
766,1144000000,토정어린이공원,서울특별시,마포구,서울특별시 마포구 용강동 508-3,126.943462,37.540846,옥외대피소,1965.0
767,1156000000,평화어린이공원,서울특별시,영등포구,"서울특별시 영등포구 63로 45(여의도동, 여의도시범아파트)",126.938256,37.521155,옥외대피소,1036.0
768,1150000000,명덕여자고등학교 운동장,서울특별시,강서구,서울특별시 강서구 강서로47길 34-10 (내발산동),126.834339,37.554526,옥외대피소,6399.0
769,1150000000,공항중학교 운동장,서울특별시,강서구,서울특별시 강서구 방화대로 241(공항동),126.815064,37.5625,옥외대피소,3294.0
770,1144000000,휴암문화공원,서울특별시,마포구,"서울특별시 마포구 월드컵북로 501(상암동, 상암월드컵파크9단지)",126.878715,37.583493,옥외대피소,5137.0
771,1138000000,역말어린이공원,서울특별시,은평구,서울특별시 은평구 갈현로14길 32(역촌동),126.9141,37.606813,옥외대피소,944.0
772,1156000000,당산서중학교 운동장,서울특별시,영등포구,서울특별시 영등포구 당산로41길 12(당산동5가),126.898602,37.531952,옥외대피소,4640.0
773,1130500000,하늘어린이공원,서울특별시,강북구,서울특별시 강북구 미아동 791-3853,127.012984,37.624575,옥외대피소,3268.0
774,1141000000,가재울어린이공원,서울특별시,서대문구,서울특별시 서대문구 남가좌동 385-2,126.9194,37.573,옥외대피소,9125.0
775,1141000000,은가어린이공원,서울특별시,서대문구,서울특별시 서대문구 북가좌동 3-39,126.919469,37.582718,옥외대피소,1312.0
776,1144000000,상암중학교 운동장,서울특별시,마포구,서울특별시 마포구 상암산로1길 26(상암동),126.88795,37.578853,옥외대피소,4474.0
777,1174000000,고덕초등학교 운동장,서울특별시,강동구,서울특별시 강동구 아리수로82길 42(고덕동),127.1666,37.560633,옥외대피소,2500.0
778,1138000000,서갈현공원,서울특별시,은평구,서울특별시 은평구 갈현로35길 12-8 (갈현동),126.915788,37.62153,옥외대피소,1428.0
779,1156000000,당중초등학교 운동장,서울특별시,영등포구,서울특별시 영등포구 선유로 131(양평동3가),126.890218,37.525771,옥외대피소,17024.0
780,1132000000,자운초등학교 운동장,서울특별시,도봉구,서울특별시 도봉구 마들로13길 166(창동),127.046655,37.657531,옥외대피소,8244.0
781,1156000000,문래초등학교 운동장,서울특별시,영등포구,서울특별시 영등포구 문래로 104(문래동3가),126.893332,37.518685,옥외대피소,2288.1
782,1150000000,서울백영고등학교 운동장,서울특별시,강서구,서울특별시 강서구 방화대로34길 13(마곡동),126.817445,37.569468,옥외대피소,1960.0
783,1174000000,묘곡초등학교 운동장,서울특별시,강동구,서울특별시 강동구 동남로79길 46(고덕동),127.153314,37.558112,옥외대피소,15334.0
784,1150000000,서울정곡초등학교 운동장,서울특별시,강서구,서울특별시 강서구 방화대로50길 22(방화동),126.81896,37.576434,옥외대피소,1912.0
785,1150000000,경서중학교 운동장,서울특별시,강서구,서울특별시 강서구 양천로59길 31(가양동),126.858848,37.560885,옥외대피소,2834.0
786,1150000000,서울공진초등학교 운동장,서울특별시,강서구,서울특별시 강서구 마곡서로 33(마곡동),126.8229,37.557834,옥외대피소,2479.0
787,1174000000,강동초등학교 운동장,서울특별시,강동구,서울특별시 강동구 상암로14길 77(천호동),127.12997,37.54592,옥외대피소,7452.0
788,1174000000,성내초등학교 운동장,서울특별시,강동구,서울특별시 강동구 성내로3길 19(성내동),127.122109,37.531037,옥외대피소,3323.0
789,1174000000,길동초등학교 운동장,서울특별시,강동구,서울특별시 강동구 양재대로116길 69(길동),127.144635,37.538161,옥외대피소,4120.0
790,1174000000,선린초등학교 운동장,서울특별시,강동구,서울특별시 강동구 진황도로61길 29(둔촌동),127.145783,37.529205,옥외대피소,4732.0
791,1150000000,세현고등학교 운동장,서울특별시,강서구,서울특별시 강서구 허준로 227(가양동),126.864087,37.560023,옥외대피소,1857.0
792,1132000000,창일중학교 운동장,서울특별시,도봉구,서울특별시 도봉구 노해로66길 60(창동),127.047151,37.648433,옥외대피소,9967.0
793,1132000000,신화초등학교 운동장,서울특별시,도봉구,서울특별시 도봉구 우이천로 120(창동),127.041474,37.632296,옥외대피소,14663.0
794,1132000000,오봉초등학교 운동장,서울특별시,도봉구,서울특별시 도봉구 시루봉로 285(도봉동),127.040463,37.671478,옥외대피소,2834.0
795,1174000000,천호중학교 운동장,서울특별시,강동구,서울특별시 강동구 상암로 153(천호동),127.139965,37.546312,옥외대피소,2990.0
796,1162000000,당곡초등학교 운동장,서울특별시,관악구,서울특별시 관악구 보라매로2길 23(봉천동),126.929984,37.490005,옥외대피소,4610.0
797,1165000000,상문고등학교 운동장,서울특별시,서초구,서울특별시 서초구 명달로 45(방배동),127.004312,37.479645,옥외대피소,30783.0
798,1165000000,서초고등학교 운동장,서울특별시,서초구,서울특별시 서초구 반포대로27길 29(서초동),127.006454,37.489261,옥외대피소,13634.0
799,1165000000,원명초등학교 운동장 ,서울특별시,서초구,서울특별시 서초구 고무래로 90-6 (서초동),127.016865,37.500406,옥외대피소,5223.0
800,1165000000,경원중학교 운동장,서울특별시,서초구,서울특별시 서초구 신반포로33길 39(잠원동),127.009448,37.510916,옥외대피소,6400.0
801,1165000000,서래초등학교 운동장,서울특별시,서초구,서울특별시 서초구 방배로 260(방배동),126.98949,37.495959,옥외대피소,2852.0
802,1165000000,양재초등학교 운동장,서울특별시,서초구,서울특별시 서초구 바우뫼로18길 14(양재동),127.032179,37.47382,옥외대피소,4902.0
803,1165000000,우면초등학교 운동장,서울특별시,서초구,서울특별시 서초구 태봉로 59(우면동),127.023846,37.46425,옥외대피소,2129.0
804,1162000000,난향초등학교 운동장,서울특별시,관악구,서울특별시 관악구 난향길 9(신림동),126.918289,37.462207,옥외대피소,4993.0
805,1132000000,효문고등학교운동장,서울특별시,도봉구,서울특별시 도봉구 우이천로 432(쌍문동),127.01776,37.65255,옥외대피소,183.0
806,1162000000,신우초등학교 운동장,서울특별시,관악구,서울특별시 관악구 호암로 498(신림동),126.932425,37.462739,옥외대피소,5114.0
807,1144000000,숭문중고등학교 운동장,서울특별시,마포구,서울특별시 마포구 숭문길 99(대흥동),126.94579,37.551509,옥외대피소,8782.0
808,1174000000,신명중학교 운동장,서울특별시,강동구,서울특별시 강동구 명일로24길 33(길동),127.149417,37.542129,옥외대피소,2904.0
809,1174000000,동명근린공원 축구장,서울특별시,강동구,서울특별시 강동구 아리수로78길 23(고덕동),127.164903,37.561078,옥외대피소,5000.0
810,1156000000,영원초등학교 운동장,서울특별시,영등포구,서울특별시 영등포구 도영로22길 31(영등포동),126.902314,37.510313,옥외대피소,997.9
811,1141000000,정원여자중학교 운동장,서울특별시,서대문구,서울특별시 서대문구 연희로37안길 51(홍은동),126.933133,37.58535,옥외대피소,813.0
812,1144000000,합정동보호수 정자마당,서울특별시,마포구,서울특별시 마포구 합정동 450-6,126.9035,37.5514,옥외대피소,1176.0
813,1144000000,큰더기어린이공원,서울특별시,마포구,서울특별시 마포구 공덕동 470-1,126.953227,37.550493,옥외대피소,1514.0
814,1111000000,재동초등학교 운동장,서울특별시,종로구,서울특별시 종로구 북촌로4길 7(가회동),126.985613,37.579642,옥외대피소,3357.0
815,1156000000,당산중학교 운동장,서울특별시,영등포구,서울특별시 영등포구 버드나루로 160(당산동),126.907271,37.53185,옥외대피소,5081.2
816,1141000000,인왕초등학교 운동장,서울특별시,서대문구,서울특별시 서대문구 세무서길 33-9 (홍제동),126.94506,37.59017,옥외대피소,3596.0
817,1144000000,용강쉼터,서울특별시,마포구,서울특별시 마포구 백범로 79(대흥동),126.94065,37.54864,옥외대피소,673.0
818,1138000000,은빛초등학교 운동장 ,서울특별시,은평구,서울특별시 은평구 진관3로 73-17 (진관동),126.919214,37.642369,옥외대피소,1512.0
819,1138000000,참다래어린이공원,서울특별시,은평구,서울특별시 은평구 응암로25길 8(응암동),126.917336,37.595385,옥외대피소,860.0
820,1120000000,성원어린이 공원,서울특별시,성동구,서울특별시 성동구 상원10길 21(성수동1가),127.050055,37.550213,옥외대피소,633.0
821,1111000000,덕성여자중학교 운동장,서울특별시,종로구,서울특별시 종로구 율곡로3길 49(송현동),126.982122,37.577837,옥외대피소,2560.0
822,1111000000,삼청공원,서울특별시,종로구,서울특별시 종로구 삼청동 산 2-1,126.982164,37.591592,옥외대피소,378440.0
823,1117000000,용산초등학교 운동장,서울특별시,용산구,서울특별시 용산구 한강대로57길 5(한강로2가),126.972366,37.535331,옥외대피소,1450.0
824,1141000000,문화소공원,서울특별시,서대문구,서울특별시 서대문구 세검정로4길 11(홍제동),126.948815,37.594549,옥외대피소,1456.0
825,1174000000,명덕초등학교 운동장,서울특별시,강동구,서울특별시 강동구 양재대로156길 11(고덕동),127.14544,37.556915,옥외대피소,15369.0
826,1174000000,한영고등학교 운동장,서울특별시,강동구,서울특별시 강동구 동남로 832(상일동),127.157354,37.548818,옥외대피소,5380.0
827,1174000000,강동아트센터(잔디광장),서울특별시,강동구,서울특별시 강동구 동남로 870(상일동),127.157489,37.551312,옥외대피소,2300.0
828,1111000000,경기상업고등학교 운동장,서울특별시,종로구,서울특별시 종로구 자하문로 136(청운동),126.97004,37.58815,옥외대피소,10629.0
829,1111000000,내수1근린공원,서울특별시,종로구,서울특별시 종로구 내수동 71-2,126.970553,37.573587,옥외대피소,2703.0
830,1120000000,용답토속공원,서울특별시,성동구,서울특별시 성동구 천호대로 336(용답동),127.056893,37.563215,옥외대피소,4832.0
831,1174000000,성내중학교 운동장,서울특별시,강동구,서울특별시 강동구 성안로7길 36(성내동),127.129545,37.528504,옥외대피소,5162.0
832,1126000000,신현고등학교운동장,서울특별시,중랑구,서울특별시 중랑구 봉화산로 174(상봉동),127.092563,37.604853,옥외대피소,3705.0
833,1121500000,양남초등학교 운동장,서울특별시,광진구,서울특별시 광진구 뚝섬로64길 71(자양동),127.089678,37.530594,옥외대피소,3580.0
834,1174000000,상일여자고등학교 운동장,서울특별시,강동구,서울특별시 강동구 천호대로219길 61(상일동),127.170177,37.549066,옥외대피소,5400.0
835,1129000000,성신여자중학교 운동장,서울특별시,성북구,서울특별시 성북구 동소문로26가길 80(돈암동),127.023493,37.594567,옥외대피소,4056.0
836,1121500000,용곡초등학교 운동장 ,서울특별시,광진구,서울특별시 광진구 용마산로22길 82(중곡동),127.088576,37.566727,옥외대피소,4432.0
837,1144000000,느티나무어린이공원,서울특별시,마포구,서울특별시 마포구 연남로3길 80(연남동),126.918811,37.559662,옥외대피소,826.0
838,1156000000,안양천 영롱이 억새 1~3구장,서울특별시,영등포구,서울특별시 영등포구 영등포로2길 34(문래동6가),126.880685,37.520397,옥외대피소,46340.6
839,1120000000,매봉소공원,서울특별시,성동구,서울특별시 성동구 매봉길 49-29 (옥수동),127.011123,37.545717,옥외대피소,2516.0
840,1117000000,새꿈어린이공원,서울특별시,용산구,서울특별시 용산구 동자동 8-5,126.974147,37.552586,옥외대피소,1594.0
841,1129000000,정덕초등학교 운동장,서울특별시,성북구,서울특별시 성북구 아리랑로 63(동소문동7가),127.013957,37.598062,옥외대피소,2417.0
842,1174000000,동북중고등학교 운동장,서울특별시,강동구,서울특별시 강동구 강동대로 305(둔촌동),127.140146,37.519774,옥외대피소,8304.0
843,1129000000,돈암초등학교 운동장,서울특별시,성북구,서울특별시 성북구 동소문로13길 38(동소문동6가),127.01335,37.593153,옥외대피소,3406.0
844,1121500000,광양중학교 운동장,서울특별시,광진구,서울특별시 광진구 자양로3길 7(자양동),127.086069,37.530258,옥외대피소,3233.0
845,1121500000,건국대부속중학교 운동장,서울특별시,광진구,서울특별시 광진구 능동로 120(화양동),127.082352,37.540651,옥외대피소,5794.0
846,1121500000,광남중학교 운동장,서울특별시,광진구,서울특별시 광진구 아차산로70길 17-62 (광장동),127.101641,37.540172,옥외대피소,2845.0
847,1156000000,신우어린이공원,서울특별시,영등포구,서울특별시 영등포구 가마산로47길 13(대림동),126.89919,37.503317,옥외대피소,3079.5
848,1174000000,명일초등학교 운동장,서울특별시,강동구,서울특별시 강동구 고덕로38길 8(암사동),127.141971,37.554016,옥외대피소,8204.0
849,1162000000,인헌초등학교 운동장,서울특별시,관악구,서울특별시 관악구 낙성대로 23(봉천동),126.960237,37.476371,옥외대피소,8597.0
850,1156000000,대길초등학교 운동장,서울특별시,영등포구,서울특별시 영등포구 대방천로 206(신길동),126.914414,37.49814,옥외대피소,4266.0
851,1156000000,영림초등학교 운동장,서울특별시,영등포구,서울특별시 영등포구 시흥대로173길 14(대림동),126.902966,37.487173,옥외대피소,2228.0
852,1156000000,신영초등학교 운동장,서울특별시,영등포구,서울특별시 영등포구 도신로4길 32(대림동),126.896097,37.500347,옥외대피소,4727.7
853,1120000000,행당초등학교 운동장,서울특별시,성동구,서울특별시 성동구 고산자로8길 6(행당동),127.034548,37.557005,옥외대피소,3705.0
854,1174000000,신암초등학교 운동장,서울특별시,강동구,서울특별시 강동구 올림픽로93길 33-16 (암사동),127.124163,37.54893,옥외대피소,1880.0
855,1156000000,여의도초등학교 운동장,서울특별시,영등포구,서울특별시 영등포구 여의대방로 439(여의도동),126.93625,37.52284,옥외대피소,4824.0
856,1153000000,매봉초등학교 운동장,서울특별시,구로구,서울특별시 구로구 고척로21길 55(개봉동),126.84475,37.504296,옥외대피소,2529.0
857,1174000000,대명초등학교 운동장,서울특별시,강동구,서울특별시 강동구 상암로 271(명일동),127.15329,37.547137,옥외대피소,5550.0
858,1153000000,성베드로학교 운동장,서울특별시,구로구,서울특별시 구로구 연동로 320(항동),126.825479,37.48721,옥외대피소,3284.0
859,1150000000,염경초등학교운동장,서울특별시,강서구,서울특별시 강서구 양천로69길 49(염창동),126.871395,37.55463,옥외대피소,1566.0
860,1153000000,구로초등학교 운동장,서울특별시,구로구,서울특별시 구로구 구로중앙로27나길 21(구로동),126.886248,37.496899,옥외대피소,3657.0
861,1156000000,대림중학교 운동장,서울특별시,영등포구,서울특별시 영등포구 시흥대로185길 6(대림동),126.907604,37.492064,옥외대피소,10265.0
862,1120000000,무학초등학교 운동장,서울특별시,성동구,서울특별시 성동구 무학봉15길 21(하왕십리동),127.029957,37.562729,옥외대피소,3791.0
863,1153000000,개봉중학교 운동장,서울특별시,구로구,서울특별시 구로구 고척로21나길 68(개봉동),126.842059,37.502475,옥외대피소,3190.0
864,1153000000,영서중학교 운동장,서울특별시,구로구,서울특별시 구로구 도림로20길 35(구로동),126.894375,37.488908,옥외대피소,6415.0
865,1156000000,대영초등학교 운동장,서울특별시,영등포구,서울특별시 영등포구 신길로23길 43(신길동),126.905461,37.50234,옥외대피소,2758.3
866,1132000000,창도초등학교 운동장,서울특별시,도봉구,서울특별시 도봉구 방학로 32-28 (방학동),127.049196,37.663726,옥외대피소,7676.0
867,1132000000,신방학중학교 운동장,서울특별시,도봉구,서울특별시 도봉구 시루봉로 156(방학동),127.029363,37.663869,옥외대피소,676.0
868,1132000000,창동고등학교 운동장,서울특별시,도봉구,서울특별시 도봉구 노해로62길 7(창동),127.038602,37.650481,옥외대피소,183.0
869,1150000000,등명중학교 운동장,서울특별시,강서구,서울특별시 강서구 공항대로39길 39(등촌동),126.843167,37.559645,옥외대피소,4099.0
870,1150000000,등촌고등학교 운동장,서울특별시,강서구,서울특별시 강서구 공항대로39길 115(등촌동),126.844418,37.56255,옥외대피소,3104.0
871,1174000000,천동초등학교 운동장,서울특별시,강동구,서울특별시 강동구 성안로 200(길동),127.13753,37.540505,옥외대피소,1567.0
872,1150000000,마포고등학교 운동장,서울특별시,강서구,서울특별시 강서구 화곡로 403(등촌동),126.852859,37.558955,옥외대피소,6399.0
873,1150000000,노을공원,서울특별시,강서구,서울특별시 강서구 화곡동 105-194,126.843943,37.539841,옥외대피소,999.0
874,1150000000,월정초등학교운동장,서울특별시,강서구,서울특별시 강서구 월정로 176(화곡동),126.836305,37.534433,옥외대피소,3336.0
875,1132000000,백운중학교 운동장,서울특별시,도봉구,서울특별시 도봉구 도봉로129길 50(쌍문동),127.035921,37.655844,옥외대피소,183.0
876,1138000000,은명초등학교 운동장,서울특별시,은평구,서울특별시 은평구 은평로4길 21-9 (응암동),126.918606,37.597325,옥외대피소,1920.0
877,1174000000,동신중학교 운동장,서울특별시,강동구,서울특별시 강동구 진황도로 72(천호동),127.133986,37.536465,옥외대피소,1500.0
878,1162000000,난우초등학교 운동장,서울특별시,관악구,서울특별시 관악구 난우길 40(신림동),126.917753,37.476825,옥외대피소,6345.0
879,1156000000,관악고등학교 운동장,서울특별시,영등포구,서울특별시 영등포구 영등포로6길 26(양평동2가),126.882984,37.52134,옥외대피소,18480.0
880,1132000000,자운고등학교 운동장,서울특별시,도봉구,서울특별시 도봉구 노해로69길 150(창동),127.050271,37.658842,옥외대피소,1466.0
881,1138000000,연광초등학교 운동장,서울특별시,은평구,서울특별시 은평구 연서로35길 37(불광동),126.923861,37.62365,옥외대피소,3390.0
882,1138000000,역촌초등학교 운동장,서울특별시,은평구,서울특별시 은평구 은평로3길 25(역촌동),126.914408,37.601629,옥외대피소,12722.0
883,1159000000,상도초등학교 운동장,서울특별시,동작구,서울특별시 동작구 성대로21길 62(상도동),126.937398,37.499492,옥외대피소,1451.0
884,1156000000,문래중학교 운동장,서울특별시,영등포구,서울특별시 영등포구 선유서로13길 6(문래동6가),126.884215,37.520125,옥외대피소,2257.9
885,1141000000,한성중고등학교 운동장,서울특별시,서대문구,서울특별시 서대문구 북아현동 170-1,126.954548,37.560388,옥외대피소,12625.0
886,1159000000,노량진초등학교 운동장,서울특별시,동작구,서울특별시 동작구 장승배기로 160(노량진동),126.940621,37.511295,옥외대피소,2700.0
887,1159000000,신상도초등학교 운동장,서울특별시,동작구,서울특별시 동작구 장승배기로 14(상도동),126.943785,37.499926,옥외대피소,2595.0
888,1159000000,강현중학교운동장,서울특별시,동작구,서울특별시 동작구 상도로13라길 22(상도동),126.931425,37.5031,옥외대피소,3215.0
889,1159000000,문창중학교 운동장,서울특별시,동작구,서울특별시 동작구 여의대방로22나길 40(신대방동),126.921651,37.495749,옥외대피소,3160.0
890,1117000000,서빙고초등학교 운동장,서울특별시,용산구,서울특별시 용산구 서빙고로51길 14(서빙고동),126.991524,37.521266,옥외대피소,5653.0
891,1165000000,서초중학교 운동장,서울특별시,서초구,서울특별시 서초구 반포대로13길 48(서초동),127.008653,37.485204,옥외대피소,12123.0
892,1120000000,숭신초등학교 운동장,서울특별시,성동구,서울특별시 성동구 마장로 161(하왕십리동),127.027599,37.567456,옥외대피소,434.0
893,1120000000,동명초등학교 운동장,서울특별시,성동구,서울특별시 성동구 마장로29길 29(마장동),127.035728,37.568377,옥외대피소,4256.0
894,1117000000,금양초등학교 운동장,서울특별시,용산구,서울특별시 용산구 효창원로 137(효창동),126.961213,37.540353,옥외대피소,2622.0
895,1168000000,도곡초등학교 운동장,서울특별시,강남구,서울특별시 강남구 선릉로64길 33(대치동),127.054664,37.499055,옥외대피소,5000.0
896,1165000000,세화여자고등학교 운동장,서울특별시,서초구,서울특별시 서초구 신반포로 56-7 (반포동),126.991891,37.50166,옥외대피소,8066.0
897,1120000000,금북초등학교 운동장,서울특별시,성동구,서울특별시 성동구 행당로1길 13(금호동1가),127.023425,37.556997,옥외대피소,1719.0
898,1174000000,상일초등학교 운동장,서울특별시,강동구,서울특별시 강동구 천호대로 1477(상일동),127.172364,37.546988,옥외대피소,2180.0
899,1174000000,고명초등학교 운동장,서울특별시,강동구,서울특별시 강동구 고덕로46길 53(명일동),127.146865,37.55265,옥외대피소,3000.0
900,1174000000,천호초등학교 운동장,서울특별시,강동구,서울특별시 강동구 구천면로 310-11 (천호동),127.136207,37.54706,옥외대피소,1850.0
901,1117000000,이태원초등학교 운동장,서울특별시,용산구,서울특별시 용산구 이태원동 406,126.987901,37.5357,옥외대피소,1408.0
902,1129000000,동신초등학교 운동장,서울특별시,성북구,서울특별시 성북구 보문동3가 228,127.017203,37.582852,옥외대피소,3589.0
903,1141000000,홍은초등학교 운동장,서울특별시,서대문구,서울특별시 서대문구 세검정로 105(홍제동),126.949661,37.597229,옥외대피소,1299.0
904,1159000000,수도여자고등학교 운동장,서울특별시,동작구,서울특별시 동작구 여의대방로10길 73(신대방동),126.915531,37.492853,옥외대피소,2904.0
905,1141000000,북가좌초등학교 운동장,서울특별시,서대문구,서울특별시 서대문구 거북골로19길 20(북가좌동),126.907933,37.578108,옥외대피소,2544.0
906,1165000000,원촌중학교 운동장,서울특별시,서초구,서울특별시 서초구 사평대로45길 10(반포동),127.014264,37.506018,옥외대피소,6544.0
907,1144000000,성산중학교 운동장 ,서울특별시,마포구,서울특별시 마포구 성지1길 32-13 (합정동),126.915787,37.547135,옥외대피소,4898.0
908,1168000000,신구초등학교 운동장,서울특별시,강남구,서울특별시 강남구 압구정로18길 28(신사동),127.024278,37.523093,옥외대피소,5000.0
909,1168000000,언주중학교 운동장,서울특별시,강남구,서울특별시 강남구 선릉로116길 45(삼성동),127.046914,37.514277,옥외대피소,4743.0
910,1144000000,아현녹지쉼터,서울특별시,마포구,서울특별시 마포구 아현동 704,126.962762,37.557028,옥외대피소,6745.0
911,1168000000,세명초등학교 운동장,서울특별시,강남구,서울특별시 강남구 세곡동 529,127.091313,37.468732,옥외대피소,1365.0
912,1165000000,신동중학교 운동장,서울특별시,서초구,서울특별시 서초구 나루터로 27(잠원동),127.013027,37.516242,옥외대피소,11331.0
913,1117000000,남정초등학교 운동장,서울특별시,용산구,서울특별시 용산구 원효로64길 17-10 (원효로2가),126.965065,37.535962,옥외대피소,2767.0
914,1150000000,서울탑산초등학교 운동장,서울특별시,강서구,서울특별시 강서구 허준로 109(가양동),126.852409,37.566687,옥외대피소,2379.0
915,1150000000,화곡보건경영고등학교 운동장,서울특별시,강서구,서울특별시 강서구 강서로45길 70(내발산동),126.832951,37.548648,옥외대피소,3027.0
916,1171000000,잠실초등학교 운동장,서울특별시,송파구,서울특별시 송파구 올림픽로35길 20(신천동),127.111015,37.519925,옥외대피소,1785.0
917,1171000000,가락중학교 운동장,서울특별시,송파구,서울특별시 송파구 송이로 45(송파동),127.118298,37.502116,옥외대피소,6944.0
918,1150000000,서울공항초등학교 운동장,서울특별시,강서구,서울특별시 강서구 마곡서1로 68(마곡동),126.821612,37.562915,옥외대피소,2316.0
919,1150000000,마곡중학교 운동장,서울특별시,강서구,서울특별시 강서구 마곡중앙5로 58(마곡동),126.821403,37.567788,옥외대피소,2310.0
920,1150000000,한서고등학교 운동장,서울특별시,강서구,서울특별시 강서구 양천로11길 47(방화동),126.808421,37.574426,옥외대피소,2551.0
921,1150000000,마곡나루근린공원,서울특별시,강서구,서울특별시 강서구 마곡동 743-3,126.821966,37.566372,옥외대피소,11447.0
922,1150000000,서울방화초등학교 운동장,서울특별시,강서구,서울특별시 강서구 양천로6길 92(방화동),126.806964,37.568496,옥외대피소,2145.0
923,1171000000,송전초등학교 운동장,서울특별시,송파구,서울특별시 송파구 석촌호수로 159(잠실동),127.094555,37.50837,옥외대피소,2260.0
924,1171000000,보성고등학교 운동장,서울특별시,송파구,서울특별시 송파구 양재대로 1278(방이동),127.134001,37.51962,옥외대피소,8119.0
925,1150000000,강서공업고등학교 운동장,서울특별시,강서구,서울특별시 강서구 방화대로47길 9(방화동),126.81566,37.575454,옥외대피소,1748.0
926,1171000000,신가초등학교 운동장,서울특별시,송파구,서울특별시 송파구 송이로 75(가락동),127.120055,37.499996,옥외대피소,5768.0
603,1168000000,학여울근린공원,서울특별시,강남구,서울특별시 강남구 개포로 509(개포동),127.068806,37.490349,옥외대피소,12506.0
604,1168000000,구룡초등학교 운동장,서울특별시,강남구,서울특별시 강남구 개포로 263(개포동),127.051967,37.480721,옥외대피소,5400.0
605,1168000000,논현소나무공원,서울특별시,강남구,서울특별시 강남구 논현동 239,127.037476,37.515707,옥외대피소,800.0
606,1168000000,대청중학교 운동장,서울특별시,강남구,서울특별시 강남구 양재천로 321(대치동),127.058616,37.489978,옥외대피소,4300.0
607,1168000000,중대부속고등학교 운동장,서울특별시,강남구,서울특별시 강남구 선릉로 207(도곡동),127.051985,37.492405,옥외대피소,9107.0
608,1168000000,독골근린공원,서울특별시,강남구,서울특별시 강남구 남부순환로378길 29(도곡동),127.046973,37.485109,옥외대피소,2000.0
609,1168000000,도곡목련공원,서울특별시,강남구,서울특별시 강남구 도곡동 415-3,127.044313,37.484962,옥외대피소,400.0
610,1162000000,은천초등학교 운동장,서울특별시,관악구,서울특별시 관악구 은천로 69(봉천동),126.942929,37.48673,옥외대피소,2967.0
611,1120000000,용답초등학교 운동장,서울특별시,성동구,서울특별시 성동구 천호대로78길 54(용답동),127.054158,37.560326,옥외대피소,6034.0
612,1165000000,명달근린공원,서울특별시,서초구,서울특별시 서초구 서운로23길 17(서초동),127.021073,37.498515,옥외대피소,3355.0
613,1117000000,용강중학교 운동장,서울특별시,용산구,서울특별시 용산구 이촌로65가길 91(이촌동),126.976522,37.520845,옥외대피소,3633.0
614,1168000000,개일초등학교 운동장,서울특별시,강남구,서울특별시 강남구 개포로 401(개포동),127.058039,37.485711,옥외대피소,4800.0
615,1117000000,소월길 어린이공원,서울특별시,용산구,서울특별시 용산구 이태원동 511,126.989301,37.543543,옥외대피소,570.0
616,1117000000,한남초등학교 운동장,서울특별시,용산구,서울특별시 용산구 한남대로 112(한남동),127.004929,37.539073,옥외대피소,9810.0
617,1168000000,경기고등학교 운동장,서울특별시,강남구,서울특별시 강남구 영동대로 643(삼성동),127.057064,37.51746,옥외대피소,13000.0
618,1168000000,샘터근린공원,서울특별시,강남구,서울특별시 강남구 삼성동 16-4,127.047407,37.515366,옥외대피소,550.0
619,1168000000,못골아래근린공원,서울특별시,강남구,서울특별시 강남구 자곡동 607,127.09767,37.472904,옥외대피소,7500.0
620,1168000000,행복공원,서울특별시,강남구,서울특별시 강남구 세곡동 546,127.097122,37.467268,옥외대피소,1200.0
621,1168000000,왕북초등학교 운동장,서울특별시,강남구,서울특별시 강남구 광평로31길 74(수서동),127.086721,37.486065,옥외대피소,3074.0
622,1168000000,신사중학교 운동장,서울특별시,강남구,서울특별시 강남구 압구정로 123(압구정동),127.021293,37.524249,옥외대피소,7980.0
623,1168000000,갈매기근린공원,서울특별시,강남구,서울특별시 강남구 압구정동 480,127.034632,37.531868,옥외대피소,3600.0
624,1168000000,역삼소나무공원,서울특별시,강남구,서울특별시 강남구 역삼동 836-21,127.033699,37.490979,옥외대피소,450.0
625,1168000000,충현공원,서울특별시,강남구,서울특별시 강남구 역삼동 666-2,127.036509,37.504759,옥외대피소,800.0
626,1162000000,까치산근린공원,서울특별시,관악구,서울특별시 관악구 봉천동 산 66-1,126.967004,37.477808,옥외대피소,1294.0
627,1162000000,남강고등학교 운동장,서울특별시,관악구,서울특별시 관악구 난곡로34길 80(신림동),126.925127,37.472333,옥외대피소,18963.0
628,1162000000,호박골어린이공원,서울특별시,관악구,서울특별시 관악구 신림동 1580-22,126.923965,37.481993,옥외대피소,422.0
629,1120000000,성수초등학교 운동장,서울특별시,성동구,서울특별시 성동구 아차산로17길 21(성수동2가),127.06388,37.54407,옥외대피소,1560.0
630,1168000000,대청근린공원,서울특별시,강남구,서울특별시 강남구 개포로124길 24(일원동),127.082539,37.492652,옥외대피소,2200.0
631,1168000000,영동고등학교 운동장,서울특별시,강남구,서울특별시 강남구 선릉로 742(청담동),127.041983,37.52044,옥외대피소,12272.0
632,1168000000,청수근린공원,서울특별시,강남구,서울특별시 강남구 청담동 134-13,127.058419,37.523298,옥외대피소,2200.0
633,1168000000,청담은행나무공원,서울특별시,강남구,서울특별시 강남구 도산대로67길 15(청담동),127.044038,37.525139,옥외대피소,650.0
634,1162000000,미도어린이공원,서울특별시,관악구,서울특별시 관악구 신림동 675-200,126.915296,37.462839,옥외대피소,1025.0
635,1165000000,싸리재공원,서울특별시,서초구,서울특별시 서초구 잠원동 30-10,127.018227,37.513346,옥외대피소,991.0
636,1165000000,언남고등학교 운동장,서울특별시,서초구,서울특별시 서초구 동산로13길 35(양재동),127.043369,37.473046,옥외대피소,6087.0
637,1168000000,늘푸른근린공원,서울특별시,강남구,서울특별시 강남구 일원동 690,127.077512,37.489927,옥외대피소,1500.0
638,1168000000,봉은초등학교 운동장,서울특별시,강남구,서울특별시 강남구 학동로 610(삼성동),127.060553,37.520632,옥외대피소,2928.0
639,1159000000,보라매공원,서울특별시,동작구,서울특별시 동작구 신대방동 395,126.920052,37.492514,옥외대피소,80595.0
640,1159000000,대방공원,서울특별시,동작구,서울특별시 동작구 대방동 23-176,126.927186,37.507173,옥외대피소,10656.0
641,1121500000,자양고등학교 운동장,서울특별시,광진구,서울특별시 광진구 뚝섬로37길 28(자양동),127.072672,37.535233,옥외대피소,4183.0
642,1121500000,신자초등학교 운동장,서울특별시,광진구,서울특별시 광진구 뚝섬로46길 64(자양동),127.075452,37.52999,옥외대피소,2261.0
643,1162000000,관악초등학교 운동장,서울특별시,관악구,서울특별시 관악구 청룡4길 49(봉천동),126.943615,37.480673,옥외대피소,3124.0
644,1162000000,쑥고개어린이공원,서울특별시,관악구,서울특별시 관악구 신림동 1564-68,126.940801,37.475861,옥외대피소,1049.0
645,1162000000,광신고등학교 운동장,서울특별시,관악구,서울특별시 관악구 광신길 141(신림동),126.926009,37.464621,옥외대피소,17577.0
646,1174000000,두레근린공원,서울특별시,강동구,서울특별시 강동구 고덕동 497,127.152234,37.557975,옥외대피소,13549.0
647,1120000000,왕십리광장,서울특별시,성동구,서울특별시 성동구 행당동 192-3,127.037222,37.561572,옥외대피소,10067.0
648,1120000000,무학중학교 운동장,서울특별시,성동구,서울특별시 성동구 행당로 120(행당동),127.032235,37.557362,옥외대피소,1800.0
649,1165000000,우솔초등학교 운동장,서울특별시,서초구,서울특별시 서초구 양재대로2길 74(우면동),127.019437,37.456834,옥외대피소,1461.0
650,1165000000,언남중학교 운동장,서울특별시,서초구,서울특별시 서초구 동산로 55(양재동),127.044262,37.47209,옥외대피소,3838.0
651,1138000000,세명컴퓨터고등학교 운동장,서울특별시,은평구,서울특별시 은평구 통일로92가길 33(불광동),126.923422,37.627514,옥외대피소,2260.0
652,1165000000,당골어린이공원,서울특별시,서초구,서울특별시 서초구 효령로68길 49-3 (서초동),127.022663,37.485591,옥외대피소,591.0
653,1165000000,서운중학교 운동장,서울특별시,서초구,서울특별시 서초구 서운로 115(서초동),127.024789,37.493607,옥외대피소,13613.0
654,1117000000,중경고등학교 운동장,서울특별시,용산구,서울특별시 용산구 이촌로84길 34(이촌동),126.975529,37.517398,옥외대피소,4518.0
655,1168000000,풍문고등학교 운동장,서울특별시,강남구,서울특별시 강남구 자곡로 152(자곡동),127.100907,37.471643,옥외대피소,2392.0
656,1168000000,못골공원,서울특별시,강남구,서울특별시 강남구 자곡동 447-23,127.100075,37.473622,옥외대피소,300.0
657,1168000000,대왕공원,서울특별시,강남구,서울특별시 강남구 헌릉로590길 33(세곡동),127.104593,37.46237,옥외대피소,1000.0
658,1168000000,신사근린공원,서울특별시,강남구,서울특별시 강남구 압구정동 422,127.021059,37.526444,옥외대피소,3000.0
659,1165000000,반포종합운동장,서울특별시,서초구,서울특별시 서초구 신반포로16길 30(반포동),126.994297,37.500578,옥외대피소,77499.0
660,1165000000,뒷벌공원,서울특별시,서초구,서울특별시 서초구 방배중앙로 121(방배동),126.986854,37.490462,옥외대피소,4878.0
661,1117000000,원효초등학교 운동장,서울특별시,용산구,서울특별시 용산구 효창원로13길 38(산천동),126.951933,37.536039,옥외대피소,1445.0
662,1168000000,양전초등학교 운동장,서울특별시,강남구,서울특별시 강남구 개포로 513(개포동),127.070413,37.490426,옥외대피소,3500.0
663,1168000000,논현개나리공원,서울특별시,강남구,서울특별시 강남구 논현로123길 19(논현동),127.029949,37.511333,옥외대피소,551.0
664,1168000000,해찬솔근린공원,서울특별시,강남구,서울특별시 강남구 자곡동 627,127.092624,37.470872,옥외대피소,1700.0
665,1168000000,일원까치공원,서울특별시,강남구,서울특별시 강남구 양재대로55길 14-1 (일원동),127.088213,37.492065,옥외대피소,500.0
666,1121500000,성동초등학교 운동장,서울특별시,광진구,서울특별시 광진구 자양로4길 63(자양동),127.089626,37.532805,옥외대피소,2779.0
667,1144000000,쌍룡산어린이공원,서울특별시,마포구,서울특별시 마포구 아현동 768,126.950476,37.553007,옥외대피소,647.0
668,1144000000,공덕역어린이공원,서울특별시,마포구,서울특별시 마포구 공덕동 467-1,126.951293,37.545127,옥외대피소,2435.0
669,1144000000,이대녹지쉼터,서울특별시,마포구,서울특별시 마포구 대흥동 2-1,126.946199,37.556536,옥외대피소,767.0
670,1144000000,경남아너스빌쉼터,서울특별시,마포구,서울특별시 마포구 신수동 456-1,126.933657,37.548816,옥외대피소,624.0
671,1144000000,양화어린이공원,서울특별시,마포구,서울특별시 마포구 월드컵로5길 79(합정동),126.90854,37.550458,옥외대피소,450.0
672,1165000000,서래공원,서울특별시,서초구,서울특별시 서초구 반포동 63-6,127.003055,37.501338,옥외대피소,4512.0
673,1117000000,효창운동장,서울특별시,용산구,서울특별시 용산구 효창원로 177-15 (효창동),126.961409,37.543393,옥외대피소,11722.0
674,1117000000,용산철도고등학교 운동장,서울특별시,용산구,서울특별시 용산구 서빙고로 24(한강로3가),126.966548,37.524244,옥외대피소,4999.0
675,1117000000,라틴아메리카공원,서울특별시,용산구,서울특별시 용산구 이태원동 258-467,126.997139,37.540799,옥외대피소,635.0
676,1117000000,독서당어린이공원,서울특별시,용산구,서울특별시 용산구 한남동 1-32,127.012463,37.534492,옥외대피소,702.0
677,1168000000,윗반고개공원,서울특별시,강남구,서울특별시 강남구 세곡동 99-6,127.109183,37.465691,옥외대피소,500.0
678,1144000000,가온문화공원,서울특별시,마포구,서울특별시 마포구 상암동 1594,126.887621,37.581853,옥외대피소,3532.0
679,1144000000,DMC문화공원,서울특별시,마포구,서울특별시 마포구 상암동 1611,126.892342,37.57801,옥외대피소,3356.0
680,1144000000,윗잔다리 어린이공원,서울특별시,마포구,서울특별시 마포구 양화로18안길 21(동교동),126.926245,37.557213,옥외대피소,2935.0
681,1144000000,한마음(어린이)공원,서울특별시,마포구,서울특별시 마포구 월드컵로15길 53(망원동),126.908043,37.554549,옥외대피소,724.0
682,1144000000,옹달샘(어린이)공원,서울특별시,마포구,서울특별시 마포구 망원로4길 38(망원동),126.902056,37.554885,옥외대피소,1088.0
683,1156000000,자유어린이공원(시범아파트),서울특별시,영등포구,"서울특별시 영등포구 63로 45(여의도동, 여의도시범아파트)",126.936258,37.520457,옥외대피소,552.0
684,1156000000,원지어린이공원,서울특별시,영등포구,서울특별시 영등포구 도림로47길 28(대림동),126.899621,37.498095,옥외대피소,4819.9
685,1156000000,도림동 유수지 ,서울특별시,영등포구,서울특별시 영등포구 대방천로 29-18 (도림동),126.897207,37.506892,옥외대피소,11438.9
686,1156000000,양남어린이공원,서울특별시,영등포구,서울특별시 영등포구 선유로23길 18(양평동1가),126.888217,37.523344,옥외대피소,900.0
687,1111000000,무악어린이공원,서울특별시,종로구,서울특별시 종로구 무악동 산 2-83,126.960621,37.577539,옥외대피소,4953.0
688,1117000000,후암초등학교 운동장,서울특별시,용산구,서울특별시 용산구 두텁바위로 140(후암동),126.982276,37.551276,옥외대피소,2350.0
689,1117000000,선린인터넷고등학교 운동장,서울특별시,용산구,서울특별시 용산구 원효로97길 33-4 (청파동3가),126.966903,37.542297,옥외대피소,5670.0
690,1168000000,일원느티나무공원,서울특별시,강남구,서울특별시 강남구 일원동 730-2,127.077497,37.48309,옥외대피소,400.0
691,1111000000,세검정초등학교 운동장,서울특별시,종로구,서울특별시 종로구 세검정로9길 1(신영동),126.960903,37.60279,옥외대피소,1735.0
692,1165000000,서원초등학교 운동장,서울특별시,서초구,서울특별시 서초구 고무래로 63(반포동),127.015144,37.502523,옥외대피소,5800.0
693,1165000000,본마을공원,서울특별시,서초구,서울특별시 서초구 신원동 445,127.053187,37.454553,옥외대피소,930.0
694,1168000000,수도전기공업고등학교 운동장,서울특별시,강남구,서울특별시 강남구 개포로 410(개포동),127.063674,37.486845,옥외대피소,20800.0
695,1168000000,늘벗근린공원,서울특별시,강남구,서울특별시 강남구 선릉로 118(대치동),127.057214,37.489549,옥외대피소,7000.0
696,1168000000,도곡중학교 운동장,서울특별시,강남구,서울특별시 강남구 언주로57길 31(도곡동),127.044982,37.492686,옥외대피소,3200.0
697,1168000000,윗방죽마을공원,서울특별시,강남구,서울특별시 강남구 율현동 308-29,127.10464,37.470318,옥외대피소,200.0
1065,1138000000,새록어린이공원,서울특별시,은평구,서울특별시 은평구 은평로13길 35(녹번동),126.923684,37.603986,옥외대피소,958.0
1066,1138000000,연신초등학교 운동장,서울특별시,은평구,서울특별시 은평구 연서로 347(불광동),126.928406,37.626271,옥외대피소,3926.0
1067,1132000000,새동네어린이공원,서울특별시,도봉구,서울특별시 도봉구 도봉동 289-5,127.043178,37.688944,옥외대피소,100.0
1068,1132000000,소망어린이공원,서울특별시,도봉구,서울특별시 도봉구 방학동 694-9,127.036934,37.663516,옥외대피소,100.0
1069,1159000000,영화초등학교 운동장,서울특별시,동작구,서울특별시 동작구 등용로8길 3(대방동),126.932975,37.509475,옥외대피소,2408.0
1070,1150000000,백합공원,서울특별시,강서구,서울특별시 강서구 염창동 267-24,126.869375,37.551182,옥외대피소,852.0
1071,1126000000,신내초등학교운동장,서울특별시,중랑구,서울특별시 중랑구 용마산로125나길 22(신내동),127.100025,37.604141,옥외대피소,3889.0
1072,1141000000,가재울초등학교 운동장,서울특별시,서대문구,서울특별시 서대문구 모래내로15길 61(남가좌동),126.9186,37.5737,옥외대피소,2215.0
1073,1141000000,서연중학교 운동장,서울특별시,서대문구,서울특별시 서대문구 연희로11마길 9-6 (연희동),126.927817,37.568248,옥외대피소,1581.0
1074,1141000000,연북중학교 운동장,서울특별시,서대문구,서울특별시 서대문구 연희로36길 32(연희동),126.937536,37.577628,옥외대피소,6087.0
1075,1141000000,나비울어린이공원,서울특별시,서대문구,서울특별시 서대문구 북가좌동 475,126.9097,37.5748,옥외대피소,6653.0
1076,1129000000,정수초등학교 운동장,서울특별시,성북구,서울특별시 성북구 정릉로24길 58(정릉동),127.008196,37.604291,옥외대피소,4865.0
1077,1129000000,장위중학교 운동장,서울특별시,성북구,서울특별시 성북구 장위로4길 70(장위동),127.040972,37.611661,옥외대피소,2911.0
1078,1132000000,무궁화어린이공원,서울특별시,도봉구,서울특별시 도봉구 방학동 655-31,127.042163,37.66782,옥외대피소,1003.0
1079,1111000000,명륜공원,서울특별시,종로구,서울특별시 종로구 혜화로9길 24-9 (명륜1가),126.99812,37.588089,옥외대피소,1025.0
1080,1111000000,서울사대부설여자중학교 운동장,서울특별시,종로구,서울특별시 종로구 대학로 64(이화동),127.00345,37.577487,옥외대피소,4476.0
1081,1129000000,숭곡초등학교 운동장,서울특별시,성북구,서울특별시 성북구 종암로40길 30(하월곡동),127.032351,37.608422,옥외대피소,4106.0
1082,1132000000,해태어린이공원,서울특별시,도봉구,서울특별시 도봉구 도봉동 614-37,127.04119,37.672008,옥외대피소,973.0
1083,1132000000,신창어린이공원,서울특별시,도봉구,서울특별시 도봉구 창동 449-103,127.040833,37.64006,옥외대피소,579.0
1084,1144000000,한서초등학교 운동장,서울특별시,마포구,서울특별시 마포구 대흥로24바길 27(염리동),126.949165,37.55331,옥외대피소,1821.0
1085,1144000000,광성고등학교 운동장,서울특별시,마포구,서울특별시 마포구 신수로8길 20(신수동),126.936424,37.548488,옥외대피소,2880.0
1086,1144000000,서강초등학교 운동장 ,서울특별시,마포구,서울특별시 마포구 독막로 113(상수동),126.926804,37.548147,옥외대피소,2892.0
1087,1144000000,서강나루공원,서울특별시,마포구,서울특별시 마포구 창전동 165-5,126.931009,37.545326,옥외대피소,2489.0
1088,1144000000,성산초등학교 운동장,서울특별시,마포구,서울특별시 마포구 양화로3길 94(합정동),126.911137,37.552943,옥외대피소,1811.0
1089,1144000000,성미산공원(성산근린공원),서울특별시,마포구,서울특별시 마포구 성산동 산 11-61,126.914915,37.561274,옥외대피소,642.0
1090,1144000000,외주목어린이공원,서울특별시,마포구,서울특별시 마포구 성산로4길 42(성산동),126.907706,37.562805,옥외대피소,400.0
1091,1144000000,다솜어린이공원,서울특별시,마포구,서울특별시 마포구 월드컵북로12길 27(성산동),126.915379,37.562502,옥외대피소,652.0
1092,1144000000,큰길어린이공원,서울특별시,마포구,서울특별시 마포구 월드컵북로 183(성산동),126.908181,37.567718,옥외대피소,672.0
1093,1144000000,중동초등학교 운동장,서울특별시,마포구,서울특별시 마포구 월드컵북로 152(성산동),126.911333,37.566609,옥외대피소,4584.0
1094,1144000000,성원초등학교 운동장,서울특별시,마포구,서울특별시 마포구 월드컵로36길 34(성산동),126.904413,37.56705,옥외대피소,2511.0
1095,1144000000,상암초등학교 운동장,서울특별시,마포구,서울특별시 마포구 월드컵북로 353(상암동),126.891898,37.575838,옥외대피소,3912.0
1096,1150000000,백석초등학교운동장,서울특별시,강서구,서울특별시 강서구 공항대로 491(등촌동),126.862035,37.553252,옥외대피소,3409.0
1097,1150000000,등촌초등학교운동장,서울특별시,강서구,서울특별시 강서구 등촌로39길 71(등촌동),126.858369,37.547642,옥외대피소,4356.0
1098,1138000000,충암초중고등학교 운동장,서울특별시,은평구,서울특별시 은평구 가좌로5길 5(응암동),126.921495,37.584989,옥외대피소,9300.0
1099,1162000000,원당초등학교 운동장,서울특별시,관악구,서울특별시 관악구 봉천로 505(봉천동),126.956212,37.481143,옥외대피소,3388.0
1100,1162000000,남부초등학교 운동장,서울특별시,관악구,서울특별시 관악구 남부순환로163길 14(신림동),126.922068,37.484826,옥외대피소,6501.0
1101,1150000000,등촌중학교운동장,서울특별시,강서구,서울특별시 강서구 등촌동 615-3,126.859772,37.552333,옥외대피소,6692.0
1102,1150000000,등현초등학교운동장,서울특별시,강서구,서울특별시 강서구 화곡로65길 124(등촌동),126.847898,37.561051,옥외대피소,1980.0
1103,1150000000,화곡초등학교운동장,서울특별시,강서구,서울특별시 강서구 초록마을로 28(화곡동),126.84616,37.543289,옥외대피소,5290.0
1104,1150000000,신월초등학교운동장,서울특별시,강서구,서울특별시 강서구 화곡동 1080,126.839102,37.539951,옥외대피소,5182.0
1105,1150000000,신정초등학교운동장,서울특별시,강서구,서울특별시 강서구 곰달래로31가길 27(화곡동),126.85264,37.53242,옥외대피소,17322.0
1106,1150000000,덕원중학교 운동장,서울특별시,강서구,서울특별시 강서구 내발산동 산 59-2,126.829101,37.54969,옥외대피소,1485.0
1107,1150000000,신곡초등학교운동장,서울특별시,강서구,서울특별시 강서구 등촌로13자길 42-14 (화곡동),126.855892,37.538616,옥외대피소,3100.0
1108,1150000000,화원중학교운동장,서울특별시,강서구,서울특별시 강서구 강서로17나길 86(화곡동),126.842226,37.536587,옥외대피소,2230.0
1109,1150000000,우장초등학교운동장,서울특별시,강서구,서울특별시 강서구 화곡로 263(화곡동),126.84633,37.548805,옥외대피소,2375.0
1110,1150000000,내발산초등학교운동장,서울특별시,강서구,서울특별시 강서구 내발산동 707,126.837868,37.551268,옥외대피소,2256.0
1111,1150000000,양천초등학교운동장,서울특별시,강서구,서울특별시 강서구 양천로 329(가양동),126.839778,37.569898,옥외대피소,11450.0
1112,1150000000,가양초등학교운동장,서울특별시,강서구,서울특별시 강서구 가양동 1484,126.859337,37.561585,옥외대피소,3169.0
1113,1153000000,동구로초등학교 운동장,서울특별시,구로구,서울특별시 구로구 구로중앙로14길 43(구로동),126.892645,37.494678,옥외대피소,3581.0
1114,1153000000,미래초등학교 운동장,서울특별시,구로구,서울특별시 구로구 새말로 73(구로동),126.887846,37.504907,옥외대피소,950.0
1115,1150000000,가곡초등학교운동장,서울특별시,강서구,서울특별시 강서구 마곡동 809,126.83564,37.555427,옥외대피소,1650.0
1116,1150000000,발산초등학교운동장,서울특별시,강서구,서울특별시 강서구 내발산동 408,126.831072,37.549697,옥외대피소,9714.0
1117,1153000000,덕의초등학교 운동장,서울특별시,구로구,서울특별시 구로구 고척로 213(고척동),126.856709,37.506011,옥외대피소,3372.0
1118,1150000000,개화초등학교운동장,서울특별시,강서구,서울특별시 강서구 양천로 11(방화동),126.804591,37.573443,옥외대피소,2380.0
1119,1153000000,경인중학교 운동장,서울특별시,구로구,서울특별시 구로구 경인로 301(개봉동),126.854248,37.498119,옥외대피소,4530.0
1120,1150000000,치현초등학교운동장,서울특별시,강서구,서울특별시 강서구 방화동 833,126.814572,37.575617,옥외대피소,3381.0
1121,1150000000,삼정초등학교운동장,서울특별시,강서구,서울특별시 강서구 방화동 798,126.810246,37.57996,옥외대피소,5660.0
1122,1150000000,삼정중학교운동장,서울특별시,강서구,서울특별시 강서구 방화동 856,126.810746,37.581225,옥외대피소,6230.0
1123,1153000000,개웅중학교 운동장,서울특별시,구로구,서울특별시 구로구 개봉로11길 81(개봉동),126.851218,37.487229,옥외대피소,1587.0
1124,1150000000,방원중학교운동장,서울특별시,강서구,서울특별시 강서구 방화동 808,126.808814,37.575758,옥외대피소,4889.0
1125,1153000000,덕일전자공업고등학교  운동장,서울특별시,구로구,서울특별시 구로구 서해안로21길 5-12 (오류동),126.83726,37.490266,옥외대피소,1926.0
1126,1132000000,동북초등학교 운동장,서울특별시,도봉구,서울특별시 도봉구 시루봉로 53(쌍문동),127.026266,37.65509,옥외대피소,7545.0
1127,1132000000,북서울중학교 운동장,서울특별시,도봉구,서울특별시 도봉구 도봉로169가길 33(도봉동),127.043072,37.681102,옥외대피소,3204.0
1128,1138000000,진관중학교 운동장,서울특별시,은평구,서울특별시 은평구 진관4로 36(진관동),126.926155,37.643896,옥외대피소,1960.0
1129,1138000000,덕산중학교 운동장,서울특별시,은평구,서울특별시 은평구 가좌로 400(신사동),126.90416,37.601664,옥외대피소,3411.0
1130,1174000000,서울컨벤션고등학교 운동장,서울특별시,강동구,서울특별시 강동구 동남로 964(고덕동),127.157622,37.559391,옥외대피소,300.0
1131,1153000000,개명초등학교 운동장,서울특별시,구로구,서울특별시 구로구 개봉로1다길 16-9 (개봉동),126.851089,37.482814,옥외대피소,1457.0
1132,1111000000,대신고등학교 운동장,서울특별시,종로구,서울특별시 종로구 사직로 11(행촌동),126.961835,37.573044,옥외대피소,4424.0
1133,1117000000,보성여자고등학교 운동장,서울특별시,용산구,서울특별시 용산구 신흥로3가길 66(용산동2가),126.984484,37.542774,옥외대피소,2101.0
1134,1117000000,청파초등학교 운동장,서울특별시,용산구,서울특별시 용산구 효창원로 228(청파동2가),126.96412,37.547378,옥외대피소,4220.0
1135,1159000000,강남중학교 운동장,서울특별시,동작구,서울특별시 동작구 대방동15길 29(대방동),126.922537,37.502405,옥외대피소,3503.0
1136,1150000000,능안공원,서울특별시,강서구,서울특별시 강서구 등촌로39마길 3(등촌동),126.860062,37.546465,옥외대피소,707.0
1137,1150000000,볏골어린이공원,서울특별시,강서구,서울특별시 강서구 까치산로4길 22(화곡동),126.844367,37.541474,옥외대피소,4163.0
1138,1150000000,구름공원,서울특별시,강서구,서울특별시 강서구 초록마을로4길 32-1 (화곡동),126.844,37.54334,옥외대피소,833.0
1139,1150000000,뜸부기공원,서울특별시,강서구,서울특별시 강서구 화곡동 845-19,126.856951,37.53013,옥외대피소,998.0
1140,1150000000,천사어린이공원,서울특별시,강서구,서울특별시 강서구 화곡동 1139-1,126.832991,37.546903,옥외대피소,2395.0
1141,1150000000,능골공원,서울특별시,강서구,서울특별시 강서구 화곡동 468-1,126.855292,37.536748,옥외대피소,997.0
1142,1150000000,황금내근린공원,서울특별시,강서구,서울특별시 강서구 양천로61길 101(가양동),126.863809,37.56198,옥외대피소,29048.0
1143,1150000000,활주로상상어린이공원,서울특별시,강서구,서울특별시 강서구 공항동 1341,126.815932,37.554415,옥외대피소,500.0
1144,1150000000,도레미공원,서울특별시,강서구,서울특별시 강서구 마곡동 산 17,126.81937,37.571564,옥외대피소,6002.0
1145,1150000000,민들레공원,서울특별시,강서구,서울특별시 강서구 방화동 648-13,126.806735,37.567281,옥외대피소,564.0
1146,1153000000,구일고등학교 운동장,서울특별시,구로구,서울특별시 구로구 구일로 90-51 (구로동),126.874031,37.493807,옥외대피소,4618.0
1147,1130500000,우이제일교회 공터,서울특별시,강북구,서울특별시 강북구 삼양로163길 74(우이동),127.010291,37.659841,옥외대피소,670.0
1148,1153000000,고척초등학교 운동장,서울특별시,구로구,서울특별시 구로구 경서로 31(고척동),126.857385,37.5006,옥외대피소,1792.0
1149,1153000000,개봉초등학교 운동장,서울특별시,구로구,서울특별시 구로구 개봉로16길 30-11 (개봉동),126.858455,37.489404,옥외대피소,3475.0
1150,1162000000,선봉어린이공원,서울특별시,관악구,서울특별시 관악구 봉천로27길 20(봉천동),126.939633,37.48514,옥외대피소,651.0
1151,1174000000,광문고등학교 운동장,서울특별시,강동구,서울특별시 강동구 동남로 968(고덕동),127.157899,37.559939,옥외대피소,3000.0
1152,1126000000,태릉고등학교운동장,서울특별시,중랑구,서울특별시 중랑구 신내로23길 36(묵동),127.085161,37.618721,옥외대피소,5694.0
1153,1150000000,역말어린이공원,서울특별시,강서구,서울특별시 강서구 화곡로44가길 52-4 (화곡동),126.848769,37.549643,옥외대피소,1493.0
1154,1150000000,나들이공원,서울특별시,강서구,서울특별시 강서구 허준로 9(가양동),126.844254,37.571821,옥외대피소,1496.0
1155,1150000000,쌈지어린이공원,서울특별시,강서구,서울특별시 강서구 방화동 266-24,126.815048,37.571213,옥외대피소,2875.0
1156,1153000000,구로남초등학교 운동장,서울특별시,구로구,서울특별시 구로구 디지털로27길 76(구로동),126.890779,37.484662,옥외대피소,3934.0
1157,1121500000,신양중학교 운동장,서울특별시,광진구,서울특별시 광진구 자양강변길 73(자양동),127.063566,37.533127,옥외대피소,3198.0
1158,1121500000,광장중학교 운동장,서울특별시,광진구,서울특별시 광진구 광장로1길 1(광장동),127.101045,37.546866,옥외대피소,1866.0
1159,1156000000,안양천 영롱이 인라인 마당,서울특별시,영등포구,서울특별시 영등포구 영등포로2길 62(문래동5가),126.88069,37.5177,옥외대피소,26779.6
1160,1120000000,거주자우선주차장(사근동),서울특별시,성동구,서울특별시 성동구 사근동 282-2,127.047313,37.565032,옥외대피소,2063.0
1161,1120000000,성삼공원,서울특별시,성동구,서울특별시 성동구 성수이로18길 25-1 (성수동2가),127.060158,37.542051,옥외대피소,578.0
1162,1162000000,당곡고등학교 운동장,서울특별시,관악구,서울특별시 관악구 봉천로21길 108(봉천동),126.934319,37.492247,옥외대피소,6318.0
1163,1162000000,중앙어린이공원,서울특별시,관악구,서울특별시 관악구 봉천로41길 35(봉천동),126.94827,37.48435,옥외대피소,657.0
1164,1162000000,예촌어린이공원,서울특별시,관악구,서울특별시 관악구 남현길 43(남현동),126.97674,37.474594,옥외대피소,1177.0
1165,1162000000,난향공원(관악산 난곡공원),서울특별시,관악구,서울특별시 관악구 난곡로11길 43(신림동),126.917113,37.465612,옥외대피소,485.0
1166,1174000000,한산중학교 운동장,서울특별시,강동구,서울특별시 강동구 풍성로 251(둔촌동),127.140054,37.528242,옥외대피소,3675.0
1167,1153000000,구로구시설관리공단,서울특별시,구로구,서울특별시 구로구 구로동로26길 54(구로동),126.886444,37.489636,옥외대피소,1573.7
1168,1153000000,구로고등학교 운동장,서울특별시,구로구,서울특별시 구로구 가마산로27길 45(구로동),126.890065,37.498496,옥외대피소,4854.0
1169,1162000000,봉림중학교 운동장,서울특별시,관악구,서울특별시 관악구 장군봉길 72(봉천동),126.938751,37.479318,옥외대피소,7531.0
1170,1126000000,태릉중학교운동장,서울특별시,중랑구,서울특별시 중랑구 공릉로2길 60-25 (묵동),127.08252,37.612467,옥외대피소,3336.0
1171,1121500000,자양초등학교 운동장,서울특별시,광진구,서울특별시 광진구 아차산로44길 26(자양동),127.079784,37.536795,옥외대피소,910.0
1172,1156000000,대림어린이공원,서울특별시,영등포구,서울특별시 영등포구 대림로 106(대림동),126.903396,37.491344,옥외대피소,6407.0
1173,1162000000,서울관광고등학교 운동장,서울특별시,관악구,서울특별시 관악구 은천로15길 25(봉천동),126.943588,37.488446,옥외대피소,5979.0
1174,1162000000,구암중학교 운동장,서울특별시,관악구,서울특별시 관악구 성현로 53(봉천동),126.947565,37.492766,옥외대피소,4497.0
1175,1162000000,보명어린이공원,서울특별시,관악구,서울특별시 관악구 신림동 610-298,126.925569,37.475609,옥외대피소,1268.0
1176,1174000000,일자산공원 중앙광장,서울특별시,강동구,서울특별시 강동구 둔촌동 산 125,127.150826,37.532318,옥외대피소,4628.0
1177,1141000000,중앙근린공원,서울특별시,서대문구,서울특별시 서대문구 거북골로 145(북가좌동),126.9131,37.575,옥외대피소,10856.0
1178,1121500000,자양중학교 운동장,서울특별시,광진구,서울특별시 광진구 뚝섬로37길 28(자양동),127.074277,37.535233,옥외대피소,4150.0
1179,1121500000,구의중학교 운동장,서울특별시,광진구,서울특별시 광진구 광나루로30길 80(화양동),127.079069,37.543454,옥외대피소,3607.0
1180,1121500000,양진초등학교 운동장,서울특별시,광진구,서울특별시 광진구 워커힐로 32(광장동),127.097732,37.544413,옥외대피소,1184.0
1181,1121500000,광남고등학교 운동장,서울특별시,광진구,서울특별시 광진구 아차산로70길 17-16 (광장동),127.10235,37.541189,옥외대피소,1784.0
1182,1121500000,용곡중학교 운동장 ,서울특별시,광진구,서울특별시 광진구 용마산로22길 76(중곡동),127.088811,37.565671,옥외대피소,2117.0
1183,1156000000,대림 체육시설(대림운동장),서울특별시,영등포구,서울특별시 영등포구 가마산로31길 16(대림동),126.894751,37.499721,옥외대피소,9635.6
1184,1162000000,구암고등학교 운동장,서울특별시,관악구,서울특별시 관악구 성현로 57(봉천동),126.950748,37.492222,옥외대피소,3923.0
1185,1162000000,관악산휴먼시아아파트 중앙분수대,서울특별시,관악구,"서울특별시 관악구 난곡로 55(신림동, 관악산휴먼시아아파트)",126.920544,37.459143,옥외대피소,3107.0
1186,1138000000,분토골어린이공원,서울특별시,은평구,서울특별시 은평구 증산로11길 5(증산동),126.91168,37.586756,옥외대피소,1360.0
1187,1141000000,서울여자간호대학교 운동장,서울특별시,서대문구,서울특별시 서대문구 간호대로 38(홍제동),126.947336,37.597527,옥외대피소,4534.0
1188,1168000000,숙명여자고등학교 운동장,서울특별시,강남구,서울특별시 강남구 남부순환로 2807(도곡동),127.054038,37.491501,옥외대피소,13170.0
1189,1156000000,양평동 체련장(가로녹지),서울특별시,영등포구,서울특별시 영등포구 양평로22사길 8(양평동5가),126.893501,37.541949,옥외대피소,5276.0
1190,1162000000,봉현초등학교 운동장,서울특별시,관악구,서울특별시 관악구 성현로 117(봉천동),126.954594,37.490754,옥외대피소,4465.0
1191,1162000000,까치어린이공원,서울특별시,관악구,서울특별시 관악구 봉천동 1678-1,126.959486,37.479809,옥외대피소,1695.0
1192,1174000000,명일공원(상일동산),서울특별시,강동구,서울특별시 강동구 상일동 184,127.165573,37.549079,옥외대피소,800.0
1193,1141000000,동명여자중학교 운동장,서울특별시,서대문구,서울특별시 서대문구 독립문로 49(천연동),126.962392,37.568366,옥외대피소,2000.0
1194,1141000000,신촌역 동측광장 공영주차장,서울특별시,서대문구,서울특별시 서대문구 대현동 121-7,126.943103,37.559288,옥외대피소,2000.0
1195,1144000000,망원새싹어린이공원,서울특별시,마포구,서울특별시 마포구 망원동 509-1,126.898437,37.559039,옥외대피소,555.0
1196,1156000000,고추말어린이공원,서울특별시,영등포구,서울특별시 영등포구 도림동 23-1,126.907121,37.511628,옥외대피소,2815.9
1197,1156000000,다사랑어린이공원,서울특별시,영등포구,서울특별시 영등포구 대림로23가길 5(대림동),126.899431,37.4928,옥외대피소,1432.0
1198,1156000000,동심어린이공원,서울특별시,영등포구,서울특별시 영등포구 대림로35길 7(대림동),126.897315,37.498436,옥외대피소,2990.4
1199,1156000000,신길유수지,서울특별시,영등포구,서울특별시 영등포구 신길동 54-1,126.917726,37.516243,옥외대피소,6273.0
1200,1162000000,구암초등학교 운동장,서울특별시,관악구,서울특별시 관악구 구암길 1(봉천동),126.946949,37.489144,옥외대피소,6366.0
1201,1138000000,상신중학교 운동장,서울특별시,은평구,서울특별시 은평구 증산로15길 61(신사동),126.906359,37.590061,옥외대피소,2188.0
1202,1138000000,새락골어린이공원,서울특별시,은평구,서울특별시 은평구 은평로3가길 34(신사동),126.91119,37.598961,옥외대피소,538.0
1203,1138000000,응암어린이공원,서울특별시,은평구,서울특별시 은평구 은평로11길 10(응암동),126.923583,37.601642,옥외대피소,836.0
1204,1141000000,북성초등학교 운동장,서울특별시,서대문구,서울특별시 서대문구 북아현로1나길 22(북아현동),126.952067,37.559081,옥외대피소,3300.0
1205,1138000000,진관초등학교 운동장,서울특별시,은평구,서울특별시 은평구 진관4로 78-16 (진관동),126.929288,37.645112,옥외대피소,1830.0
1206,1130500000,삼각산고등학교 운동장,서울특별시,강북구,서울특별시 강북구 삼양로19길 40(미아동),127.02049,37.615661,옥외대피소,1572.0
1207,1159000000,노들나루공원,서울특별시,동작구,서울특별시 동작구 노량진로 247(본동),126.954821,37.513578,옥외대피소,44580.0
1208,1144000000,마포어린이공원,서울특별시,마포구,서울특별시 마포구 마포대로4다길 30(마포동),126.9438,37.5358,옥외대피소,1193.0
1209,1168000000,세종고등학교 운동장,서울특별시,강남구,서울특별시 강남구 광평로51길 36(수서동),127.102621,37.489933,옥외대피소,7800.0
1210,1168000000,신구중학교 운동장,서울특별시,강남구,서울특별시 강남구 압구정로36길 17(신사동),127.032216,37.526757,옥외대피소,6332.0
1211,1144000000,양화진역사공원,서울특별시,마포구,서울특별시 마포구 토정로 2(합정동),126.9113,37.5457,옥외대피소,2000.0
1212,1162000000,신봉초등학교 운동장,서울특별시,관악구,서울특별시 관악구 양녕로6나길 1(봉천동),126.948816,37.48505,옥외대피소,3860.0
1213,1138000000,신도초등학교 운동장,서울특별시,은평구,서울특별시 은평구 진관1로 77-23 (진관동),126.92902,37.632566,옥외대피소,1583.0
1214,1138000000,시루뫼어린이공원,서울특별시,은평구,서울특별시 은평구 증산로5길 13(증산동),126.906533,37.582863,옥외대피소,852.0
1215,1165000000,파랑새어린이공원,서울특별시,서초구,서울특별시 서초구 신반포로15길 28(반포동),126.995185,37.505127,옥외대피소,4581.0
1216,1165000000,가꿀공원,서울특별시,서초구,서울특별시 서초구 방배동 859-1,126.987571,37.487972,옥외대피소,795.0
1217,1117000000,이촌한우리공원,서울특별시,용산구,서울특별시 용산구 이촌동 437,126.981345,37.517624,옥외대피소,4325.0
1218,1168000000,대치초등학교 운동장,서울특별시,강남구,서울특별시 강남구 양재천로 363(대치동),127.062144,37.49096,옥외대피소,7800.0
1219,1168000000,대명중학교 운동장,서울특별시,강남구,서울특별시 강남구 역삼로87길 26(대치동),127.061006,37.505889,옥외대피소,5400.0
1220,1168000000,대도초등학교 운동장,서울특별시,강남구,서울특별시 강남구 선릉로 209(도곡동),127.053767,37.492582,옥외대피소,4100.0
1221,1168000000,강남구보건소 주차장,서울특별시,강남구,서울특별시 강남구 선릉로 668(삼성동),127.042004,37.516207,옥외대피소,1000.0
1222,1168000000,대진디자인고등학교 운동장,서울특별시,강남구,서울특별시 강남구 광평로39길 93(수서동),127.096275,37.490721,옥외대피소,2952.0
1223,1168000000,진선여자중학교 운동장,서울특별시,강남구,서울특별시 강남구 선릉로85길 27(역삼동),127.048019,37.50171,옥외대피소,9800.0
1224,1168000000,대진근린공원,서울특별시,강남구,서울특별시 강남구 개포로109길 62(개포동),127.078554,37.49558,옥외대피소,3000.0
1225,1168000000,한마음공원,서울특별시,강남구,서울특별시 강남구 남부순환로 3142-30 (개포동),127.075894,37.495786,옥외대피소,2488.0
1226,1162000000,봉원중학교 운동장,서울특별시,관악구,서울특별시 관악구 관악로24가길 15(봉천동),126.957919,37.484362,옥외대피소,7940.0
1227,1130500000,수송초등학교 운동장,서울특별시,강북구,서울특별시 강북구 한천로124길 14(번동),127.03263,37.636746,옥외대피소,1005.0
1228,1117000000,문화원 정자마당,서울특별시,용산구,서울특별시 용산구 효창원로8길 28(원효로4가),126.951954,37.53358,옥외대피소,621.0
1229,1117000000,산천동 마을마당,서울특별시,용산구,서울특별시 용산구 산천동 200,126.95305,37.535544,옥외대피소,667.0
1230,1117000000,꿈나무공원,서울특별시,용산구,서울특별시 용산구 이촌로 219(이촌동),126.971849,37.520875,옥외대피소,1413.0
1231,1117000000,한남동공영주차장,서울특별시,용산구,서울특별시 용산구 이태원로 224-19 (한남동),127.000242,37.534831,옥외대피소,1051.0
1232,1168000000,봉은중학교 운동장,서울특별시,강남구,서울특별시 강남구 영동대로128길 59(삼성동),127.062827,37.518833,옥외대피소,2822.0
1233,1168000000,영희초등학교 운동장,서울특별시,강남구,서울특별시 강남구 일원로 21(일원동),127.081205,37.491821,옥외대피소,5500.0
1234,1168000000,휘문고등학교 운동장,서울특별시,강남구,서울특별시 강남구 역삼로 541(대치동),127.061093,37.505053,옥외대피소,6600.0
1235,1144000000,은행나무어린이공원,서울특별시,마포구,서울특별시 마포구 성미산로29길 17-9 (연남동),126.922,37.56446,옥외대피소,898.0
1236,1138000000,상신초등학교 운동장 ,서울특별시,은평구,서울특별시 은평구 가좌로 361(신사동),126.905357,37.597785,옥외대피소,1973.0
1237,1165000000,동산어린이공원,서울특별시,서초구,서울특별시 서초구 동산로12길 8(양재동),127.04517,37.471195,옥외대피소,1300.0
1238,1117000000,기와터공원,서울특별시,용산구,서울특별시 용산구 한강로3가 63-388,126.969341,37.525919,옥외대피소,2225.0
1239,1168000000,개포은행나무공원,서울특별시,강남구,서울특별시 강남구 개포로20길 48(개포동),127.049021,37.476042,옥외대피소,550.0
1240,1168000000,학동근린공원,서울특별시,강남구,서울특별시 강남구 강남대로140길 47(논현동),127.025425,37.515439,옥외대피소,9961.0
1241,1168000000,강남구청 주차장,서울특별시,강남구,서울특별시 강남구 학동로 426(삼성동),127.047245,37.517782,옥외대피소,3250.0
1242,1168000000,대왕중학교 운동장,서울특별시,강남구,서울특별시 강남구 광평로20길 7(수서동),127.087372,37.483042,옥외대피소,5899.0
1243,1165000000,마산말어린이공원,서울특별시,서초구,서울특별시 서초구 서초동 1343-8,127.026723,37.487153,옥외대피소,802.0
1244,1165000000,신동근린공원,서울특별시,서초구,서울특별시 서초구 잠원동 58-14,127.01429,37.514208,옥외대피소,6265.0
1245,1168000000,개포고등학교 운동장,서울특별시,강남구,서울특별시 강남구 개포로 402(개포동),127.058951,37.484681,옥외대피소,7450.0
1246,1117000000,달맞이공원,서울특별시,용산구,서울특별시 용산구 보광동 231-17,126.998022,37.527975,옥외대피소,952.0
1247,1168000000,대치근린공원,서울특별시,강남구,서울특별시 강남구 대치동 512,127.069921,37.495093,옥외대피소,3100.0
1248,1117000000,선린중학교 운동장 ,서울특별시,용산구,서울특별시 용산구 원효로97길 33-4 (청파동3가),126.965597,37.542271,옥외대피소,4170.0
1249,1165000000,서울교육대학교 운동장,서울특별시,서초구,서울특별시 서초구 서초중앙로 96(서초동),127.016372,37.490185,옥외대피소,9491.0
1250,1165000000,동덕어린이공원,서울특별시,서초구,서울특별시 서초구 방배동 593-43,126.993717,37.47554,옥외대피소,831.0
1251,1126000000,동원중학교운동장,서울특별시,중랑구,서울특별시 중랑구 양원역로 32(망우동),127.10812,37.603509,옥외대피소,5258.0
1252,1168000000,대치중학교 운동장,서울특별시,강남구,서울특별시 강남구 남부순환로378길 39(도곡동),127.047829,37.484065,옥외대피소,6852.0
1253,1168000000,대왕초등학교 운동장,서울특별시,강남구,서울특별시 강남구 헌릉로618길 8(세곡동),127.105583,37.464278,옥외대피소,1836.0
1254,1168000000,세곡해오름공원,서울특별시,강남구,서울특별시 강남구 헌릉로590길 55(세곡동),127.103361,37.460398,옥외대피소,1800.0
1255,1168000000,신사무궁화공원,서울특별시,강남구,서울특별시 강남구 신사동 625-5,127.03192,37.524117,옥외대피소,775.0
1256,1168000000,현대고등학교 운동장,서울특별시,강남구,서울특별시 강남구 압구정로 127(압구정동),127.022672,37.525093,옥외대피소,12230.0
1257,1168000000,로봇고등학교 운동장,서울특별시,강남구,서울특별시 강남구 광평로20길 63(일원동),127.084249,37.480406,옥외대피소,2113.0
1258,1162000000,미성초등학교 운동장,서울특별시,관악구,서울특별시 관악구 문성로 79(신림동),126.912271,37.477715,옥외대피소,5971.0
1259,1162000000,미성중학교 운동장,서울특별시,관악구,서울특별시 관악구 문성로16길 40(신림동),126.912617,37.475262,옥외대피소,5175.0
1260,1117000000,용산고등학교 운동장,서울특별시,용산구,서울특별시 용산구 두텁바위로 60(용산동2가),126.980471,37.544968,옥외대피소,6430.0
1261,1126000000,면북초등학교 운동장,서울특별시,중랑구,서울특별시 중랑구 용마공원로5길 32(망우동),127.103557,37.59407,옥외대피소,1853.0
1262,1168000000,일원장미공원,서울특별시,강남구,서울특별시 강남구 광평로10길 28(일원동),127.080772,37.480642,옥외대피소,548.0
1263,1156000000,영문초등학교 운동장,서울특별시,영등포구,서울특별시 영등포구 문래로 56(문래동6가),126.887911,37.519583,옥외대피소,2388.9
1264,1117000000,청파선린공원,서울특별시,용산구,서울특별시 용산구 청파동3가 118-56,126.96624,37.543522,옥외대피소,1940.0
1265,1156000000,영등포여자고등학교 운동장,서울특별시,영등포구,서울특별시 영등포구 영등포로62길 13(신길동),126.915092,37.515064,옥외대피소,2257.7
1266,1168000000,일원개나리공원,서울특별시,강남구,서울특별시 강남구 일원동 730-3,127.076425,37.482915,옥외대피소,539.0
1267,1168000000,한솔근린공원,서울특별시,강남구,서울특별시 강남구 일원동 732,127.079014,37.481336,옥외대피소,6848.0
1268,1144000000,염리초등학교 운동장,서울특별시,마포구,서울특별시 마포구 토정로37길 37(염리동),126.94577,37.542325,옥외대피소,2997.0
1269,1147000000,강서초등학교 운동장,서울특별시,양천구,서울특별시 양천구 신월동 441,126.840444,37.522187,옥외대피소,3927.0
1270,1147000000,꿀벌어린이공원,서울특별시,양천구,서울특별시 양천구 신월동 531,126.842064,37.519976,옥외대피소,1005.0
1271,1162000000,합실어린이공원,서울특별시,관악구,서울특별시 관악구 신림동 1704-4,126.92705,37.465112,옥외대피소,1220.0
1272,1117000000,용암초등학교 운동장,서울특별시,용산구,서울특별시 용산구 녹사평대로60길 39(용산동2가),126.98928,37.544895,옥외대피소,3141.0
1273,1120000000,금호고등학교 운동장,서울특별시,성동구,서울특별시 성동구 금호로 118(금호동1가),127.023697,37.553234,옥외대피소,1500.0
1274,1144000000,도화소어린이공원,서울특별시,마포구,서울특별시 마포구 토정로37길 22(도화동),126.945481,37.541049,옥외대피소,2098.0
1275,1147000000,태양어린이공원,서울특별시,양천구,서울특별시 양천구 오목로3길 34(신월동),126.838644,37.524363,옥외대피소,998.0
1276,1147000000,강신초등학교 운동장,서울특별시,양천구,서울특별시 양천구 신월동 6-7,126.829296,37.542537,옥외대피소,2570.0
1277,1147000000,방아다리어린이공원,서울특별시,양천구,서울특별시 양천구 신월동 56-1,126.828382,37.538669,옥외대피소,869.0
1278,1147000000,신오어린이공원,서울특별시,양천구,서울특별시 양천구 남부순환로33길 38(신월동),126.83157,37.538197,옥외대피소,872.0
1279,1147000000,신월중학교 운동장,서울특별시,양천구,서울특별시 양천구 신월동 17-6,126.828957,37.540469,옥외대피소,6489.0
1280,1147000000,강신어린이공원,서울특별시,양천구,서울특별시 양천구 신월동 1012-2,126.838479,37.515559,옥외대피소,1511.0
1281,1147000000,강신중학교 운동장,서울특별시,양천구,서울특별시 양천구 신월동 1010,126.839197,37.514394,옥외대피소,4542.0
1282,1147000000,강월어린이공원,서울특별시,양천구,서울특별시 양천구 남부순환로82길 29(신월동),126.836353,37.515622,옥외대피소,2463.0
1283,1147000000,신남초등학교 운동장,서울특별시,양천구,서울특별시 양천구 남부순환로83길 44(신월동),126.844781,37.515989,옥외대피소,3778.0
1284,1147000000,강월초등학교 운동장,서울특별시,양천구,서울특별시 양천구 신월동 987-3,126.834128,37.516044,옥외대피소,4528.0
1285,1147000000,신월공원,서울특별시,양천구,서울특별시 양천구 신월로 99-1 (신월동),126.833789,37.517993,옥외대피소,725.0
1286,1147000000,양천중학교 운동장,서울특별시,양천구,서울특별시 양천구 신월동 948,126.830834,37.520141,옥외대피소,3463.0
1287,1147000000,오솔길공원,서울특별시,양천구,서울특별시 양천구 남부순환로72길 16(신월동),126.836763,37.521244,옥외대피소,349.0
1288,1147000000,한울근린공원,서울특별시,양천구,서울특별시 양천구 지양로7길 27-5 (신월동),126.832195,37.519854,옥외대피소,313.0
1289,1147000000,꿈나무어린이공원,서울특별시,양천구,서울특별시 양천구 신정동 311-1,126.858523,37.517676,옥외대피소,380.0
1290,1174000000,성일초등학교운동장,서울특별시,강동구,서울특별시 강동구 성내로15길 33(성내동),127.128378,37.529117,옥외대피소,8065.0
1291,1156000000,여의도고등학교 운동장,서울특별시,영등포구,서울특별시 영등포구 국제금융로7길 37(여의도동),126.933546,37.525009,옥외대피소,8796.0
1292,1117000000,두텁바위공원,서울특별시,용산구,서울특별시 용산구 동자동 50,126.973149,37.552133,옥외대피소,2623.0
1293,1147000000,단지어린이공원,서울특별시,양천구,"서울특별시 양천구 중앙로36길 15(신정동, 목동힐스테이트)",126.854307,37.519825,옥외대피소,3000.0
1294,1147000000,신트리공원,서울특별시,양천구,서울특별시 양천구 목동동로 3(신정동),126.856524,37.514636,옥외대피소,500.0
1295,1147000000,신서중학교 운동장,서울특별시,양천구,서울특별시 양천구 신정동 310-6,126.855917,37.515395,옥외대피소,6000.0
927,1171000000,중대초등학교 운동장,서울특별시,송파구,서울특별시 송파구 송파대로36길 8(송파동),127.114219,37.500513,옥외대피소,5100.0
928,1171000000,가동초등학교 운동장,서울특별시,송파구,서울특별시 송파구 중대로20길 47(가락동),127.130352,37.497099,옥외대피소,5250.0
929,1171000000,오금초등학교 운동장,서울특별시,송파구,서울특별시 송파구 위례성대로22길 11(오금동),127.131996,37.509046,옥외대피소,2850.0
930,1171000000,송파초등학교 운동장,서울특별시,송파구,서울특별시 송파구 백제고분로 400(송파동),127.110684,37.50705,옥외대피소,5547.0
931,1171000000,위례별초등학교 운동장,서울특별시,송파구,서울특별시 송파구 위례광장로 243(장지동),127.145102,37.478568,옥외대피소,1873.0
932,1150000000,신정고등학교 운동장,서울특별시,강서구,서울특별시 강서구 등촌로13아길 20(화곡동),126.857357,37.537952,옥외대피소,3561.0
933,1171000000,방산초등학교 운동장,서울특별시,송파구,서울특별시 송파구 오금로27길 42(방이동),127.120851,37.509234,옥외대피소,6510.0
934,1171000000,세륜초등학교 운동장,서울특별시,송파구,서울특별시 송파구 양재대로 1264(방이동),127.133529,37.518601,옥외대피소,4193.0
935,1171000000,거여초등학교 운동장,서울특별시,송파구,서울특별시 송파구 마천로25길 18(오금동),127.140715,37.504483,옥외대피소,2100.0
936,1171000000,가주초등학교 운동장,서울특별시,송파구,서울특별시 송파구 오금로40길 37(가락동),127.128684,37.496693,옥외대피소,3103.0
937,1150000000,수명중학교 운동장,서울특별시,강서구,서울특별시 강서구 수명로2길 16(내발산동),126.823858,37.549144,옥외대피소,1255.0
938,1171000000,아주중학교 운동장,서울특별시,송파구,서울특별시 송파구 올림픽로4길 69(잠실동),127.075963,37.50482,옥외대피소,7279.0
939,1171000000,문정중학교 운동장,서울특별시,송파구,서울특별시 송파구 문정로 73(문정동),127.129556,37.488096,옥외대피소,4848.0
940,1171000000,문정고등학교 운동장,서울특별시,송파구,서울특별시 송파구 송이로34길 62(문정동),127.127479,37.485597,옥외대피소,3581.0
941,1171000000,잠신고등학교 운동장,서울특별시,송파구,서울특별시 송파구 잠실로 24(잠실동),127.089217,37.515101,옥외대피소,4969.0
942,1171000000,신천중학교 운동장,서울특별시,송파구,서울특별시 송파구 백제고분로 11(잠실동),127.078461,37.51598,옥외대피소,4819.0
943,1171000000,잠실중학교 운동장,서울특별시,송파구,서울특별시 송파구 올림픽로35길 130(신천동),127.099454,37.517136,옥외대피소,6556.0
944,1171000000,가락고등학교 운동장,서울특별시,송파구,서울특별시 송파구 송이로 42(송파동),127.117245,37.501096,옥외대피소,5478.0
945,1171000000,송례중학교 운동장,서울특별시,송파구,서울특별시 송파구 위례순환로 429(장지동),127.139625,37.47731,옥외대피소,2220.0
946,1171000000,한국체육대학교 운동장,서울특별시,송파구,서울특별시 송파구 양재대로 1239(방이동),127.130958,37.519298,옥외대피소,19800.0
947,1171000000,창덕여자고등학교 운동장,서울특별시,송파구,서울특별시 송파구 양재대로 1240(방이동),127.139866,37.515526,옥외대피소,8845.0
948,1171000000,풍납초등학교 운동장,서울특별시,송파구,서울특별시 송파구 풍성로 43(풍납동),127.117995,37.534761,옥외대피소,5900.0
949,1171000000,문덕초등학교 운동장,서울특별시,송파구,서울특별시 송파구 송이로34길 60(문정동),127.127494,37.484979,옥외대피소,1714.0
950,1171000000,석촌중학교 운동장,서울특별시,송파구,서울특별시 송파구 송이로15길 13(가락동),127.121285,37.500628,옥외대피소,7303.0
951,1171000000,문현중학교 운동장,서울특별시,송파구,서울특별시 송파구 충민로 99(장지동),127.127738,37.480256,옥외대피소,2478.0
952,1171000000,서울인공지능고등학교 운동장,서울특별시,송파구,서울특별시 송파구 양산로 21(거여동),127.142673,37.491309,옥외대피소,4405.0
953,1171000000,문정초등학교 운동장,서울특별시,송파구,서울특별시 송파구 문정로5길 20(문정동),127.12862,37.48888,옥외대피소,6230.0
954,1171000000,잠신초등학교 운동장,서울특별시,송파구,서울특별시 송파구 잠실로 32(잠실동),127.088458,37.51382,옥외대피소,2800.0
955,1171000000,영동일고등학교 운동장,서울특별시,송파구,서울특별시 송파구 석촌호수로 93(잠실동),127.089381,37.509645,옥외대피소,1970.0
956,1171000000,잠실고등학교 운동장,서울특별시,송파구,서울특별시 송파구 올림픽로33길 71(신천동),127.106165,37.522223,옥외대피소,4778.0
957,1171000000,송파중학교 운동장,서울특별시,송파구,서울특별시 송파구 동남로 203(가락동),127.129768,37.495558,옥외대피소,6246.0
958,1171000000,서울체육고등학교 운동장,서울특별시,송파구,서울특별시 송파구 강동대로 232(방이동),127.128648,37.522377,옥외대피소,6447.0
959,1171000000,오금고등학교 운동장,서울특별시,송파구,서울특별시 송파구 중대로 247(오금동),127.129251,37.504172,옥외대피소,9264.0
960,1171000000,방산고등학교 운동장,서울특별시,송파구,서울특별시 송파구 오금로27길 18(방이동),127.121147,37.50812,옥외대피소,3717.0
961,1171000000,문현고등학교 운동장,서울특별시,송파구,서울특별시 송파구 충민로 115(장지동),127.128976,37.480825,옥외대피소,2157.0
962,1171000000,잠일고등학교 운동장,서울특별시,송파구,서울특별시 송파구 백제고분로 21(잠실동),127.082378,37.51414,옥외대피소,1532.0
963,1171000000,토성초등학교 운동장,서울특별시,송파구,서울특별시 송파구 풍성로20길 44(풍납동),127.115166,37.531802,옥외대피소,3456.0
964,1171000000,석촌초등학교 운동장,서울특별시,송파구,서울특별시 송파구 가락로11길 26(석촌동),127.104674,37.502562,옥외대피소,4600.0
965,1171000000,가원초등학교 운동장,서울특별시,송파구,서울특별시 송파구 중대로4길 8(문정동),127.11145,37.489058,옥외대피소,3763.0
966,1171000000,잠전초등학교 운동장,서울특별시,송파구,서울특별시 송파구 올림픽로12길 51(잠실동),127.084164,37.506683,옥외대피소,4926.0
967,1154500000,금천고등학교 운동장,서울특별시,금천구,서울특별시 금천구 시흥대로38길 26(시흥동),126.905853,37.444908,옥외대피소,1967.0
968,1150000000,영등포공업고등학교 운동장,서울특별시,강서구,서울특별시 강서구 허준로5길 15(가양동),126.850288,37.569368,옥외대피소,3168.0
969,1171000000,풍성중학교 운동장,서울특별시,송파구,서울특별시 송파구 강동대로2길 27(풍납동),127.112466,37.525342,옥외대피소,7260.0
970,1171000000,세륜중학교 운동장,서울특별시,송파구,서울특별시 송파구 양재대로72길 41(오금동),127.131453,37.508475,옥외대피소,2558.0
971,1150000000,마곡하늬공원,서울특별시,강서구,서울특별시 강서구 마곡서로 13(마곡동),126.821113,37.556839,옥외대피소,20078.0
972,1171000000,영파여자고등학교 운동장,서울특별시,송파구,서울특별시 송파구 올림픽로 565(풍납동),127.120353,37.532524,옥외대피소,5385.0
973,1171000000,오주중학교 운동장,서울특별시,송파구,서울특별시 송파구 동남로 281(오금동),127.136212,37.501042,옥외대피소,5160.0
974,1171000000,오금중학교 운동장,서울특별시,송파구,서울특별시 송파구 오금로35길 20(오금동),127.128366,37.50494,옥외대피소,8171.0
975,1171000000,버들초등학교 운동장,서울특별시,송파구,서울특별시 송파구 석촌호수로 81(잠실동),127.089005,37.510045,옥외대피소,960.0
976,1171000000,신천초등학교 운동장,서울특별시,송파구,서울특별시 송파구 올림픽로 215(잠실동),127.095159,37.513582,옥외대피소,5750.0
977,1171000000,방산중학교 운동장,서울특별시,송파구,서울특별시 송파구 오금로29길 31(방이동),127.121651,37.508927,옥외대피소,6510.0
978,1171000000,풍납중학교 운동장,서울특별시,송파구,서울특별시 송파구 올림픽로43길 20(풍납동),127.116303,37.525305,옥외대피소,4070.0
979,1171000000,아주초등학교 운동장,서울특별시,송파구,서울특별시 송파구 올림픽로4길 59(잠실동),127.075559,37.505524,옥외대피소,6938.0
980,1171000000,거원중학교 운동장,서울특별시,송파구,서울특별시 송파구 양산로2길 30(거여동),127.146167,37.487676,옥외대피소,5142.0
981,1150000000,필마공원,서울특별시,강서구,서울특별시 강서구 화곡동 355-12,126.838856,37.531527,옥외대피소,1056.0
982,1171000000,평화초등학교 운동장,서울특별시,송파구,서울특별시 송파구 송파대로26길 22(가락동),127.122171,37.491285,옥외대피소,8136.0
983,1171000000,개롱초등학교 운동장,서울특별시,송파구,서울특별시 송파구 문정로 211(오금동),127.139538,37.496934,옥외대피소,2441.0
984,1171000000,문현초등학교 운동장,서울특별시,송파구,서울특별시 송파구 충민로 137(장지동),127.130462,37.482432,옥외대피소,2113.0
985,1171000000,잠일초등학교 운동장,서울특별시,송파구,서울특별시 송파구 올림픽로 95(잠실동),127.081186,37.514647,옥외대피소,2146.0
986,1171000000,풍성초등학교 운동장,서울특별시,송파구,서울특별시 송파구 강동대로2길 27(풍납동),127.112487,37.525267,옥외대피소,6240.0
987,1171000000,삼전초등학교 운동장,서울특별시,송파구,서울특별시 송파구 백제고분로28길 19(삼전동),127.092621,37.501349,옥외대피소,3645.0
988,1171000000,방이초등학교 운동장,서울특별시,송파구,서울특별시 송파구 위례성대로10길 4(방이동),127.12099,37.513361,옥외대피소,5921.0
989,1171000000,잠신중학교 운동장,서울특별시,송파구,서울특별시 송파구 잠실로 12(잠실동),127.087803,37.515764,옥외대피소,6770.0
990,1171000000,영풍초등학교 운동장,서울특별시,송파구,서울특별시 송파구 오금로57길 15(거여동),127.142869,37.495895,옥외대피소,3025.0
991,1171000000,오륜초등학교 운동장,서울특별시,송파구,서울특별시 송파구 양재대로 1196(방이동),127.134491,37.512054,옥외대피소,5364.0
992,1171000000,방이중학교 운동장,서울특별시,송파구,서울특별시 송파구 오금로11길 64(방이동),127.112952,37.514388,옥외대피소,4985.0
993,1171000000,오륜중학교 운동장,서울특별시,송파구,서울특별시 송파구 양재대로 1242(방이동),127.138674,37.515783,옥외대피소,2650.0
994,1171000000,배명중학교 운동장,서울특별시,송파구,서울특별시 송파구 삼학사로 11(삼전동),127.095959,37.498334,옥외대피소,4006.0
995,1171000000,가원중학교 운동장,서울특별시,송파구,서울특별시 송파구 중대로10길 40-18 (가락동),127.122404,37.490732,옥외대피소,2224.0
996,1171000000,송례초등학교 운동장,서울특별시,송파구,서울특별시 송파구 위례순환로 439(장지동),127.138372,37.477388,옥외대피소,1760.0
997,1171000000,잠현초등학교 운동장,서울특별시,송파구,서울특별시 송파구 올림픽로37길 109(신천동),127.104815,37.522023,옥외대피소,1574.0
998,1171000000,잠동초등학교 운동장,서울특별시,송파구,서울특별시 송파구 올림픽로35길 122(신천동),127.100116,37.517983,옥외대피소,2947.0
999,1171000000,마천초등학교 운동장,서울특별시,송파구,서울특별시 송파구 마천로61다길 24(마천동),127.152298,37.495313,옥외대피소,3600.0
1000,1171000000,남천초등학교 운동장,서울특별시,송파구,서울특별시 송파구 성내천로 207(마천동),127.15092,37.50108,옥외대피소,2259.0
1001,1171000000,잠실여자고등학교 운동장,서울특별시,송파구,서울특별시 송파구 송파대로38길 8(송파동),127.113276,37.501812,옥외대피소,13369.0
1002,1138000000,녹번동마을마당,서울특별시,은평구,서울특별시 은평구 녹번동 104-7,126.927554,37.606068,옥외대피소,718.0
1003,1138000000,신흥어린이공원,서울특별시,은평구,서울특별시 은평구 증산로21길 25(신사동),126.911812,37.596085,옥외대피소,696.0
1004,1150000000,성재중학교 운동장,서울특별시,강서구,서울특별시 강서구 허준로 36(가양동),126.846054,37.569277,옥외대피소,3304.0
1005,1138000000,은평중학교  운동장,서울특별시,은평구,서울특별시 은평구 갈현로17나길 12-1 (구산동),126.909209,37.610494,옥외대피소,6612.0
1006,1138000000,대조초등학교 운동장,서울특별시,은평구,서울특별시 은평구 연서로18길 17(대조동),126.919546,37.612637,옥외대피소,14207.0
1007,1138000000,백련아름어린이공원,서울특별시,은평구,서울특별시 은평구 응암동 761-9,126.923017,37.587088,옥외대피소,2254.0
1008,1120000000,한양대학교사범대학부속중학교 운동장,서울특별시,성동구,서울특별시 성동구 마조로 42(사근동),127.043903,37.561674,옥외대피소,7788.0
1009,1120000000,무학여자고등학교 운동장,서울특별시,성동구,서울특별시 성동구 고산자로 197(행당동),127.033274,37.557675,옥외대피소,2600.0
1010,1168000000,청담초등학교 운동장,서울특별시,강남구,서울특별시 강남구 압구정로71길 9(청담동),127.045178,37.527858,옥외대피소,5684.0
1011,1168000000,청담고등학교 운동장,서울특별시,강남구,서울특별시 강남구 압구정동 526,127.043121,37.528324,옥외대피소,3522.0
1012,1132000000,가인초등학교 운동장,서울특별시,도봉구,서울특별시 도봉구 도봉로136다길 4(창동),127.043463,37.659693,옥외대피소,689.0
1013,1168000000,단국대부속고등학교 운동장,서울특별시,강남구,서울특별시 강남구 도곡로64길 21(대치동),127.055849,37.496079,옥외대피소,9800.0
1014,1168000000,대현초등학교 운동장,서울특별시,강남구,서울특별시 강남구 대치동 969,127.063879,37.503568,옥외대피소,4000.0
1015,1168000000,언주초등학교 운동장,서울특별시,강남구,서울특별시 강남구 도곡동 922,127.03751,37.486849,옥외대피소,2580.0
1016,1168000000,중동고등학교 운동장,서울특별시,강남구,서울특별시 강남구 일원동 618,127.080957,37.492748,옥외대피소,10419.0
1017,1168000000,대진초등학교 운동장,서울특별시,강남구,서울특별시 강남구 개포로109길 74(개포동),127.078057,37.496437,옥외대피소,4494.0
1018,1168000000,수서초등학교 운동장,서울특별시,강남구,서울특별시 강남구 수서동 709,127.101724,37.490616,옥외대피소,1500.0
1019,1144000000,아현초등학교 운동장,서울특별시,마포구,서울특별시 마포구 굴레방로 6(아현동),126.956356,37.555565,옥외대피소,4191.0
1020,1156000000,도신초등학교 운동장,서울특별시,영등포구,서울특별시 영등포구 도림로53길 32-9 (대림동),126.900804,37.498519,옥외대피소,4762.4
1021,1138000000,불광초등학교 운동장,서울특별시,은평구,서울특별시 은평구 불광로 51(불광동),126.930839,37.612614,옥외대피소,16000.0
1022,1138000000,수색초등학교 운동장,서울특별시,은평구,서울특별시 은평구 수색로16길 21(수색동),126.895597,37.584591,옥외대피소,16943.0
1023,1120000000,금호초등학교 운동장,서울특별시,성동구,서울특별시 성동구 무수막길 69(금호동2가),127.020289,37.552416,옥외대피소,2178.0
1024,1168000000,자곡초등학교 운동장,서울특별시,강남구,서울특별시 강남구 자곡동 642,127.099858,37.472031,옥외대피소,1870.0
1025,1132000000,초당초등학교 운동장,서울특별시,도봉구,서울특별시 도봉구 해등로32길 11(방학동),127.02233,37.657984,옥외대피소,2600.0
1026,1138000000,녹번초등학교 운동장,서울특별시,은평구,서울특별시 은평구 녹번로1길 1(녹번동),126.92645,37.603894,옥외대피소,10200.0
1027,1138000000,갈현초등학교 운동장,서울특별시,은평구,서울특별시 은평구 연서로29길 31(갈현동),126.916708,37.61922,옥외대피소,11702.0
1028,1168000000,압구정초등학교 운동장,서울특별시,강남구,서울특별시 강남구 압구정동 461,127.030932,37.531324,옥외대피소,5500.0
1029,1132000000,신방학초등학교 운동장,서울특별시,도봉구,서울특별시 도봉구 시루봉로 173(방학동),127.029448,37.665621,옥외대피소,6763.0
1030,1132000000,누원고등학교 운동장,서울특별시,도봉구,서울특별시 도봉구 마들로 849(도봉동),127.050618,37.684918,옥외대피소,3375.0
1031,1156000000,영중초등학교 운동장,서울특별시,영등포구,서울특별시 영등포구 양산로 185(영등포동7가),126.903854,37.523429,옥외대피소,3497.0
1032,1138000000,궁말어린이공원,서울특별시,은평구,서울특별시 은평구 갈현동 327-21,126.90894,37.616911,옥외대피소,1009.0
1033,1129000000,미아초등학교 운동장,서울특별시,성북구,서울특별시 성북구 삼양로 77(길음동),127.02192,37.610218,옥외대피소,4310.0
1034,1129000000,숭곡중학교 운동장,서울특별시,성북구,서울특별시 성북구 종암로 208(하월곡동),127.031665,37.608065,옥외대피소,2789.0
1035,1132000000,갈대밭어린이공원,서울특별시,도봉구,서울특별시 도봉구 도봉동 625-123,127.045792,37.674342,옥외대피소,974.0
1036,1132000000,사슴어린이공원,서울특별시,도봉구,서울특별시 도봉구 방학동 681-13,127.041713,37.664452,옥외대피소,100.0
1037,1132000000,개나리어린이공원,서울특별시,도봉구,서울특별시 도봉구 방학동 638-12,127.037117,37.667336,옥외대피소,961.0
1038,1132000000,생잇들어린이공원,서울특별시,도봉구,서울특별시 도봉구 방학동 644-28,127.039155,37.66897,옥외대피소,961.0
1039,1132000000,원당샘공원,서울특별시,도봉구,서울특별시 도봉구 해등로32가길 16(방학동),127.02224,37.660882,옥외대피소,4671.0
1040,1111000000,동대문성곽공원(흥인지문공원),서울특별시,종로구,서울특별시 종로구 종로6가 70,127.008713,37.572298,옥외대피소,9400.0
1041,1150000000,등서초등학교 운동장,서울특별시,강서구,서울특별시 강서구 화곡로58길 86(화곡동),126.854941,37.551878,옥외대피소,540.0
1042,1129000000,동구여자중학교 운동장,서울특별시,성북구,서울특별시 성북구 성북로8길 71(성북동),127.007622,37.593923,옥외대피소,2114.0
1043,1150000000,송정중학교 운동장,서울특별시,강서구,서울특별시 강서구 남부순환로 121(공항동),126.815513,37.553706,옥외대피소,4400.0
1044,1159000000,동작중학교운동장,서울특별시,동작구,서울특별시 동작구 동작대로39가길 83(동작동),126.977,37.49491,옥외대피소,4180.0
1045,1159000000,보라매초등학교 운동장,서울특별시,동작구,서울특별시 동작구 여의대방로16길 30(신대방동),126.91611,37.495358,옥외대피소,1261.0
1046,1159000000,농심잔디마당,서울특별시,동작구,서울특별시 동작구 여의대방로 112(신대방동),126.918684,37.496992,옥외대피소,4530.0
1047,1156000000,대영고등학교 운동장,서울특별시,영등포구,서울특별시 영등포구 도림로86길 16(신길동),126.906155,37.503213,옥외대피소,3049.4
1048,1156000000,당산근린공원,서울특별시,영등포구,서울특별시 영등포구 당산로27길 12(당산동3가),126.895791,37.525579,옥외대피소,1037.0
1049,1126000000,원묵초등학교운동장,서울특별시,중랑구,서울특별시 중랑구 숙선옹주로 109(묵동),127.086162,37.617606,옥외대피소,3000.0
1050,1150000000,안골어린이공원,서울특별시,강서구,서울특별시 강서구 강서로18아길 15-9 (화곡동),126.850839,37.53578,옥외대피소,2382.0
1051,1130500000,색동어린이공원,서울특별시,강북구,서울특별시 강북구 삼양로80나길 52(수유동),127.020636,37.633176,옥외대피소,2172.0
1052,1130500000,체류지 마을마당(미아마을마당),서울특별시,강북구,서울특별시 강북구 오현로6길 106(미아동),127.032948,37.61198,옥외대피소,1158.0
1053,1138000000,은평평화공원,서울특별시,은평구,서울특별시 은평구 서오릉로 지하47(녹번동),126.923078,37.605416,옥외대피소,6984.0
1054,1138000000,불광중학교 운동장,서울특별시,은평구,서울특별시 은평구 불광로 180(불광동),126.931457,37.623021,옥외대피소,6985.0
1055,1129000000,동구고등학교 운동장,서울특별시,성북구,서울특별시 성북구 성북로8길 71(성북동),127.00654,37.593237,옥외대피소,1979.0
1056,1111000000,탑골공원,서울특별시,종로구,서울특별시 종로구 종로 99(종로2가),126.988292,37.571317,옥외대피소,9300.0
1057,1132000000,은행나무어린이공원,서울특별시,도봉구,서울특별시 도봉구 창동 347-3,127.043667,37.649603,옥외대피소,3199.0
1058,1111000000,명신초등학교 운동장,서울특별시,종로구,서울특별시 종로구 낙산길 250(창신동),127.014503,37.581583,옥외대피소,2857.0
1059,1159000000,사당중학교 운동장,서울특별시,동작구,서울특별시 동작구 사당로9가길 58(사당동),126.968789,37.487406,옥외대피소,2846.0
1060,1159000000,상도중학교 운동장,서울특별시,동작구,서울특별시 동작구 사당로2가길 72(사당동),126.961828,37.490276,옥외대피소,4749.0
1061,1126000000,묵동초등학교운동장,서울특별시,중랑구,서울특별시 중랑구 동일로138길 27(중화동),127.081357,37.603895,옥외대피소,3206.0
1062,1150000000,등촌근린공원,서울특별시,강서구,서울특별시 강서구 강서로62길 35(등촌동),126.841791,37.563375,옥외대피소,10052.0
1063,1126000000,봉화초등학교운동장,서울특별시,중랑구,서울특별시 중랑구 신내로15길 110(신내동),127.09199,37.613271,옥외대피소,4314.0
1064,1153000000,신도림중학교 운동장,서울특별시,구로구,서울특별시 구로구 경인로63길 74(신도림동),126.885204,37.510279,옥외대피소,4476.0
1426,1162000000,미림여자고등학교 운동장,서울특별시,관악구,서울특별시 관악구 호암로 546(신림동),126.932103,37.466957,옥외대피소,12233.0
1427,1156000000,선유초등학교 운동장,서울특별시,영등포구,서울특별시 영등포구 선유로43가길 14(양평동3가),126.892669,37.532495,옥외대피소,2996.7
1428,1156000000,신길근린공원,서울특별시,영등포구,서울특별시 영등포구 도림로80길 6(신길동),126.906252,37.501413,옥외대피소,11596.3
1429,1130500000,청암어린이공원,서울특별시,강북구,서울특별시 강북구 미아동 776-17,127.017135,37.624113,옥외대피소,579.0
1430,1141000000,가재울고등학교 운동장,서울특별시,서대문구,서울특별시 서대문구 수색로 100-35 (북가좌동),126.909238,37.573927,옥외대피소,888.0
1431,1120000000,경일초등학교 운동장,서울특별시,성동구,서울특별시 성동구 뚝섬로 332(성수동1가),127.046988,37.540356,옥외대피소,2245.0
1432,1120000000,경수초등학교 운동장,서울특별시,성동구,서울특별시 성동구 뚝섬로13길 22(성수동2가),127.058287,37.539972,옥외대피소,3280.0
1433,1120000000,중랑물재생센터,서울특별시,성동구,서울특별시 성동구 자동차시장3길 64(용답동),127.064118,37.559807,옥외대피소,4500.0
1434,1138000000,은평문화예술정보학교 운동장,서울특별시,은평구,서울특별시 은평구 가좌로 208(응암동),126.919006,37.589231,옥외대피소,1000.0
1435,1162000000,신관중학교 운동장,서울특별시,관악구,서울특별시 관악구 신림로48길 17-16 (신림동),126.934448,37.480204,옥외대피소,3082.0
1436,1156000000,대영중학교 운동장,서울특별시,영등포구,서울특별시 영등포구 도림로80가길 14(신길동),126.905032,37.503049,옥외대피소,3089.8
1437,1130500000,상산어린이공원(플라터너스어린이공원),서울특별시,강북구,서울특별시 강북구 노해로8길 23(수유동),127.023826,37.638313,옥외대피소,1006.0
1438,1141000000,신연중학교 운동장,서울특별시,서대문구,서울특별시 서대문구 모래내로 408(연희동),126.939917,37.583314,옥외대피소,4537.0
1439,1120000000,금옥초등학교 운동장,서울특별시,성동구,서울특별시 성동구 독서당로 251(금호동4가),127.017879,37.546661,옥외대피소,1246.0
1440,1141000000,인왕중학교 운동장,서울특별시,서대문구,서울특별시 서대문구 세검정로4길 69(홍제동),126.952575,37.592805,옥외대피소,3934.0
1441,1174000000,둔촌중학교 운동장,서울특별시,강동구,서울특별시 강동구 진황도로61길 25-30 (둔촌동),127.146119,37.530233,옥외대피소,4081.0
1442,1138000000,연은초등학교 운동장,서울특별시,은평구,서울특별시 은평구 응암동 759-3,126.925192,37.590311,옥외대피소,889.0
1443,1129000000,청덕초등학교장 운동장,서울특별시,성북구,서울특별시 성북구 정릉로9라길 11(정릉동),127.000469,37.611607,옥외대피소,2567.0
1444,1129000000,종암중학교 운동장,서울특별시,성북구,서울특별시 성북구 종암로5길 80-17 (종암동),127.03233,37.592864,옥외대피소,3676.0
1445,1132000000,무지개어린이공원,서울특별시,도봉구,서울특별시 도봉구 도봉동 570-13,127.045023,37.685617,옥외대피소,100.0
1446,1132000000,누원어린이공원,서울특별시,도봉구,서울특별시 도봉구 도봉동 653,127.050145,37.680346,옥외대피소,974.0
1447,1159000000,삼일초등학교 운동장,서울특별시,동작구,서울특별시 동작구 사당로23나길 27(사당동),126.974788,37.487986,옥외대피소,1623.0
1448,1159000000,신길초등학교운동장,서울특별시,동작구,서울특별시 동작구 알마타길 16(대방동),126.926421,37.510409,옥외대피소,2336.0
1449,1159000000,대방중학교 운동장,서울특별시,동작구,서울특별시 동작구 여의대방로10길 24(신대방동),126.913885,37.495095,옥외대피소,2049.0
1450,1126000000,신현중학교운동장,서울특별시,중랑구,서울특별시 중랑구 봉화산로 162(상봉동),127.091928,37.604193,옥외대피소,4700.0
1451,1121500000,동국대학교 가람중고등학교 주차장,서울특별시,광진구,서울특별시 광진구 광나루로36길 47(구의동),127.086314,37.542344,옥외대피소,400.0
1452,1138000000,구산중학교 운동장,서울특별시,은평구,서울특별시 은평구 갈현로15길 20-23 (구산동),126.909138,37.609223,옥외대피소,4680.0
1453,1156000000,영등포근린공원,서울특별시,영등포구,서울특별시 영등포구 신길로 275(영등포동),126.910704,37.515317,옥외대피소,53361.6
1454,1130500000,보등골어린이공원,서울특별시,강북구,서울특별시 강북구 수유동 605-209,127.018321,37.63505,옥외대피소,888.0
1455,1130500000,오패어린이공원,서울특별시,강북구,서울특별시 강북구 미아동 258-236,127.032314,37.622346,옥외대피소,993.0
1456,1168000000,청담중학교 운동장,서울특별시,강남구,서울특별시 강남구 압구정로61길 36(청담동),127.04536,37.528971,옥외대피소,3660.0
1457,1138000000,좌월어린이공원,서울특별시,은평구,서울특별시 은평구 갈현동 513-1,126.913305,37.617301,옥외대피소,1321.0
1458,1138000000,대은초등학교 운동장,서울특별시,은평구,서울특별시 은평구 통일로69길 12-15 (대조동),126.926297,37.611693,옥외대피소,9366.0
1459,1129000000,정릉초등학교 운동장,서울특별시,성북구,서울특별시 성북구 솔샘로25가길 8(정릉동),127.005435,37.619432,옥외대피소,4654.0
1460,1129000000,서울도시과학기술고등학교 운동장,서울특별시,성북구,서울특별시 성북구 종암로 196(하월곡동),127.031687,37.607198,옥외대피소,6398.0
1461,1129000000,남대문중학교 운동장,서울특별시,성북구,서울특별시 성북구 한천로 660-30 (장위동),127.05563,37.618359,옥외대피소,2734.0
1462,1111000000,낙산공원,서울특별시,종로구,서울특별시 종로구 낙산길 54(동숭동),127.007103,37.580263,옥외대피소,577.0
1463,1159000000,중앙대학교사범대학부속중학교 운동장,서울특별시,동작구,서울특별시 동작구 서달로 124(흑석동),126.961396,37.504817,옥외대피소,3598.0
1464,1174000000,강명초등학교 운동장,서울특별시,강동구,서울특별시 강동구 상일로 74-1 (상일동),127.173488,37.554226,옥외대피소,2747.0
1465,1129000000,고명중학교 운동장,서울특별시,성북구,서울특별시 성북구 북악산로 870(돈암동),127.019989,37.597974,옥외대피소,6411.0
1466,1129000000,우촌초등학교 운동장,서울특별시,성북구,서울특별시 성북구 성북로4길 52-1 (돈암동),127.011739,37.595625,옥외대피소,1153.0
1467,1129000000,용문고등학교 운동장,서울특별시,성북구,서울특별시 성북구 고려대로17가길 46(안암동2가),127.024538,37.587871,옥외대피소,8423.0
1468,1129000000,고려대학사범대학부속중학교 운동장,서울특별시,성북구,서울특별시 성북구 정릉로 161(정릉동),127.001486,37.610266,옥외대피소,3772.0
1469,1129000000,장곡초등학교 운동장,서울특별시,성북구,서울특별시 성북구 장월로23길 16(장위동),127.04819,37.616507,옥외대피소,2084.0
1470,1129000000,월곡초등학교 운동장,서울특별시,성북구,서울특별시 성북구 장월로3길 42(장위동),127.046002,37.609716,옥외대피소,4327.0
1471,1129000000,광운초등학교 운동장,서울특별시,성북구,서울특별시 성북구 한천로 694(장위동),127.054671,37.618873,옥외대피소,4464.0
1472,1129000000,석관초등학교 운동장,서울특별시,성북구,서울특별시 성북구 돌곶이로22길 21(석관동),127.058982,37.610779,옥외대피소,2434.0
1473,1147000000,모세미어린이공원,서울특별시,양천구,서울특별시 양천구 목동 772-1,126.868684,37.53523,옥외대피소,988.0
1474,1144000000,성황당어린이공원(뒤뜰어린이공원),서울특별시,마포구,서울특별시 마포구 성산동 147-5,126.907309,37.569047,옥외대피소,1333.0
1475,1138000000,영락중학교 운동장,서울특별시,은평구,"서울특별시 은평구 백련산로 126-2 (응암동, )",126.925235,37.596384,옥외대피소,3240.0
1476,1132000000,유만어린이공원,서울특별시,도봉구,서울특별시 도봉구 창동 33-4,127.052947,37.650381,옥외대피소,1500.0
1477,1132000000,모랫어린이공원,서울특별시,도봉구,서울특별시 도봉구 창동 30-1,127.05177,37.646836,옥외대피소,1500.0
1478,1132000000,대창어린이공원,서울특별시,도봉구,서울특별시 도봉구 창동 38-4,127.052223,37.644343,옥외대피소,1500.0
1479,1159000000,숭실대학교 운동장,서울특별시,동작구,서울특별시 동작구 상도로 369(상도동),126.956046,37.497274,옥외대피소,7904.0
1480,1126000000,중목초등학교 운동장,서울특별시,중랑구,서울특별시 중랑구 동일로 665(면목동),127.079563,37.589819,옥외대피소,1820.0
1481,1174000000,성덕고등학교 운동장(성덕여자중학교 운동장),서울특별시,강동구,서울특별시 강동구 구천면로 396(천호동),127.142262,37.549887,옥외대피소,5320.0
1482,1162000000,일선어린이공원,서울특별시,관악구,서울특별시 관악구 쑥고개로26길 24(봉천동),126.949455,37.477976,옥외대피소,1028.0
1483,1174000000,강동고등학교 운동장,서울특별시,강동구,서울특별시 강동구 구천면로 572(상일동),127.161019,37.550251,옥외대피소,4560.0
1484,1126000000,수경공원,서울특별시,중랑구,서울특별시 중랑구 중랑천로 197(중화동),127.073933,37.603223,옥외대피소,5675.0
1485,1150000000,방화근린공원,서울특별시,강서구,서울특별시 강서구 금낭화로 178(방화동),126.812825,37.581504,옥외대피소,45735.0
1486,1126000000,송곡고등학교운동장,서울특별시,중랑구,서울특별시 중랑구 양원역로 50(망우동),127.10716,37.605405,옥외대피소,5775.0
1487,1120000000,도선고등학교 운동장,서울특별시,성동구,서울특별시 성동구 마장로 156(하왕십리동),127.027009,37.566323,옥외대피소,2730.0
1488,1120000000,마장초등학교 운동장,서울특별시,성동구,서울특별시 성동구 마장로35나길 31(마장동),127.042249,37.567956,옥외대피소,2064.0
1489,1120000000,동마중학교 운동장,서울특별시,성동구,서울특별시 성동구 마조로11길 18(마장동),127.039877,37.562314,옥외대피소,3105.0
1490,1120000000,행당중학교 운동장,서울특별시,성동구,서울특별시 성동구 왕십리로 189(행당동),127.042537,37.554147,옥외대피소,10048.0
1491,1120000000,한양광장,서울특별시,성동구,서울특별시 성동구 왕십리로 246(행당동),127.039996,37.558118,옥외대피소,2386.0
1492,1120000000,무지개텃밭,서울특별시,성동구,서울특별시 성동구 살곶이길 327(행당동),127.041083,37.55393,옥외대피소,6041.0
1493,1120000000,어린이꿈공원,서울특별시,성동구,서울특별시 성동구 왕십리로 281(행당동),127.036376,37.559171,옥외대피소,2506.0
1494,1162000000,새숲어린이공원,서울특별시,관악구,서울특별시 관악구 신림동 539-14,126.913067,37.482404,옥외대피소,963.0
1495,1138000000,앵봉산주민쉼터,서울특별시,은평구,서울특별시 은평구 갈현동 산 49-22,126.912237,37.62437,옥외대피소,704.0
1496,1174000000,명일여자고등학교 운동장,서울특별시,강동구,서울특별시 강동구 명일로 350(명일동),127.150255,37.549569,옥외대피소,5221.0
1497,1153000000,세곡초등학교 운동장,서울특별시,구로구,서울특별시 구로구 고척로33길 34(고척동),126.849089,37.504568,옥외대피소,2984.0
1498,1168000000,국립국악고등학교 운동장,서울특별시,강남구,서울특별시 강남구 개포로22길 65(개포동),127.051472,37.476134,옥외대피소,1392.0
1499,1121500000,동자초등학교 운동장 ,서울특별시,광진구,서울특별시 광진구 뚝섬로 561(자양동),127.072592,37.534522,옥외대피소,3698.0
1500,1121500000,성자초등학교 운동장,서울특별시,광진구,서울특별시 광진구 뚝섬로56길 7(자양동),127.0831,37.531089,옥외대피소,1472.0
1501,1121500000,광진중학교 운동장,서울특별시,광진구,서울특별시 광진구 뚝섬로64길 45(자양동),127.089664,37.531565,옥외대피소,4388.0
1502,1121500000,구남초등학교 운동장,서울특별시,광진구,서울특별시 광진구 구의강변로 69(구의동),127.092205,37.536662,옥외대피소,2356.0
1503,1162000000,비안어린이공원,서울특별시,관악구,서울특별시 관악구 봉천동 1530-14,126.940158,37.48082,옥외대피소,1678.0
1504,1138000000,연신어린이공원,서울특별시,은평구,서울특별시 은평구 불광동 339,126.925097,37.61977,옥외대피소,1220.0
1505,1126000000,송곡여자중학교운동장,서울특별시,중랑구,서울특별시 중랑구 양원역로 67(망우동),127.104902,37.605987,옥외대피소,2003.0
1506,1121500000,장안초등학교 운동장,서울특별시,광진구,서울특별시 광진구 군자로 74(군자동),127.071854,37.550007,옥외대피소,2097.0
1507,1121500000,건국대학교사범대학부속고등학교 운동장,서울특별시,광진구,서울특별시 광진구 능동로 120(화양동),127.08051,37.539468,옥외대피소,4926.0
1508,1121500000,동국대학교 사범대학 가람중고등학교 운동장,서울특별시,광진구,서울특별시 광진구 광나루로36길 47(구의동),127.086834,37.542642,옥외대피소,6100.0
1509,1121500000,광진초등학교 운동장,서울특별시,광진구,서울특별시 광진구 자양로40길 41(구의동),127.09082,37.547612,옥외대피소,1062.0
1510,1121500000,광장초등학교 운동장 ,서울특별시,광진구,서울특별시 광진구 광장로1길 27(광장동),127.101433,37.548157,옥외대피소,2452.0
1511,1121500000,광진구민체육센터 ,서울특별시,광진구,서울특별시 광진구 천호대로 831(광장동),127.107095,37.546033,옥외대피소,1806.0
1512,1121500000,세종초등학교 운동장,서울특별시,광진구,서울특별시 광진구 군자로 114(군자동),127.073008,37.5527,옥외대피소,2106.0
1513,1121500000,대원외국어고등학교 운동장 ,서울특별시,광진구,서울특별시 광진구 용마산로22길 26(중곡동),127.089215,37.56303,옥외대피소,3306.0
1514,1156000000,문래공원,서울특별시,영등포구,서울특별시 영등포구 문래동3가 66,126.89401,37.517147,옥외대피소,23612.8
1515,1156000000,양평어린이공원,서울특별시,영등포구,서울특별시 영등포구 양평동4가 301-7,126.898133,37.538106,옥외대피소,2737.0
1516,1156000000,두암어린이공원,서울특별시,영등포구,서울특별시 영등포구 대림동 715,126.89739,37.495505,옥외대피소,1397.5
1517,1120000000,꽃재어린이공원,서울특별시,성동구,서울특별시 성동구 하왕십리동 1069,127.028337,37.567384,옥외대피소,2900.0
1518,1120000000,성수공원,서울특별시,성동구,서울특별시 성동구 연무장5길 9-26 (성수동2가),127.052414,37.544791,옥외대피소,1238.0
1519,1162000000,교체어린이공원,서울특별시,관악구,서울특별시 관악구 봉천동 196-193,126.964029,37.473315,옥외대피소,813.0
1520,1162000000,남부창의어린이공원,서울특별시,관악구,서울특별시 관악구 남부순환로163가길 20(신림동),126.920578,37.484983,옥외대피소,999.0
1521,1126000000,수림대공원(서울장미공원),서울특별시,중랑구,서울특별시 중랑구 묵동 375,127.073092,37.615153,옥외대피소,1620.0
1522,1150000000,무지개어린이공원,서울특별시,강서구,서울특별시 강서구 화곡동 806-10,126.861292,37.53396,옥외대피소,976.0
1523,1150000000,더부리어린이공원,서울특별시,강서구,서울특별시 강서구 화곡동 339-19,126.84673,37.534883,옥외대피소,1364.0
1524,1150000000,공암나루근린공원,서울특별시,강서구,서울특별시 강서구 강서로80길 117(가양동),126.849845,37.570282,옥외대피소,24176.0
1525,1153000000,고원초등학교 운동장,서울특별시,구로구,서울특별시 구로구 경인로46길 13(고척동),126.865362,37.497209,옥외대피소,1196.0
1526,1153000000,개웅초등학교 운동장,서울특별시,구로구,서울특별시 구로구 개봉로11길 81(개봉동),126.851256,37.487265,옥외대피소,2252.0
1527,1153000000,신도림고등학교 운동장,서울특별시,구로구,서울특별시 구로구 경인로67길 159(신도림동),126.881575,37.513554,옥외대피소,2116.0
1528,1121500000,구의초등학교 운동장,서울특별시,광진구,서울특별시 광진구 광나루로30길 49(화양동),127.080152,37.542715,옥외대피소,3297.0
1529,1121500000,광남초등학교 운동장,서울특별시,광진구,서울특별시 광진구 아차산로70길 35(광장동),127.101022,37.540826,옥외대피소,3048.0
1530,1121500000,용마초등학교 운동장,서울특별시,광진구,서울특별시 광진구 천호대로113길 10(중곡동),127.084172,37.557891,옥외대피소,3583.0
1531,1121500000,중광초등학교 운동장 ,서울특별시,광진구,서울특별시 광진구 긴고랑로13길 59(중곡동),127.082631,37.565008,옥외대피소,653.0
1532,1120000000,왕십리문화공원,서울특별시,성동구,서울특별시 성동구 왕십리로 310(도선동),127.035292,37.561792,옥외대피소,1315.0
1533,1150000000,배다리공원,서울특별시,강서구,서울특별시 강서구 화곡동 341-24,126.848293,37.532123,옥외대피소,1630.0
1534,1153000000,구일초등학교 운동장,서울특별시,구로구,서울특별시 구로구 구일로 68(구로동),126.873008,37.49271,옥외대피소,3340.0
1535,1150000000,내촌어린이공원,서울특별시,강서구,서울특별시 강서구 개화동 551-26,126.80137,37.577598,옥외대피소,1091.0
1536,1150000000,신대부석공원,서울특별시,강서구,서울특별시 강서구 개화동 411,126.798865,37.582875,옥외대피소,714.0
1537,1130500000,소귀어린이공원,서울특별시,강북구,서울특별시 강북구 수유동 25-1,127.018659,37.638588,옥외대피소,881.0
1538,1153000000,온수초등학교 운동장,서울특별시,구로구,서울특별시 구로구 부일로 893(온수동),126.825992,37.49368,옥외대피소,4114.0
1539,1154500000,골말공원,서울특별시,금천구,서울특별시 금천구 가산동 28-2,126.884539,37.482915,옥외대피소,1158.0
1540,1150000000,백석어린이공원,서울특별시,강서구,서울특별시 강서구 공항대로57길 31(등촌동),126.863526,37.552609,옥외대피소,928.0
1541,1153000000,삼각어린이공원,서울특별시,구로구,서울특별시 구로구 구로동 47,126.891977,37.501392,옥외대피소,1205.0
1542,1141000000,인창고등학교 운동장,서울특별시,서대문구,서울특별시 서대문구 경기대로 65(충정로2가),126.963624,37.565066,옥외대피소,10537.0
1543,1168000000,포이초등학교 운동장,서울특별시,강남구,서울특별시 강남구 개포로22길 87(개포동),127.052497,37.475582,옥외대피소,4200.0
1544,1154500000,무아래공원,서울특별시,금천구,서울특별시 금천구 가산동 234-29,126.893259,37.473351,옥외대피소,821.0
1545,1130500000,한빛어린이공원,서울특별시,강북구,서울특별시 강북구 솔매로41길 48(미아동),127.022849,37.627738,옥외대피소,1055.0
1546,1130500000,운산어린이공원,서울특별시,강북구,서울특별시 강북구 도봉로72길 28(미아동),127.025561,37.632088,옥외대피소,995.0
1547,1154500000,소망어린이공원,서울특별시,금천구,서울특별시 금천구 독산로75길 12-7 (독산동),126.901506,37.46948,옥외대피소,788.0
1548,1154500000,조마공원,서울특별시,금천구,서울특별시 금천구 시흥대로149가길 6(가산동),126.895727,37.475573,옥외대피소,821.0
1549,1174000000,일자산 그린웨이캠핑장,서울특별시,강동구,서울특별시 강동구 천호대로206길 87(둔촌동),127.15294,37.536223,옥외대피소,5022.0
1550,1153000000,오남중학교 운동장,서울특별시,구로구,서울특별시 구로구 오리로9길 25(오류동),126.836069,37.487101,옥외대피소,2546.0
1551,1147000000,나말어린이공원,서울특별시,양천구,서울특별시 양천구 목동중앙남로3가길 68(목동),126.864595,37.53863,옥외대피소,1002.0
1552,1147000000,창의어린이놀이터(목동근린공원),서울특별시,양천구,서울특별시 양천구 목동 517,126.878566,37.546619,옥외대피소,6606.0
1553,1123000000,우산각어린이공원,서울특별시,동대문구,서울특별시 동대문구 천호대로4길 22(신설동),127.024347,37.573398,옥외대피소,5294.0
1554,1123000000,전일중학교 운동장,서울특별시,동대문구,서울특별시 동대문구 사가정로13길 67(전농동),127.058584,37.581285,옥외대피소,5600.0
1555,1123000000,쉼터어린이공원,서울특별시,동대문구,서울특별시 동대문구 황물로17길 24(답십리동),127.059518,37.564775,옥외대피소,1329.0
1556,1123000000,휘경여자고등학교 운동장,서울특별시,동대문구,서울특별시 동대문구 한천로 247(휘경동),127.067538,37.583213,옥외대피소,4418.0
1557,1130500000,벽오산어린이공원,서울특별시,강북구,서울특별시 강북구 미아동 258-56,127.030201,37.627646,옥외대피소,1250.0
1558,1130500000,세일어린이공원,서울특별시,강북구,서울특별시 강북구 덕릉로30길 30(미아동),127.025254,37.633556,옥외대피소,849.0
1559,1147000000,목마공원,서울특별시,양천구,서울특별시 양천구 목동 910,126.885531,37.538171,옥외대피소,11228.0
1560,1171000000,일신여자상업고등학교운동장,서울특별시,송파구,서울특별시 송파구 송파대로38길 8(송파동),127.113965,37.501214,옥외대피소,13369.0
1561,1168000000,휘문중학교 운동장,서울특별시,강남구,서울특별시 강남구 역삼로 541(대치동),127.062898,37.505572,옥외대피소,2500.0
1562,1171000000,배명고등학교운동장,서울특별시,송파구,서울특별시 송파구 삼학사로 11(삼전동),127.095825,37.498315,옥외대피소,4006.0
1563,1174000000,강일고등학교운동장,서울특별시,강동구,서울특별시 강동구 아리수로98길 40(강일동),127.177388,37.564179,옥외대피소,4274.0
1564,1117000000,서빙고근린공원,서울특별시,용산구,서울특별시 용산구 용산동5가 24-2,126.97153,37.524709,옥외대피소,11880.0
1565,1117000000,성촌공원,서울특별시,용산구,서울특별시 용산구 이촌로 124(이촌동),126.953045,37.52814,옥외대피소,8800.0
1566,1135000000,서울수암초등학교,서울특별시,노원구,서울특별시 노원구 중계로12길 9(중계동),127.0815,37.6482,옥외대피소,13380.0
1567,1135000000,불암고등학교,서울특별시,노원구,서울특별시 노원구 중계로 155(중계동),127.0802,37.649,옥외대피소,12628.0
1568,1174000000,강동중학교운동장,서울특별시,강동구,"서울특별시 강동구 아리수로97길 68(강일동, 강일리버파크2단지아파트)",127.176126,37.56938,옥외대피소,4044.0
1569,1117000000,용산가족공원,서울특별시,용산구,서울특별시 용산구 서빙고로 137(용산동6가),126.982394,37.522593,옥외대피소,62260.0
1570,1129000000,서울일신초등학교 운동장,서울특별시,성북구,서울특별시 성북구 월곡로 74(종암동),127.040118,37.599135,옥외대피소,2360.0
1571,1129000000,늘푸른-솔향기 어린이 공원,서울특별시,성북구,서울특별시 성북구 길음동 1184-36,127.021137,37.608361,옥외대피소,7405.0
1572,1129000000,한울 어린이 공원,서울특별시,성북구,서울특별시 성북구 정릉동 169-16,127.013909,37.605865,옥외대피소,1965.0
1573,1129000000,오동공원 놀이마당,서울특별시,성북구,서울특별시 성북구 하월곡동 228-4,127.039377,37.609257,옥외대피소,10034.0
1574,1129000000,솔숲 어린이 공원,서울특별시,성북구,서울특별시 성북구 정릉동 170-62,127.015117,37.604934,옥외대피소,1947.0
1575,1130500000,오얏골공원,서울특별시,강북구,서울특별시 강북구 번동 228,127.034285,37.634049,옥외대피소,5070.0
1576,1130500000,오현어린이공원,서울특별시,강북구,"서울특별시 강북구 한천로105길 23(번동, 번동1단지주공아파트)",127.046469,37.623733,옥외대피소,3661.0
1577,1130500000,늘푸른공원,서울특별시,강북구,서울특별시 강북구 미아동 797-9,127.019685,37.625438,옥외대피소,646.0
1578,1130500000,구세군길 마을마당,서울특별시,강북구,서울특별시 강북구 미아동 791-1343,127.014709,37.626754,옥외대피소,524.0
1579,1130500000,솔샘어린이공원,서울특별시,강북구,서울특별시 강북구 솔샘로65길 19(미아동),127.027039,37.618151,옥외대피소,1264.1
1580,1130500000,응달마을어린이공원,서울특별시,강북구,서울특별시 강북구 미아동 860-116,127.024332,37.618216,옥외대피소,866.0
1581,1130500000,고갯마루공원,서울특별시,강북구,서울특별시 강북구 미아동 811-13,127.016974,37.616485,옥외대피소,2185.0
1582,1130500000,은모루어린이공원,서울특별시,강북구,서울특별시 강북구 도봉로95길 48(수유동),127.026819,37.642397,옥외대피소,918.0
1583,1171000000,보인고등학교운동장,서울특별시,송파구,서울특별시 송파구 오금로49길 18(오금동),127.13841,37.497642,옥외대피소,7343.0
1584,1171000000,정신여자고등학교운동장,서울특별시,송파구,서울특별시 송파구 올림픽로4길 16(잠실동),127.072213,37.509907,옥외대피소,10092.0
1585,1147000000,목4동 소공원,서울특별시,양천구,서울특별시 양천구 목동 904-5,126.86884,37.532646,옥외대피소,435.0
1296,1147000000,신서초등학교 운동장,서울특별시,양천구,서울특별시 양천구 신정동 312-1,126.862549,37.520137,옥외대피소,4900.0
1297,1147000000,양명초등학교 운동장,서울특별시,양천구,서울특별시 양천구 신정동 310-6,126.856694,37.51568,옥외대피소,2400.0
1298,1147000000,목동중학교 운동장,서울특별시,양천구,서울특별시 양천구 목동동로 172(신정동),126.871362,37.520474,옥외대피소,4451.0
1299,1147000000,목동초등학교 운동장,서울특별시,양천구,서울특별시 양천구 목동동로12길 12(신정동),126.872091,37.522491,옥외대피소,1746.0
1300,1147000000,신목초등학교 운동장,서울특별시,양천구,서울특별시 양천구 신목로5길 11-6 (신정동),126.872907,37.516891,옥외대피소,1555.0
1301,1147000000,신세계어린이공원,서울특별시,양천구,서울특별시 양천구 신정동 119-3,126.875875,37.521729,옥외대피소,520.0
1302,1147000000,금옥중학교 운동장,서울특별시,양천구,서울특별시 양천구 신정동 729,126.844253,37.510077,옥외대피소,2750.0
1303,1147000000,남명초등학교 운동장,서울특별시,양천구,서울특별시 양천구 중앙로23길 3(신정동),126.853986,37.514985,옥외대피소,5900.0
1304,1147000000,넓은들어린이공원,서울특별시,양천구,서울특별시 양천구 남부순환로88길 19(신정동),126.839079,37.511174,옥외대피소,3288.0
1305,1147000000,넘은들공원,서울특별시,양천구,서울특별시 양천구 신정동 1286,126.840473,37.512995,옥외대피소,16159.0
1306,1147000000,신기초등학교 운동장,서울특별시,양천구,서울특별시 양천구 신정동 1274,126.854182,37.510962,옥외대피소,6440.0
1307,1147000000,신은초등학교 운동장,서울특별시,양천구,서울특별시 양천구 신정동 1319,126.83251,37.513427,옥외대피소,1200.0
1308,1147000000,신서고등학교  운동장,서울특별시,양천구,서울특별시 양천구 신정동 984-1,126.85971,37.523779,옥외대피소,1167.0
1309,1147000000,앞산어린이공원,서울특별시,양천구,서울특별시 양천구 중앙로52길 73(신정동),126.858365,37.526437,옥외대피소,592.0
1310,1147000000,양목초등학교 운동장,서울특별시,양천구,서울특별시 양천구 신정동 1001,126.861111,37.523622,옥외대피소,3016.0
1311,1147000000,음골어린이공원,서울특별시,양천구,서울특별시 양천구 신정동 936-13,126.851218,37.527392,옥외대피소,824.0
1312,1117000000,새나라어린이공원,서울특별시,용산구,서울특별시 용산구 후암동 190-1,126.976448,37.547891,옥외대피소,1735.0
1313,1117000000,청파문화공원,서울특별시,용산구,서울특별시 용산구 서계동 226-3,126.968206,37.553615,옥외대피소,1281.0
1314,1117000000,돌모루어린이공원,서울특별시,용산구,서울특별시 용산구 원효로97길 50(청파동3가),126.968502,37.542917,옥외대피소,1900.0
1315,1168000000,청담목련어린이공원,서울특별시,강남구,서울특별시 강남구 청담동 51,127.049947,37.522957,옥외대피소,750.0
1316,1144000000,잔다리어린이공원,서울특별시,마포구,서울특별시 마포구 동교로 95(서교동),126.912876,37.554635,옥외대피소,758.0
1317,1147000000,홍익어린이공원,서울특별시,양천구,서울특별시 양천구 신정동 896-22,126.862256,37.528585,옥외대피소,713.0
1318,1147000000,호돌이어린이공원,서울특별시,양천구,서울특별시 양천구 신정동 326-2,126.86131,37.512456,옥외대피소,3528.0
1319,1147000000,목일중학교 운동장,서울특별시,양천구,서울특별시 양천구 신정동 330-2,126.874582,37.513131,옥외대피소,1878.0
1320,1147000000,신목고등학교 운동장,서울특별시,양천구,서울특별시 양천구 신정동 330-3,126.873932,37.512461,옥외대피소,3278.0
1321,1147000000,양천근린공원,서울특별시,양천구,서울특별시 양천구 목동동로 지하111(신정동),126.868089,37.517955,옥외대피소,31066.0
1322,1147000000,해누리체육공원,서울특별시,양천구,서울특별시 양천구 안양천로 711(신정동),126.872224,37.511638,옥외대피소,29149.0
1323,1147000000,갈산초등학교 운동장,서울특별시,양천구,서울특별시 양천구 신정동 330-10,126.870107,37.511657,옥외대피소,3528.0
1324,1147000000,계남초등학교 운동장,서울특별시,양천구,서울특별시 양천구 신정동 325-7,126.86015,37.509732,옥외대피소,5363.0
1325,1147000000,갈산공원,서울특별시,양천구,서울특별시 양천구 목동남로 106-23 (신정동),126.869002,37.508035,옥외대피소,4591.0
1326,1147000000,목동고등학교 운동장,서울특별시,양천구,서울특별시 양천구 신정동 325-8,126.860736,37.508879,옥외대피소,716.0
1327,1144000000,구룡(근린)공원,서울특별시,마포구,서울특별시 마포구 월드컵북로 456(상암동),126.883921,37.582996,옥외대피소,14286.0
1328,1144000000,홍익어린이공원,서울특별시,마포구,서울특별시 마포구 와우산로21길 19-3 (서교동),126.923335,37.552239,옥외대피소,2312.0
1329,1138000000,증산중학교 운동장,서울특별시,은평구,서울특별시 은평구 증산로5길 27-30 (증산동),126.904361,37.583379,옥외대피소,3781.0
1330,1120000000,성수중학교 운동장,서울특별시,성동구,서울특별시 성동구 서울숲길 18(성수동1가),127.038658,37.547969,옥외대피소,2596.0
1331,1120000000,경수중학교 운동장,서울특별시,성동구,서울특별시 성동구 뚝섬로13길 14(성수동2가),127.058389,37.539105,옥외대피소,2739.0
1332,1154500000,안천중학교 운동장,서울특별시,금천구,서울특별시 금천구 한내로 69-44 (독산동),126.887809,37.459132,옥외대피소,4105.0
1333,1154500000,금나래초등학교 운동장,서울특별시,금천구,서울특별시 금천구 시흥대로79길 37(독산동),126.896595,37.457834,옥외대피소,1839.0
1334,1154500000,두산초등학교 운동장,서울특별시,금천구,서울특별시 금천구 독산동 1002-5,126.891025,37.467069,옥외대피소,4295.0
1335,1154500000,세일중학교 운동장,서울특별시,금천구,서울특별시 금천구 독산동 147-2,126.895975,37.474165,옥외대피소,4293.0
1336,1154500000,철쭉어린이공원,서울특별시,금천구,서울특별시 금천구 금하로1마길 15-8 (독산동),126.889885,37.453061,옥외대피소,1417.0
1337,1154500000,독산초등학교 운동장,서울특별시,금천구,서울특별시 금천구 독산동 1034,126.900072,37.465189,옥외대피소,2592.0
1338,1154500000,독산마을공원,서울특별시,금천구,서울특별시 금천구 시흥대로98길 27(독산동),126.899294,37.463839,옥외대피소,2243.0
1339,1154500000,정훈어린이공원,서울특별시,금천구,서울특별시 금천구 독산로58나길 64(독산동),126.906314,37.465631,옥외대피소,1038.0
1340,1154500000,무지개어린이공원,서울특별시,금천구,서울특별시 금천구 시흥대로90길 60-3 (독산동),126.901037,37.462963,옥외대피소,684.0
1341,1154500000,금천초등학교 운동장,서울특별시,금천구,서울특별시 금천구 시흥동 216,126.91249,37.454527,옥외대피소,2599.0
1342,1154500000,백산초등학교 운동장,서울특별시,금천구,서울특별시 금천구 시흥동 438-5,126.904995,37.447082,옥외대피소,2984.0
1343,1156000000,여의도중학교 운동장,서울특별시,영등포구,서울특별시 영등포구 국제금융로7길 46(여의도동),126.935359,37.523759,옥외대피소,8057.0
1344,1120000000,옥정중학교 운동장,서울특별시,성동구,서울특별시 성동구 한림말길 11(옥수동),127.012719,37.541424,옥외대피소,3189.0
1345,1120000000,동호초등학교 운동장,서울특별시,성동구,서울특별시 성동구 매봉길 49-35 (옥수동),127.010268,37.546355,옥외대피소,990.0
1346,1154500000,시흥초등학교 운동장,서울특별시,금천구,서울특별시 금천구 시흥동 841-19,126.904714,37.454769,옥외대피소,3687.0
1347,1154500000,문일고등학교 운동장,서울특별시,금천구,서울특별시 금천구 시흥동 559-1,126.898429,37.449377,옥외대피소,11153.0
1348,1154500000,문백초등학교 운동장,서울특별시,금천구,서울특별시 금천구 시흥동 564-5,126.899232,37.4472,옥외대피소,1841.0
1349,1154500000,새재미공원,서울특별시,금천구,서울특별시 금천구 독산로39길 16(시흥동),126.904157,37.458998,옥외대피소,997.0
1350,1154500000,정심초등학교 운동장,서울특별시,금천구,서울특별시 금천구 독산동 182-44,126.908559,37.471274,옥외대피소,2932.0
1351,1154500000,쌈지어린이공원,서울특별시,금천구,서울특별시 금천구 독산동 189-1,126.903985,37.470856,옥외대피소,866.0
1352,1154500000,한사랑어린이공원,서울특별시,금천구,서울특별시 금천구 독산동 925-2,126.904524,37.467709,옥외대피소,522.0
1353,1154500000,신흥초등학교 운동장,서울특별시,금천구,서울특별시 금천구 시흥동 704-56,126.908763,37.459254,옥외대피소,3252.0
1354,1154500000,한울중학교 운동장,서울특별시,금천구,서울특별시 금천구 시흥동 792-1,126.907121,37.46216,옥외대피소,2931.0
1355,1154500000,금동초등학교 운동장,서울특별시,금천구,서울특별시 금천구 시흥동 1013-1,126.916413,37.447424,옥외대피소,2592.0
1356,1154500000,탑동초등학교 운동장,서울특별시,금천구,서울특별시 금천구 시흥동 230,126.914065,37.452668,옥외대피소,2586.0
1357,1138000000,갈곡리어린이공원,서울특별시,은평구,서울특별시 은평구 갈현로41길 3(갈현동),126.916403,37.623946,옥외대피소,957.0
1358,1138000000,박석어린이공원,서울특별시,은평구,서울특별시 은평구 통일로89길 18-14 (갈현동),126.91859,37.625153,옥외대피소,738.0
1359,1154500000,난곡중학교 운동장,서울특별시,금천구,서울특별시 금천구 독산동 906-41,126.911049,37.477592,옥외대피소,6057.0
1360,1154500000,문성중학교 운동장,서울특별시,금천구,서울특별시 금천구 독산동 61,126.908182,37.475709,옥외대피소,4176.0
1361,1154500000,영남초등학교 운동장,서울특별시,금천구,서울특별시 금천구 독산동 59-27,126.909342,37.475819,옥외대피소,4261.0
1362,1154500000,문성초등학교 운동장,서울특별시,금천구,서울특별시 금천구 독산동 982,126.899219,37.474307,옥외대피소,2773.0
1363,1147000000,목운중학교 운동장,서울특별시,양천구,서울특별시 양천구 목동 922,126.872566,37.526703,옥외대피소,1799.0
1364,1147000000,목운초등학교 운동장,서울특별시,양천구,서울특별시 양천구 목동 922,126.87325,37.526542,옥외대피소,1598.0
1365,1147000000,서정초등학교 운동장,서울특별시,양천구,서울특별시 양천구 목동로8길 19(목동),126.867481,37.52392,옥외대피소,3671.0
1366,1147000000,오목공원,서울특별시,양천구,서울특별시 양천구 목동서로 159-2 (목동),126.873202,37.527994,옥외대피소,21021.0
1367,1147000000,진명여자고등학교 운동장,서울특별시,양천구,서울특별시 양천구 목동 927-6,126.866078,37.523518,옥외대피소,5038.0
1368,1147000000,달마을근린공원,서울특별시,양천구,서울특별시 양천구 목동 904-5,126.868821,37.532616,옥외대피소,28606.0
1369,1147000000,목2동 마을쉼터(어울림쉼터),서울특별시,양천구,서울특별시 양천구 목동중앙본로32길 7(목동),126.8715,37.5454,옥외대피소,562.0
1370,1147000000,용왕산근린공원 운동장,서울특별시,양천구,서울특별시 양천구 용왕정길 30(목동),126.87793,37.543193,옥외대피소,195308.0
1371,1147000000,양화초등학교 운동장,서울특별시,양천구,서울특별시 양천구 목동 542,126.874523,37.54375,옥외대피소,5210.0
1372,1147000000,효봉어린이공원,서울특별시,금천구,서울특별시 금천구 시흥동 4-28,126.910462,37.460662,옥외대피소,503.0
1373,1147000000,느티나무상상어린이공원,서울특별시,금천구,서울특별시 금천구 시흥동 817,126.90671,37.456179,옥외대피소,939.0
1374,1147000000,백석어린이공원,서울특별시,양천구,서울특별시 양천구 목동중앙북로8길 76(목동),126.865026,37.545176,옥외대피소,708.0
1375,1147000000,양동중학교 운동장,서울특별시,양천구,서울특별시 양천구 목동 600-6,126.86919,37.547637,옥외대피소,6435.0
1376,1147000000,한두어린이공원,서울특별시,양천구,서울특별시 양천구 목동중앙북로7가길 37(목동),126.865457,37.549203,옥외대피소,986.0
1377,1147000000,강서고등학교 운동장,서울특별시,양천구,서울특별시 양천구 목동 735,126.866291,37.536362,옥외대피소,4562.0
1378,1147000000,은행어린이공원,서울특별시,금천구,서울특별시 금천구 금하로 689-2 (시흥동),126.906965,37.452076,옥외대피소,706.0
1379,1147000000,별장길어린이공원,서울특별시,금천구,서울특별시 금천구 시흥동 925-32,126.908567,37.448171,옥외대피소,798.0
1380,1147000000,산장어린이공원,서울특별시,금천구,서울특별시 금천구 시흥동 3-17,126.912486,37.46092,옥외대피소,678.0
1381,1147000000,정목초등학교 운동장,서울특별시,양천구,서울특별시 양천구 목동중앙로3길 30-10 (목동),126.869611,37.536591,옥외대피소,3800.0
1382,1138000000,기자촌근린공원,서울특별시,은평구,서울특별시 은평구 진관동 175-628,126.936294,37.634489,옥외대피소,128954.0
1383,1147000000,금빛공원,서울특별시,금천구,서울특별시 금천구 금하로 668(시흥동),126.904121,37.453111,옥외대피소,5827.0
1384,1147000000,신목중학교 운동장,서울특별시,양천구,서울특별시 양천구 목동중앙로 88(목동),126.87255,37.536663,옥외대피소,3148.0
1385,1147000000,영도초등학교 운동장,서울특별시,양천구,서울특별시 양천구 목동중앙로 70(목동),126.871524,37.535769,옥외대피소,4591.0
1386,1147000000,월촌중학교 운동장,서울특별시,양천구,서울특별시 양천구 목동서로 31(목동),126.882614,37.53731,옥외대피소,2357.0
1387,1147000000,파리공원,서울특별시,양천구,서울특별시 양천구 목동동로 363(목동),126.876749,37.53451,옥외대피소,28412.0
1388,1147000000,돌다리어린이공원,서울특별시,양천구,서울특별시 양천구 곰달래로11길 24(신월동),126.835696,37.532108,옥외대피소,726.0
1389,1147000000,신대어린이공원,서울특별시,양천구,서울특별시 양천구 신월동 100-1,126.832746,37.534798,옥외대피소,775.0
1390,1147000000,신월1동휴게공간(마을마당),서울특별시,양천구,서울특별시 양천구 곰달래로3길 13(신월동),126.83319,37.530602,옥외대피소,1396.0
1391,1147000000,신월어린이공원,서울특별시,양천구,서울특별시 양천구 신월동 240,126.838191,37.527009,옥외대피소,953.0
1392,1147000000,신강초등학교 운동장,서울특별시,양천구,서울특별시 양천구 신월동 448-5,126.84169,37.525867,옥외대피소,2706.0
1393,1147000000,신남중학교 운동장,서울특별시,양천구,서울특별시 양천구 중앙로29길 109(신월동),126.847919,37.520542,옥외대피소,2227.0
1394,1147000000,신장어린이공원,서울특별시,양천구,서울특별시 양천구 오목로9길 20-1 (신월동),126.842781,37.524294,옥외대피소,841.0
1395,1147000000,양강중학교 운동장,서울특별시,양천구,서울특별시 양천구 신월동 499-2,126.849523,37.524309,옥외대피소,6924.0
1396,1147000000,양강초등학교 운동장,서울특별시,양천구,서울특별시 양천구 오목로 101(신월동),126.848027,37.524035,옥외대피소,4472.0
1397,1147000000,경인어린이공원,서울특별시,양천구,서울특별시 양천구 신월동 196,126.828872,37.532113,옥외대피소,1012.0
1398,1147000000,남부어린이공원,서울특별시,양천구,서울특별시 양천구 가로공원로56길 30(신월동),126.826097,37.534768,옥외대피소,910.0
1399,1147000000,서서울호수공원 내 열린풀밭,서울특별시,양천구,서울특별시 양천구 남부순환로64길 26(신월동),126.832122,37.527666,옥외대피소,5061.0
1400,1147000000,신원초등학교 운동장,서울특별시,양천구,서울특별시 양천구 남부순환로58길 32(신월동),126.830207,37.529468,옥외대피소,2560.0
1401,1147000000,양서중학교 운동장,서울특별시,양천구,서울특별시 양천구 신월동 169-4,126.829543,37.532833,옥외대피소,2109.0
1402,1156000000,메낙골근린공원,서울특별시,영등포구,서울특별시 영등포구 신길동 4934-4,126.915286,37.50667,옥외대피소,7249.9
1403,1159000000,노량진근린공원(송학대공원),서울특별시,동작구,서울특별시 동작구 노량진동 325-2,126.9438,37.508637,옥외대피소,11075.0
1404,1162000000,관악산 으뜸공원,서울특별시,관악구,서울특별시 관악구 신림로 23(신림동),126.945291,37.468585,옥외대피소,2753.0
1405,1111000000,배화여자고등학교 운동장,서울특별시,종로구,서울특별시 종로구 필운대로1길 34(필운동),126.967916,37.578237,옥외대피소,2432.0
1406,1111000000,내수2근린공원,서울특별시,종로구,서울특별시 종로구 내수동 73-3,126.971602,37.572366,옥외대피소,2310.0
1407,1162000000,인헌중학교 운동장,서울특별시,관악구,서울특별시 관악구 인헌9길 35(봉천동),126.969202,37.472839,옥외대피소,7225.0
1408,1117000000,용산구청 광장,서울특별시,용산구,서울특별시 용산구 녹사평대로 150(이태원동),126.989793,37.532782,옥외대피소,2300.0
1409,1156000000,중앙어린이공원,서울특별시,영등포구,서울특별시 영등포구 영등포로35길 13(영등포동6가),126.903688,37.521368,옥외대피소,3221.6
1410,1156000000,자매공원,서울특별시,영등포구,서울특별시 영등포구 여의대방로 372-1 (여의도동),126.930478,37.51747,옥외대피소,15594.0
1411,1159000000,숭의여자고등학교운동장,서울특별시,동작구,서울특별시 동작구 여의대방로36길 79(대방동),126.929319,37.507958,옥외대피소,3358.0
1412,1162000000,문영여자중학교 운동장,서울특별시,관악구,서울특별시 관악구 관악로 85(봉천동),126.95144,37.472725,옥외대피소,25342.0
1413,1162000000,청룡초등학교 운동장,서울특별시,관악구,서울특별시 관악구 관악로5길 61(봉천동),126.951517,37.476682,옥외대피소,5865.0
1414,1141000000,홍은중학교 운동장,서울특별시,서대문구,서울특별시 서대문구 연희로41길 94(홍은동),126.934834,37.592531,옥외대피소,586.0
1415,1162000000,낙성대공원,서울특별시,관악구,서울특별시 관악구 낙성대로 77(봉천동),126.959365,37.472061,옥외대피소,5894.0
1416,1156000000,중마루근린공원,서울특별시,영등포구,서울특별시 영등포구 영등포로53길 14(영등포동2가),126.911329,37.519815,옥외대피소,5367.0
1417,1130500000,푸른어린이공원,서울특별시,강북구,서울특별시 강북구 수유동 516-44,127.00849,37.638495,옥외대피소,995.0
1418,1156000000,영일어린이공원,서울특별시,영등포구,서울특별시 영등포구 영등포동 647-3,126.903891,37.510136,옥외대피소,5258.3
1419,1162000000,백설어린이공원,서울특별시,관악구,서울특별시 관악구 관악로6길 50(봉천동),126.95363,37.476013,옥외대피소,1647.0
1420,1162000000,상록어린이공원,서울특별시,관악구,서울특별시 관악구 승방3나길 14(남현동),126.98038,37.472898,옥외대피소,1447.0
1421,1162000000,해태어린이공원,서울특별시,관악구,서울특별시 관악구 서림3길 47(신림동),126.940594,37.472516,옥외대피소,1252.0
1422,1162000000,원신초등학교 운동장,서울특별시,관악구,서울특별시 관악구 광신길 177(신림동),126.927177,37.466817,옥외대피소,2253.0
1423,1174000000,둔촌고등학교 운동장,서울특별시,강동구,서울특별시 강동구 명일로 140(둔촌동),127.143912,37.530952,옥외대피소,2883.0
1424,1111000000,경복고등학교 운동장,서울특별시,종로구,서울특별시 종로구 자하문로28가길 9(청운동),126.970743,37.58692,옥외대피소,11577.0
1425,1162000000,난곡초등학교 운동장,서울특별시,관악구,서울특별시 관악구 난곡로35길 102(신림동),126.91716,37.469366,옥외대피소,4845.0
