facility_id,facility_name,sido,sigungu,address,lon,lat,facility_type,area
177,증산동주민센터,서울특별시,은평구,서울특별시 은평구 증산동 187-19,126.907027,37.584342,임시주거시설,83
178,증산초등학교 체육관,서울특별시,은평구,서울특별시 은평구 증산동 212-0,126.904182,37.582672,임시주거시설,594
179,수색초등학교,서울특별시,은평구,서울특별시 은평구 수색동 129,126.895562,37.585035,임시주거시설,926
180,수색동 주민센터,서울특별시,은평구,서울특별시 은평구 수색동 363-11,126.89377,37.583336,임시주거시설,168
181,진관동 주민센터,서울특별시,은평구,서울특별시 은평구 진관동 78,126.920894,37.635031,임시주거시설,174
182,구산동주민센터,서울특별시,은평구,서울특별시 은평구 구산동 27-5,126.91036,37.611767,임시주거시설,160
183,역촌동 주민센터,서울특별시,은평구,서울특별시 은평구 역촌동 62-26,126.915104,37.604424,임시주거시설,425
184,덕산중학교 체육관,서울특별시,은평구,서울특별시 은평구 신사동 265-4,126.904315,37.602008,임시주거시설,600
185,신사1동주민센터,서울특별시,은평구,서울특별시 은평구 신사동 29-2,126.91183,37.597834,임시주거시설,207
186,신사2동주민센터,서울특별시,은평구,서울특별시 은평구 신사동 163-17,126.908387,37.59026,임시주거시설,146
187,서울서신초등학교,서울특별시,은평구,서울특별시 은평구 신사동 194-0,126.907569,37.592412,임시주거시설,551
188,증산중학교 다목적강당,서울특별시,은평구,서울특별시 은평구 증산동 산24-4,126.904132,37.583636,임시주거시설,2001
189,염리생활체육관,서울특별시,마포구,서울특별시 마포구 염리동 174-3,126.947591,37.541815,임시주거시설,138
190,염리생활체육관,서울특별시,마포구,서울특별시 마포구 염리동 174-3,126.945391,37.541815,임시주거시설,930
191,용강초등학교,서울특별시,마포구,서울특별시 마포구 대흥동 35-1,126.944122,37.549086,임시주거시설,968
192,마포아트센터,서울특별시,마포구,서울특별시 마포구 대흥동 30-3,126.945977,37.550109,임시주거시설,70
193,마포아트센터,서울특별시,마포구,서울특별시 마포구 대흥동 30-3,126.94555,37.549903,임시주거시설,198
194,서문교회,서울특별시,은평구,서울특별시 은평구 응암동 577-57,126.916739,37.591613,임시주거시설,198
197,마포아트센터,서울특별시,마포구,서울특별시 마포구 대흥동 30-3,126.945963,37.550067,임시주거시설,264
198,마포아트센터,서울특별시,마포구,서울특별시 마포구 대흥동 30-3,126.945184,37.549961,임시주거시설,1038
199,은평다목적체육관,서울특별시,은평구,서울특별시 은평구 진관동 362-0,126.924875,37.631253,임시주거시설,2125
200,보훈회관,서울특별시,은평구,서울특별시 은평구 진관동 78-0,126.920754,37.634968,임시주거시설,52
201,용강동주민센터,서울특별시,마포구,서울특별시 마포구 용강동 505-0,126.942782,37.54226,임시주거시설,245
202,염리초등학교,서울특별시,마포구,서울특별시 마포구 염리동 173-4,126.945885,37.542428,임시주거시설,130
208,마포아트센터,서울특별시,마포구,서울특별시 마포구 대흥동 30-3,126.945544,37.549868,임시주거시설,200
11,원묵초등학교,서울특별시,중랑구,서울특별시 중랑구 묵동 11,127.086109,37.617656,임시주거시설,988
12,원묵고등학교,서울특별시,중랑구,서울특별시 중랑구 묵동 23,127.086037,37.615419,임시주거시설,714
17,양천구민체육센터,서울특별시,양천구,서울특별시 양천구 신정동 322-10,126.864385,37.516544,임시주거시설,1995
18,신정초등학교,서울특별시,강서구,서울특별시 강서구 화곡동 869-42,126.852548,37.532725,임시주거시설,746
24,장안중학교,서울특별시,중랑구,서울특별시 중랑구 중화동 288-26,127.080726,37.60053,임시주거시설,1141
25,수산교회,서울특별시,중랑구,서울특별시 중랑구 중화동 316-30,127.075814,37.597577,임시주거시설,270
26,구현고등학교,서울특별시,구로구,서울특별시 구로구 구로동 620-30,126.874535,37.502237,임시주거시설,799
27,화원종합사회복지관,서울특별시,구로구,서울특별시 구로구 구로동 476-134,126.880139,37.497347,임시주거시설,220
28,송화초등학교,서울특별시,강서구,서울특별시 강서구 방화동 217-35,126.817541,37.5685,임시주거시설,748
29,송정중학교,서울특별시,강서구,서울특별시 강서구 공항동 770-1,126.815248,37.553596,임시주거시설,869
34,서울과학고등학교,서울특별시,종로구,서울특별시 종로구 명륜1가 1-0,126.998367,37.591834,임시주거시설,1166
35,이화동주민센터,서울특별시,종로구,서울특별시 종로구 이화동 27-4,127.004333,37.576936,임시주거시설,279
36,혜화동자치회관,서울특별시,종로구,서울특별시 종로구 혜화동 74-30,127.00056,37.586987,임시주거시설,259
37,독립문초등학교,서울특별시,종로구,서울특별시 종로구 무악동 46-82,126.959981,37.574285,임시주거시설,608
42,창신초등학교,서울특별시,종로구,서울특별시 종로구 창신동 128-32,127.014352,37.576019,임시주거시설,660
44,무악동주민센터,서울특별시,종로구,서울특별시 종로구 무악동 60-2,126.958198,37.576,임시주거시설,364
45,교남동주민센터,서울특별시,종로구,서울특별시 종로구 행촌동 180-10,126.961947,37.571912,임시주거시설,313
46,재동초등학교,서울특별시,종로구,서울특별시 종로구 가회동 210,126.985568,37.57983,임시주거시설,202
166,은평중학교,서울특별시,은평구,서울특별시 은평구 구산동 182-44,126.9086,37.610674,임시주거시설,540
167,대은초등학교,서울특별시,은평구,서울특별시 은평구 대조동 82-5,126.925892,37.612095,임시주거시설,1000
168,은명초등학교,서울특별시,은평구,서울특별시 은평구 응암동 114-12,126.918631,37.597628,임시주거시설,727
169,응암2동주민센터,서울특별시,은평구,서울특별시 은평구 응암동 229-13,126.923077,37.594588,임시주거시설,198
170,연은초등학교 본관동,서울특별시,은평구,서울특별시 은평구 응암동 242-424,126.925198,37.590445,임시주거시설,477
171,응암초등학교 본관동,서울특별시,은평구,서울특별시 은평구 응암동 산7-40,126.921763,37.588406,임시주거시설,621
535,나인브릭,서울특별시,마포구,서울특별시 마포구 서교동 354-10,126.920575,37.553819,임시주거시설,3784
536,호텔써클,서울특별시,마포구,서울특별시 마포구 합정동 382-17,126.910746,37.548873,임시주거시설,2017
537,호텔 서강스테이,서울특별시,마포구,서울특별시 마포구 노고산동 106-41,126.935806,37.553473,임시주거시설,688
550,서교동주민센터,서울특별시,마포구,서울특별시 마포구 서교동 478-5,126.914598,37.555587,임시주거시설,537
551,합정동주민센터,서울특별시,마포구,서울특별시 마포구 합정동 473-0,129.912131,37.551596,임시주거시설,176
552,성산중학교,서울특별시,마포구,서울특별시 마포구 합정동 365-1,126.915644,37.546741,임시주거시설,928
553,성산초등학교,서울특별시,마포구,서울특별시 마포구 합정동 427-2,126.911083,37.553334,임시주거시설,803
554,마포구민체육센터,서울특별시,마포구,서울특별시 마포구 망원동 450-3,126.896636,37.556386,임시주거시설,1490
555,마포구민체육센터,서울특별시,마포구,서울특별시 마포구 망원동 450-3,126.896636,37.556386,임시주거시설,405
556,망원2동주민센터,서울특별시,마포구,서울특별시 마포구 망원동 436-14,126.902352,37.560241,임시주거시설,651
557,라뉘호텔,서울특별시,마포구,서울특별시 마포구 노고산동 106-28,126.936153,37.55355,임시주거시설,4960
236,상암초등학교,서울특별시,마포구,서울특별시 마포구 상암동 1635-0,126.892057,37.576362,임시주거시설,660
237,상암고등학교,서울특별시,마포구,서울특별시 마포구 상암동 1659-0,126.883743,37.581568,임시주거시설,801
238,상지초등학교,서울특별시,마포구,서울특별시 마포구 상암동 1676-0,126.882045,37.579805,임시주거시설,779
239,상암경로문화센터,서울특별시,마포구,서울특별시 마포구 상암동 41-21,126.893272,37.577043,임시주거시설,317
240,마포대진유치원,서울특별시,마포구,서울특별시 마포구 연남동 493-6,126.91939,37.561882,임시주거시설,1024
243,성미산체육관,서울특별시,마포구,서울특별시 마포구 성산동 44-0,126.912123,37.562216,임시주거시설,40
244,성미산체육관,서울특별시,마포구,서울특별시 마포구 성산동 44-0,126.912123,37.562216,임시주거시설,1500
245,마포장애인종합복지관,서울특별시,마포구,서울특별시 마포구 성산동 275-3,126.90843,37.563804,임시주거시설,157
246,마포구청,서울특별시,마포구,서울특별시 마포구 성산동 370-0,126.901769,37.566131,임시주거시설,203
247,성산2동주민센터,서울특별시,마포구,서울특별시 마포구 성산동 603-0,126.908946,37.568593,임시주거시설,140
248,한국우진학교,서울특별시,마포구,서울특별시 마포구 중동 64-2,126.90331,37.571583,임시주거시설,553
249,가좌행복경로당,서울특별시,마포구,서울특별시 마포구 중동 271-0,126.912523,37.569515,임시주거시설,139
269,마포문화원,서울특별시,마포구,서울특별시 마포구 신공덕동 158-0,126.955404,37.54221,임시주거시설,116
270,아현초등학교,서울특별시,마포구,서울특별시 마포구 아현동 267-2,126.957095,37.556588,임시주거시설,1782
271,아현문화건강센터,서울특별시,마포구,서울특별시 마포구 아현동 770-0,126.952034,37.55175,임시주거시설,179
272,아현동주민센터,서울특별시,마포구,서울특별시 마포구 공덕동 458-0,126.952196,37.54711,임시주거시설,109
273,에이치에비뉴 이대점,서울특별시,마포구,서울특별시 마포구 노고산동 1-74,126.942516,37.556287,임시주거시설,2772
274,연남동주민센터,서울특별시,마포구,서울특별시 마포구 연남동 250-9,126.92321,37.564116,임시주거시설,349
275,성서중학교,서울특별시,마포구,서울특별시 마포구 성산동 587-4,126.908463,37.563098,임시주거시설,1955
283,마포구육아종합지원센터,서울특별시,마포구,서울특별시 마포구 상암동 1686-0,126.883634,37.580547,임시주거시설,127
284,상암동주민센터,서울특별시,마포구,서울특별시 마포구 상암동 1616-0,126.894745,37.578298,임시주거시설,183
285,도화동주민센터,서울특별시,마포구,서울특별시 마포구 도화동 557-0,126.949919,37.541471,임시주거시설,398
286,서강동주민센터,서울특별시,마포구,서울특별시 마포구 창전동 246-0,126.932096,37.547726,임시주거시설,77
287,서강동자치회관,서울특별시,마포구,서울특별시 마포구 상수동 397-0,126.926972,37.545061,임시주거시설,152
288,소의초등학교,서울특별시,마포구,서울특별시 마포구 아현동 386-1,126.960844,37.552191,임시주거시설,401
300,동대문구청,서울특별시,동대문구,서울특별시 동대문구 용두동 39-9,127.03992,37.574285,임시주거시설,730
371,창신3동주민센터,서울특별시,종로구,서울특별시 종로구 창신동 23-816,127.01473,37.578026,임시주거시설,118
372,숭인1동주민센터,서울특별시,종로구,서울특별시 종로구 숭인동 55-2,127.015633,37.577836,임시주거시설,770
373,숭인상록경로당,서울특별시,종로구,서울특별시 종로구 숭인동 55-2,127.015593,37.577808,임시주거시설,244
374,숭인2동주민센터,서울특별시,종로구,서울특별시 종로구 숭인동 178-167,127.019986,37.574886,임시주거시설,256
375,아름꿈도서관,서울특별시,종로구,서울특별시 종로구 숭인동 242-7,127.017131,37.572687,임시주거시설,639
402,덕수초등학교,서울특별시,중구,서울특별시 중구 정동 1-76,126.974851,37.568986,임시주거시설,897
403,훈련원공원 종합체육관,서울특별시,중구,서울특별시 중구 을지로5가 1-42,127.003879,37.567387,임시주거시설,747
404,성동글로벌경영고등학교,서울특별시,중구,서울특별시 중구 신당동 250-3,127.012995,37.565826,임시주거시설,554
421,효제초등학교,서울특별시,종로구,서울특별시 종로구 효제동 255-4,127.002931,37.572674,임시주거시설,486
422,종로56가동주민센터,서울특별시,종로구,서울특별시 종로구 효제동 173-2,127.005068,37.572051,임시주거시설,160
423,회현체육센터,서울특별시,중구,서울특별시 중구 회현동1가 148-8,126.981631,37.556094,임시주거시설,701
424,충무교회,서울특별시,중구,서울특별시 중구 회현동3가 4-1,126.984422,37.560012,임시주거시설,598
425,남산초등학교,서울특별시,중구,서울특별시 중구 남산동2가 2,126.986414,37.55986,임시주거시설,245
426,덕수중학교,서울특별시,중구,서울특별시 중구 인현동2가 3-0,126.997407,37.56546,임시주거시설,756
427,성동고등학교,서울특별시,중구,서울특별시 중구 신당동 161-0,127.022898,37.564162,임시주거시설,877
428,중림종합사회복지관,서울특별시,중구,서울특별시 중구 중림동 155-1,126.966154,37.559472,임시주거시설,198
440,무학초등학교,서울특별시,성동구,서울특별시 성동구 하왕십리동 950-1,127.02953,37.56294,임시주거시설,855
441,왕십리제2동주민센터,서울특별시,성동구,서울특별시 성동구 하왕십리동 973-9,127.031055,37.561855,임시주거시설,70
442,왕십리도선동주민센터,서울특별시,성동구,서울특별시 성동구 상왕십리동 813-0,127.025578,37.567873,임시주거시설,313
443,숭신초등학교,서울특별시,성동구,서울특별시 성동구 하왕십리동 1068-0,127.027769,37.567772,임시주거시설,1923
444,리젠트,서울특별시,성동구,서울특별시 성동구 도선동 144-0,127.034474,37.562817,임시주거시설,89
445,라테라,서울특별시,성동구,서울특별시 성동구 도선동 98-0,127.035094,37.56347,임시주거시설,50
446,광희초등학교,서울특별시,중구,서울특별시 중구 신당동 254-18,127.015117,37.567396,임시주거시설,231
447,교동초등학교,서울특별시,종로구,서울특별시 종로구 경운동 2,126.987747,37.574764,임시주거시설,343
458,사근동주민센터,서울특별시,성동구,서울특별시 성동구 사근동 223-22,127.045367,37.561451,임시주거시설,97
459,행당초등학교,서울특별시,성동구,서울특별시 성동구 행당동 320-60,127.034695,37.556392,임시주거시설,554
460,성동구청,서울특별시,성동구,서울특별시 성동구 행당동 7-0,127.036734,37.563345,임시주거시설,529
461,행당제1동주민센터,서울특별시,성동구,서울특별시 성동구 행당동 139-0,127.036119,37.558574,임시주거시설,127
462,성동공업고등학교,서울특별시,중구,서울특별시 중구 흥인동 1-1,127.016865,37.56878,임시주거시설,738
463,장충초등학교,서울특별시,중구,서울특별시 중구 신당동 386-86,127.011105,37.559466,임시주거시설,567
464,루미아호텔,서울특별시,중구,서울특별시 중구 회현동1가 99-18,126.979787,37.558051,임시주거시설,297
465,베이튼호텔,서울특별시,중구,서울특별시 중구 오장동 186-0,127.002758,37.565212,임시주거시설,1488
471,파라다이스,서울특별시,성동구,서울특별시 성동구 도선동 156-0,127.034537,37.563039,임시주거시설,84
472,동마중학교,서울특별시,성동구,서울특별시 성동구 마장동 405-45,127.039712,37.562685,임시주거시설,659
473,사근초등학교,서울특별시,성동구,서울특별시 성동구 사근동 291-5,127.047668,37.562691,임시주거시설,630
760,구로3동주민센터,서울특별시,구로구,서울특별시 구로구 구로동 287-3,126.890325,37.487346,임시주거시설,173
761,개봉2동주민센터,서울특별시,구로구,서울특별시 구로구 개봉동 261-6,126.856456,37.490839,임시주거시설,187
806,매동초등학교,서울특별시,종로구,서울특별시 종로구 필운동 32-0,126.966316,37.577262,임시주거시설,330
807,종로문화체육센터,서울특별시,종로구,서울특별시 종로구 사직동 284-1,126.964625,37.574132,임시주거시설,734
808,삼청동주민센터,서울특별시,종로구,서울특별시 종로구 삼청동 105-1,126.981776,37.584975,임시주거시설,155
809,세검정초등학교,서울특별시,종로구,서울특별시 종로구 신영동 219-4,126.96096,37.603174,임시주거시설,470
810,평창동주민센터,서울특별시,종로구,서울특별시 종로구 평창동 186-9,126.968398,37.606371,임시주거시설,108
589,스탠포드호텔,서울특별시,마포구,서울특별시 마포구 상암동 1587-0,126.886666,37.582364,임시주거시설,26300
590,창천중학교,서울특별시,마포구,서울특별시 마포구 노고산동 33-1,126.93932,37.554855,임시주거시설,849
591,우리마포복지관,서울특별시,마포구,서울특별시 마포구 노고산동 1-49,126.942623,37.555991,임시주거시설,260
592,대흥동 자치회관,서울특별시,마포구,서울특별시 마포구 노고산동 1-49,126.942636,37.555991,임시주거시설,125
593,한서초등학교,서울특별시,마포구,서울특별시 마포구 염리동 21-19,126.949273,37.553472,임시주거시설,576
594,염리동주민센터,서울특별시,마포구,서울특별시 마포구 염리동 147-14,126.945642,37.547015,임시주거시설,115
595,신석초등학교,서울특별시,마포구,서울특별시 마포구 신수동 445-11,126.933646,37.546075,임시주거시설,693
596,신수동주민센터,서울특별시,마포구,서울특별시 마포구 신수동 458-0,126.935205,37.547075,임시주거시설,373
597,서교초등학교,서울특별시,마포구,서울특별시 마포구 서교동 341,126.924979,37.554863,임시주거시설,1238
897,메이플레이스 호텔,서울특별시,종로구,서울특별시 종로구 원남동 25-0,126.998749,37.576103,임시주거시설,9900
898,오라카이 대학로 호텔,서울특별시,종로구,서울특별시 종로구 원남동 49-15,126.998717,37.575604,임시주거시설,9900
899,종로종합사회복지관,서울특별시,종로구,서울특별시 종로구 창신동 23-344,127.012486,37.577296,임시주거시설,325
924,서울석촌초등학교,서울특별시,송파구,서울특별시 송파구 석촌동 267,127.104776,37.502551,임시주거시설,3692
925,서울신가초등학교,서울특별시,송파구,서울특별시 송파구 가락동 43-1,127.121311,37.500721,임시주거시설,1497
926,서울가락초등학교,서울특별시,송파구,서울특별시 송파구 가락동 477-0,127.107652,37.500183,임시주거시설,4720
927,송파중학교,서울특별시,송파구,서울특별시 송파구 가락동 139-0,127.129326,37.496277,임시주거시설,4011
933,강동경희대학병원,서울특별시,강동구,서울특별시 강동구 상일동 149,127.15747,37.552917,임시주거시설,7954
934,고명초등학교,서울특별시,강동구,서울특별시 강동구 명일동 296-1,127.146865,37.55265,임시주거시설,817
935,서울개롱초등학교,서울특별시,송파구,서울특별시 송파구 오금동 159,127.139664,37.497183,임시주거시설,1256
936,세륜중학교,서울특별시,송파구,서울특별시 송파구 오금동 7-3,127.131848,37.508372,임시주거시설,2194
937,서울송파초등학교,서울특별시,송파구,서울특별시 송파구 송파동 114,127.110752,37.507053,임시주거시설,3070
938,송파여성문화회관,서울특별시,송파구,서울특별시 송파구 송파동 113-2,127.109782,37.505901,임시주거시설,13405
939,서울중대초등학교,서울특별시,송파구,서울특별시 송파구 송파동 191,127.11371,37.500104,임시주거시설,3611
945,청운중학교,서울특별시,종로구,서울특별시 종로구 청운동 89-143,126.970971,37.58908,임시주거시설,717
946,경복고등학교,서울특별시,종로구,서울특별시 종로구 청운동 89-9,126.972439,37.58732,임시주거시설,1052
947,경기상업고등학교,서울특별시,종로구,서울특별시 종로구 청운동 89-3,126.970898,37.587992,임시주거시설,1157
948,청운초등학교,서울특별시,종로구,서울특별시 종로구 청운동 123-0,126.969419,37.585966,임시주거시설,902
949,서머셋펠리스 서울,서울특별시,종로구,서울특별시 종로구 수송동 85-0,126.981162,37.57517,임시주거시설,19800
950,서울잠일초등학교,서울특별시,송파구,서울특별시 송파구 잠실동 19-1,127.081637,37.51465,임시주거시설,4932
951,서울송전초등학교,서울특별시,송파구,서울특별시 송파구 잠실동 44-2,127.094811,37.508447,임시주거시설,735
952,영동일고등학교,서울특별시,송파구,서울특별시 송파구 잠실동 35-1,127.089516,37.509671,임시주거시설,3180
953,서울잠실초등학교,서울특별시,송파구,서울특별시 송파구 신천동 20-2,127.111446,37.520124,임시주거시설,733
954,강일초등학교,서울특별시,강동구,서울특별시 강동구 강일동 685,127.16842,37.546242,임시주거시설,13645
955,강일동주민센터,서울특별시,강동구,서울특별시 강동구 강일동 678-0,127.178207,37.568905,임시주거시설,645
956,강동중학교,서울특별시,강동구,서울특별시 강동구 강일동 669-0,127.177744,37.569966,임시주거시설,8896
957,강일고등학교,서울특별시,강동구,서울특별시 강동구 강일동 685-1,127.177464,37.564236,임시주거시설,11112
958,신암중학교,서울특별시,강동구,서울특별시 강동구 암사동 444,127.133081,37.555645,임시주거시설,1006
959,서울문정초등학교,서울특별시,송파구,서울특별시 송파구 문정동 12,127.12872,37.488915,임시주거시설,525
960,서울가원초등학교,서울특별시,송파구,서울특별시 송파구 문정동 150-10,127.114122,37.488513,임시주거시설,2610
961,서울문덕초등학교,서울특별시,송파구,서울특별시 송파구 문정동 90-3,127.127596,37.484993,임시주거시설,621
962,문현중학교,서울특별시,송파구,서울특별시 송파구 장지동 838-3,127.127675,37.480571,임시주거시설,946
963,서울문현초등학교,서울특별시,송파구,서울특별시 송파구 장지동 836-0,127.130087,37.482711,임시주거시설,3508
964,서울송례초등학교,서울특별시,송파구,서울특별시 송파구 장지동 898-0,127.138444,37.477873,임시주거시설,4443
965,서울잠신초등학교,서울특별시,송파구,서울특별시 송파구 잠실동 22-4,127.08842,37.514341,임시주거시설,4160
968,명원초등학교,서울특별시,강동구,서울특별시 강동구 명일동 39-0,127.150382,37.551343,임시주거시설,650
969,온조대왕문화체육관,서울특별시,강동구,서울특별시 강동구 고덕동 296-0,127.158885,37.558132,임시주거시설,7954
1741,논현초등학교,서울특별시,강남구,서울특별시 강남구 논현동 168-0,127.026118,37.508418,임시주거시설,1258
970,서울컨벤션고등학교,서울특별시,강동구,서울특별시 강동구 고덕동 295-1,127.15821,37.560001,임시주거시설,14629
971,고덕중학교,서울특별시,강동구,서울특별시 강동구 고덕동 223,127.161297,37.559984,임시주거시설,2048
972,명일초등학교,서울특별시,강동구,서울특별시 강동구 암사동 418-18,127.142029,37.553844,임시주거시설,1171
973,암사3동 주민센터,서울특별시,강동구,서울특별시 강동구 암사동 414-19,127.14082,37.554972,임시주거시설,161
1020,광현교회,서울특별시,은평구,서울특별시 은평구 갈현동 501-5,126.916084,37.618407,임시주거시설,1079
1060,강동초등학교,서울특별시,강동구,서울특별시 강동구 천호동 306,127.12997,37.54592,임시주거시설,2009
1061,해공도서관,서울특별시,강동구,서울특별시 강동구 천호동 360,127.126409,37.544355,임시주거시설,1932
1062,성내동교회,서울특별시,강동구,서울특별시 강동구 성내동 135-30,127.125305,37.534112,임시주거시설,548
1063,강동성심병원,서울특별시,강동구,서울특별시 강동구 길동 445,127.135233,37.536141,임시주거시설,15504
1064,신명초등학교,서울특별시,강동구,서울특별시 강동구 길동 42,127.149629,37.541477,임시주거시설,1006
1065,천동초등학교,서울특별시,강동구,서울특별시 강동구 길동 371-1,127.137699,37.540781,임시주거시설,572
1066,둔촌중학교,서울특별시,강동구,서울특별시 강동구 둔촌동 19-1,127.146206,37.530336,임시주거시설,1225
1393,온곡초등학교,서울특별시,노원구,서울특별시 노원구 상계동 638-0,127.065596,37.667637,임시주거시설,770
1394,상곡초등학교,서울특별시,노원구,서울특별시 노원구 상계동 678-0,127.062281,37.662731,임시주거시설,914
1395,은평초등학교,서울특별시,은평구,서울특별시 은평구 녹번동 40-3,126.934935,37.601828,임시주거시설,862
1396,불광1동주민센터,서울특별시,은평구,서울특별시 은평구 불광동 613-1,126.932052,37.61031,임시주거시설,181
1397,서울 수리초등학교 본관동,서울특별시,은평구,서울특별시 은평구 불광동 639-0,126.934043,37.620334,임시주거시설,585
1398,연천중학교,서울특별시,은평구,서울특별시 은평구 불광동 441-1,126.925801,37.627526,임시주거시설,998
1399,연신중학교,서울특별시,은평구,서울특별시 은평구 불광동 400-4,126.924953,37.623703,임시주거시설,808
1400,불광중학교,서울특별시,은평구,서울특별시 은평구 불광동 173-0,126.931669,37.623116,임시주거시설,1122
1401,불광2동주민센터,서울특별시,은평구,서울특별시 은평구 불광동 81-2,126.927321,37.626388,임시주거시설,484
1402,서광교회,서울특별시,은평구,서울특별시 은평구 갈현동 1-29,126.919281,37.627767,임시주거시설,1167
1403,갈현2동주민센터,서울특별시,은평구,서울특별시 은평구 갈현동 502-3,126.915793,37.618498,임시주거시설,154
1199,천호중학교,서울특별시,강동구,서울특별시 강동구 천호동 38-1,127.139577,37.546398,임시주거시설,895
1200,천호초등학교 체육관,서울특별시,강동구,서울특별시 강동구 천호동 224-21,127.136443,37.547308,임시주거시설,1000
1201,천호초등학교,서울특별시,강동구,서울특별시 강동구 천호동 224-21,127.136443,37.547308,임시주거시설,3041
1202,천호제2동주민센터,서울특별시,강동구,서울특별시 강동구 천호동 422-12,127.128202,37.542189,임시주거시설,286
1203,천일중학교,서울특별시,강동구,서울특별시 강동구 천호동 313-5,127.12792,37.545717,임시주거시설,540
1204,동신중학교,서울특별시,강동구,서울특별시 강동구 천호동 447-9,127.134476,37.536743,임시주거시설,5000
1205,천호제3동주민센터,서울특별시,강동구,서울특별시 강동구 천호동 555-0,127.129814,37.53992,임시주거시설,218
1206,성내1동 주민센터,서울특별시,강동구,서울특별시 강동구 성내동 539-1,127.122195,37.530529,임시주거시설,184
1207,강동 어린이 회관,서울특별시,강동구,서울특별시 강동구 성내동 556-1,127.122421,37.529388,임시주거시설,470
1737,한남동공영주차장,서울특별시,용산구,서울특별시 용산구 한남동 685-20,126.997468,37.539158,임시주거시설,125
1739,신사문화센터,서울특별시,강남구,서울특별시 강남구 신사동 548-1,127.022793,37.52398,임시주거시설,251
1740,신구초등학교,서울특별시,강남구,서울특별시 강남구 신사동 550-11,127.023938,37.523355,임시주거시설,1663
1742,학동초등학교,서울특별시,강남구,서울특별시 강남구 논현동 264-7,127.039431,37.512058,임시주거시설,100
1743,단국대학교사범대학부속고등학교,서울특별시,강남구,서울특별시 강남구 대치동 1013,127.056987,37.495195,임시주거시설,864
1744,도곡1문화센터,서울특별시,강남구,서울특별시 강남구 도곡동 892-6,127.038872,37.488371,임시주거시설,183
1745,세곡문화센터,서울특별시,강남구,서울특별시 강남구 율현동 278-1,127.106959,37.469043,임시주거시설,429
1749,계상초등학교,서울특별시,노원구,서울특별시 노원구 상계동 447-1,127.068073,37.663084,임시주거시설,922
1750,노원중학교,서울특별시,노원구,서울특별시 노원구 상계동 743-0,127.059304,37.649133,임시주거시설,788
1751,상수초등학교,서울특별시,노원구,서울특별시 노원구 상계동 755-0,127.064412,37.651844,임시주거시설,660
1752,상천초등학교,서울특별시,노원구,서울특별시 노원구 상계동 768-0,127.058393,37.646393,임시주거시설,2063
1753,동일초등학교,서울특별시,노원구,서울특별시 노원구 상계동 655-0,127.054258,37.664802,임시주거시설,600
1754,우이초등학교,서울특별시,강북구,서울특별시 강북구 수유동 409-6,127.015252,37.638562,임시주거시설,1469
1755,서울자운초등학교,서울특별시,도봉구,서울특별시 도봉구 창동 181-19,127.046564,37.657611,임시주거시설,600
1756,서울창원초등학교,서울특별시,도봉구,서울특별시 도봉구 창동 308-0,127.040591,37.652357,임시주거시설,400
1757,서울가인초등학교,서울특별시,도봉구,서울특별시 도봉구 창동 224-20,127.043535,37.660099,임시주거시설,701
1758,백운중학교,서울특별시,도봉구,서울특별시 도봉구 쌍문동 68-2,127.035956,37.656046,임시주거시설,696
1759,세그루패션디자인고등학교,서울특별시,도봉구,서울특별시 도봉구 쌍문동 263-2,127.026243,37.655294,임시주거시설,168
1760,신창중학교,서울특별시,노원구,서울특별시 노원구 월계동 805-5,127.047529,37.628032,임시주거시설,625
1761,독산1동주민센터,서울특별시,금천구,서울특별시 금천구 독산동 289-5,126.897043,37.470228,임시주거시설,303
1762,독산2동주민센터,서울특별시,금천구,서울특별시 금천구 독산동 1043-51,126.903521,37.463168,임시주거시설,226
1763,독산3동주민센터,서울특별시,금천구,서울특별시 금천구 독산동 973-17,126.903178,37.475145,임시주거시설,206
1764,정심초등학교,서울특별시,금천구,서울특별시 금천구 독산동 182-44,126.90846,37.471646,임시주거시설,500
1765,독산4동주민센터,서울특별시,금천구,서울특별시 금천구 독산동 1022,126.902134,37.467578,임시주거시설,155
1766,문백초등학교,서울특별시,금천구,서울특별시 금천구 시흥동 564-5,126.899272,37.44709,임시주거시설,900
1767,금천노인종합복지관,서울특별시,금천구,서울특별시 금천구 시흥동 558-1,126.897819,37.450166,임시주거시설,268
1768,시흥1동주민센터,서울특별시,금천구,서울특별시 금천구 시흥동 886-6,126.903269,37.453569,임시주거시설,314
1769,탑동초등학교,서울특별시,금천구,서울특별시 금천구 시흥동 230,126.914528,37.452725,임시주거시설,900
1770,청담종합사회복지관,서울특별시,금천구,서울특별시 금천구 시흥동 241-7,126.913746,37.45129,임시주거시설,198
1771,금천종합복지타운(시흥2동주민센터),서울특별시,금천구,서울특별시 금천구 시흥동 267-9,126.914474,37.449673,임시주거시설,473
1772,금천문화원,서울특별시,금천구,서울특별시 금천구 시흥동 937-2,126.904543,37.447408,임시주거시설,198
1781,문래초등학교,서울특별시,영등포구,서울특별시 영등포구 문래동3가 77-7,126.893203,37.518218,임시주거시설,225
1782,구립문래제1경로당,서울특별시,영등포구,서울특별시 영등포구 문래동3가 73-1,126.894195,37.518462,임시주거시설,201
1783,양화중학교,서울특별시,영등포구,서울특별시 영등포구 문래동3가 48-0,126.89605,37.519769,임시주거시설,725
1784,문래중학교,서울특별시,영등포구,서울특별시 영등포구 문래동6가 44-0,126.884247,37.52051,임시주거시설,775
1785,영문초등학교,서울특별시,영등포구,서울특별시 영등포구 문래동6가 13-0,126.887543,37.519598,임시주거시설,720
1786,관악고등학교,서울특별시,영등포구,서울특별시 영등포구 양평동2가 23-2,126.883227,37.521718,임시주거시설,753
1787,브릿지호텔,서울특별시,영등포구,서울특별시 영등포구 양평동2가 40-5,126.882612,37.523753,임시주거시설,2519
1791,당산2동주민센터,서울특별시,영등포구,서울특별시 영등포구 당산동4가 80-5,126.897263,37.531003,임시주거시설,355
1792,영등포제2스포츠센터,서울특별시,영등포구,서울특별시 영등포구 당산동4가 96-1,126.902818,37.526488,임시주거시설,553
1793,구립당산2동경로당,서울특별시,영등포구,서울특별시 영등포구 당산동6가 184-0,126.904013,37.534943,임시주거시설,122
1794,영동초등학교,서울특별시,영등포구,서울특별시 영등포구 당산동 121-22,126.907652,37.526869,임시주거시설,620
1795,당산중학교,서울특별시,영등포구,서울특별시 영등포구 당산동 121-0,126.907579,37.532113,임시주거시설,540
1796,도림동주민센터,서울특별시,영등포구,서울특별시 영등포구 도림동 222-7,126.895888,37.509511,임시주거시설,121
1797,구립모랫말경로당,서울특별시,영등포구,서울특별시 영등포구 도림동 205-23,126.897486,37.509707,임시주거시설,176
1798,다목적배드민턴체육관,서울특별시,영등포구,서울특별시 영등포구 도림동 254-0,126.897329,37.506738,임시주거시설,1650
1799,영등포초등학교,서울특별시,영등포구,서울특별시 영등포구 문래동1가 35-2,126.898161,37.512938,임시주거시설,710
1803,중평중학교,서울특별시,노원구,서울특별시 노원구 하계동 271-2,127.06235,37.637007,임시주거시설,899
1804,원광초등학교,서울특별시,노원구,서울특별시 노원구 중계동 359-0,127.074507,37.653906,임시주거시설,1223
1805,상계제일중학교,서울특별시,노원구,서울특별시 노원구 중계동 132-0,127.0778,37.661678,임시주거시설,396
1806,용동초등학교,서울특별시,노원구,서울특별시 노원구 중계동 510-1,127.069097,37.641117,임시주거시설,504
1807,중원초등학교,서울특별시,노원구,서울특별시 노원구 중계동 502-0,127.062526,37.643875,임시주거시설,1366
1808,청계초등학교,서울특별시,노원구,서울특별시 노원구 중계동 513-1,127.065899,37.644988,임시주거시설,1801
1809,노일초등학교,서울특별시,노원구,서울특별시 노원구 상계동 1044-2,127.054614,37.67269,임시주거시설,1573
1810,상계중학교,서울특별시,노원구,서울특별시 노원구 상계동 195-5,127.06858,37.652699,임시주거시설,990
1811,신상계초등학교,서울특별시,노원구,서울특별시 노원구 상계동 86-1,127.075774,37.668019,임시주거시설,887
1502,롯데시티호텔 구로,서울특별시,구로구,서울특별시 구로구 구로동 188-25,126.896261,37.485064,임시주거시설,132
1503,구로중학교,서울특별시,구로구,서울특별시 구로구 구로동 90,126.886825,37.500538,임시주거시설,1530
1509,방원중학교,서울특별시,강서구,서울특별시 강서구 방화동 808,126.808814,37.575758,임시주거시설,734
1510,삼정초등학교,서울특별시,강서구,서울특별시 강서구 방화동 798,126.810278,37.580104,임시주거시설,540
1511,삼정중학교,서울특별시,강서구,서울특별시 강서구 방화동 856,126.810746,37.581225,임시주거시설,260
1512,신도림중학교,서울특별시,구로구,서울특별시 구로구 신도림동 311-1,126.885414,37.510927,임시주거시설,828
1513,신도림고등학교,서울특별시,구로구,서울특별시 구로구 신도림동 270-2,126.882048,37.514242,임시주거시설,560
1514,신미림초등학교,서울특별시,구로구,서울특별시 구로구 신도림동 398-28,126.879277,37.50916,임시주거시설,495
1515,구일고등학교,서울특별시,구로구,서울특별시 구로구 구로동 685-194,126.878275,37.494012,임시주거시설,298
1516,구일중학교,서울특별시,구로구,서울특별시 구로구 구로동 685-161,126.873722,37.4951,임시주거시설,865
1517,구일초등학교,서울특별시,구로구,서울특별시 구로구 구로동 685-221,126.872936,37.492747,임시주거시설,653
1518,구로초등학교,서울특별시,구로구,서울특별시 구로구 구로동 443-0,126.886063,37.496888,임시주거시설,1357
1519,신현초등학교,서울특별시,중랑구,서울특별시 중랑구 신내동 663,127.093585,37.605673,임시주거시설,793
1520,봉화초등학교,서울특별시,중랑구,서울특별시 중랑구 신내동 655,127.092174,37.613348,임시주거시설,540
1521,중랑구청,서울특별시,중랑구,서울특별시 중랑구 신내동 662-0,127.092611,37.606699,임시주거시설,1107
1522,신내2동 주민센터,서울특별시,중랑구,서울특별시 중랑구 신내동 665-0,127.094109,37.606347,임시주거시설,281
1523,성북초등학교,서울특별시,성북구,서울특별시 성북구 성북동 66-1,126.997991,37.593656,임시주거시설,1295
1524,면목중학교,서울특별시,중랑구,서울특별시 중랑구 면목동 490,127.095984,37.582876,임시주거시설,646
1525,중화중학교,서울특별시,중랑구,서울특별시 중랑구 면목동 83,127.094465,37.584521,임시주거시설,1072
1526,면목3.8동 주민센터,서울특별시,중랑구,서울특별시 중랑구 면목동 498-6,127.088178,37.583051,임시주거시설,228
1527,상봉중학교,서울특별시,중랑구,서울특별시 중랑구 상봉동 282,127.090289,37.601294,임시주거시설,555
1528,신현고등학교,서울특별시,중랑구,서울특별시 중랑구 상봉동 482-0,127.092652,37.604993,임시주거시설,650
1529,상봉2동 복합청사,서울특별시,중랑구,서울특별시 중랑구 상봉동 126-0,127.080977,37.593121,임시주거시설,164
1530,중화고등학교,서울특별시,중랑구,서울특별시 중랑구 중화동 21-4,127.083054,37.604647,임시주거시설,912
1531,청덕초등학교,서울특별시,성북구,서울특별시 성북구 정릉동 847,127.00046,37.611896,임시주거시설,656
1532,정릉초등학교,서울특별시,성북구,서울특별시 성북구 정릉동 798,127.005347,37.619669,임시주거시설,375
1533,길음초등학교,서울특별시,성북구,서울특별시 성북구 길음동 635-7,127.017672,37.614036,임시주거시설,562
1534,길음중학교,서울특별시,성북구,서울특별시 성북구 길음동 635-7,127.017091,37.61442,임시주거시설,709
1535,봉화중학교,서울특별시,중랑구,서울특별시 중랑구 망우동 122-1,127.103914,37.596582,임시주거시설,595
1536,망우본동 주민센터,서울특별시,중랑구,서울특별시 중랑구 망우동 340-17,127.101384,37.600657,임시주거시설,489
1537,동원중학교,서울특별시,중랑구,서울특별시 중랑구 망우동 85-3,127.108597,37.603598,임시주거시설,509
1538,면일초등학교,서울특별시,중랑구,서울특별시 중랑구 망우동 440,127.099947,37.591781,임시주거시설,693
1539,면북초등학교,서울특별시,중랑구,서울특별시 중랑구 망우동 119,127.103397,37.594269,임시주거시설,130
1540,신내노인요양원,서울특별시,중랑구,서울특별시 중랑구 신내동 642,127.094951,37.616208,임시주거시설,475
1541,서울새솔초등학교,서울특별시,중랑구,서울특별시 중랑구 신내동 241,127.111379,37.618055,임시주거시설,635
1542,중화초등학교,서울특별시,중랑구,서울특별시 중랑구 신내동 531,127.094646,37.603004,임시주거시설,560
1543,용산구청,서울특별시,용산구,서울특별시 용산구 이태원동 34-87,126.990119,37.532512,임시주거시설,264
1544,동구로초등학교,서울특별시,구로구,서울특별시 구로구 구로동 93,126.892536,37.494815,임시주거시설,752
1545,화곡초등학교,서울특별시,강서구,서울특별시 강서구 화곡동 24-266,126.84595,37.543209,임시주거시설,703
1546,화일초등학교,서울특별시,강서구,서울특별시 강서구 화곡동 61-184,126.847534,37.540593,임시주거시설,573
1547,우장초등학교,서울특별시,강서구,서울특별시 강서구 화곡동 18-5,126.846285,37.549079,임시주거시설,804
1548,양천초등학교,서울특별시,강서구,서울특별시 강서구 가양동 272-11,126.83946,37.570024,임시주거시설,815
1549,가곡초등학교,서울특별시,강서구,서울특별시 강서구 마곡동 153-7,126.835822,37.555284,임시주거시설,1000
1550,발산초등학교,서울특별시,강서구,서울특별시 강서구 내발산동 408,126.830947,37.549937,임시주거시설,545
1551,내발산초등학교,서울특별시,강서구,서울특별시 강서구 내발산동 707,126.837868,37.551268,임시주거시설,780
1552,송정초등학교,서울특별시,강서구,서울특별시 강서구 공항동 22-16,126.810892,37.562181,임시주거시설,618
1555,경동고등학교,서울특별시,성북구,서울특별시 성북구 삼선동3가 43-1,127.01497,37.585744,임시주거시설,950
1556,삼선초등학교,서울특별시,성북구,서울특별시 성북구 삼선동3가 30-4,127.012581,37.585766,임시주거시설,921
1557,성북구청,서울특별시,성북구,서울특별시 성북구 삼선동5가 411-0,127.016881,37.589456,임시주거시설,587
1558,돈암초등학교,서울특별시,성북구,서울특별시 성북구 동소문동6가 27-1,127.012851,37.593318,임시주거시설,619
1559,정덕초등학교,서울특별시,성북구,서울특별시 성북구 동소문동7가 118-1,127.01362,37.597389,임시주거시설,374
1560,개운중학교,서울특별시,성북구,서울특별시 성북구 돈암동 83-145,127.02485,37.594604,임시주거시설,496
1561,안암초등학교,서울특별시,성북구,서울특별시 성북구 안암동2가 93,127.022671,37.587227,임시주거시설,1021
1562,동신초등학교,서울특별시,성북구,서울특별시 성북구 보문동3가 228,127.016962,37.582582,임시주거시설,588
1563,숭덕초등학교,서울특별시,성북구,서울특별시 성북구 정릉동 160-1,127.013394,37.603966,임시주거시설,1353
1564,정수초등학교,서울특별시,성북구,서울특별시 성북구 정릉동 431-62,127.007562,37.603699,임시주거시설,1033
1577,성심여자고등학교,서울특별시,용산구,서울특별시 용산구 원효로4가 1-1,126.954587,37.534173,임시주거시설,542
1578,금양초등학교,서울특별시,용산구,서울특별시 용산구 효창동 126-4,126.961774,37.540786,임시주거시설,393
1579,효창동 주민센터,서울특별시,용산구,서울특별시 용산구 효창동 255-5,126.961624,37.542557,임시주거시설,345
1580,용문동 주민센터,서울특별시,용산구,서울특별시 용산구 도원동 4-5,126.957558,37.538946,임시주거시설,308
1581,한강로동주민센터,서울특별시,용산구,서울특별시 용산구 한강로2가 187-3,126.96952,37.529103,임시주거시설,320
1582,신용산초등학교,서울특별시,용산구,서울특별시 용산구 이촌동 301-75,126.975897,37.520011,임시주거시설,380
1583,용강중학교,서울특별시,용산구,서울특별시 용산구 이촌동 301-78,126.976086,37.521438,임시주거시설,198
1584,중경고등학교,서울특별시,용산구,서울특별시 용산구 이촌동 300-302,126.975722,37.518106,임시주거시설,544
1585,이촌1동 주민센터,서울특별시,용산구,서울특별시 용산구 이촌동 301-179,126.973125,37.52141,임시주거시설,233
1586,이촌2동 주민센터,서울특별시,용산구,서울특별시 용산구 이촌동 206-2,126.954689,37.526227,임시주거시설,343
1590,삼광초등학교,서울특별시,용산구,서울특별시 용산구 후암동 190-2,126.976733,37.547239,임시주거시설,858
1591,보성여자고등학교,서울특별시,용산구,서울특별시 용산구 용산동2가 1-1123,126.984529,37.542749,임시주거시설,720
1592,용암경로당,서울특별시,용산구,서울특별시 용산구 용산동2가 5-66,126.984677,37.541026,임시주거시설,104
1593,청파초등학교,서울특별시,용산구,서울특별시 용산구 청파동2가 1-42,126.964289,37.547632,임시주거시설,585
1594,청파동주민센터,서울특별시,용산구,서울특별시 용산구 청파동2가 91-1,126.969869,37.545443,임시주거시설,252
1595,남정초등학교,서울특별시,용산구,서울특별시 용산구 원효로2가 54-1,126.964978,37.536355,임시주거시설,1000
1596,용산구문화체육센터,서울특별시,용산구,서울특별시 용산구 문배동 19-2,126.967683,37.537202,임시주거시설,721
1597,원효다목적체육관,서울특별시,용산구,서울특별시 용산구 원효로3가 51-25,126.957128,37.53292,임시주거시설,939
1598,서울도시과학기술고등학교,서울특별시,성북구,서울특별시 성북구 하월곡동 90-18,127.03189,37.607328,임시주거시설,487
1599,장위중학교,서울특별시,성북구,서울특별시 성북구 장위동 231-623,127.041588,37.611389,임시주거시설,923
1600,장위초등학교,서울특별시,성북구,서울특별시 성북구 장위동 68-8,127.049827,37.612103,임시주거시설,817
1601,월곡초등학교,서울특별시,성북구,서울특별시 성북구 장위동 246-194,127.046394,37.60964,임시주거시설,1419
1602,광운초등학교,서울특별시,성북구,서울특별시 성북구 장위동 128,127.055273,37.618909,임시주거시설,569
1603,석계초등학교,서울특별시,성북구,서울특별시 성북구 석관동 27-3,127.069765,37.608609,임시주거시설,490
1604,석관고등학교,서울특별시,성북구,서울특별시 성북구 석관동 77-1,127.06657,37.609228,임시주거시설,1557
1605,석관중학교,서울특별시,성북구,서울특별시 성북구 석관동 88-2,127.066832,37.608196,임시주거시설,1229
1606,삼양초등학교,서울특별시,강북구,서울특별시 강북구 미아동 791-1932,127.016564,37.623635,임시주거시설,976
1607,미양초등학교,서울특별시,강북구,서울특별시 강북구 미아동 837-687,127.01376,37.621289,임시주거시설,1161
1648,개명초등학교,서울특별시,구로구,서울특별시 구로구 개봉동 314-165,126.850698,37.483005,임시주거시설,715
1649,개봉초등학교,서울특별시,구로구,서울특별시 구로구 개봉동 266-0,126.858344,37.489462,임시주거시설,534
1650,개웅산생활체육관,서울특별시,구로구,서울특별시 구로구 개봉동 298-7,126.849657,37.485261,임시주거시설,1072
1651,오류초등학교,서울특별시,구로구,서울특별시 구로구 오류동 13-3,126.842121,37.497806,임시주거시설,899
1652,한강골드호텔,서울특별시,구로구,서울특별시 구로구 오류동 55-42,126.844872,37.495827,임시주거시설,130
1653,서울오정초등학교,서울특별시,구로구,서울특별시 구로구 오류동 108-28,126.82646,37.48971,임시주거시설,750
1654,천왕중학교,서울특별시,구로구,서울특별시 구로구 천왕동 273-1,121.169846,36.146513,임시주거시설,754
1655,서울천왕초등학교,서울특별시,구로구,서울특별시 구로구 천왕동 273-2,126.836761,37.481579,임시주거시설,759
1656,유한공업고등학교,서울특별시,구로구,서울특별시 구로구 항동 1-7,126.823975,37.488094,임시주거시설,858
1657,서울정진학교,서울특별시,구로구,서울특별시 구로구 궁동 242-0,126.820767,37.498835,임시주거시설,776
1666,길음종합사회복지관,서울특별시,성북구,서울특별시 성북구 길음동 1289-12,127.024746,37.608825,임시주거시설,345
1667,숭례초등학교,서울특별시,성북구,서울특별시 성북구 종암동 22-1,127.034936,37.594912,임시주거시설,680
1668,종암중학교,서울특별시,성북구,서울특별시 성북구 종암동 32-3,127.032266,37.592846,임시주거시설,1027
1669,숭인초등학교,서울특별시,성북구,서울특별시 성북구 하월곡동 225-3,127.038406,37.608936,임시주거시설,510
1670,숭곡중학교,서울특별시,성북구,서울특별시 성북구 하월곡동 87-1,127.031133,37.607947,임시주거시설,920
1695,서울초당초등학교,서울특별시,도봉구,서울특별시 도봉구 방학동 514-2,127.0223,37.658147,임시주거시설,880
1696,서울신방학초등학교,서울특별시,도봉구,서울특별시 도봉구 방학동 310-0,127.029585,37.665791,임시주거시설,1414
1697,학마을도서관,서울특별시,도봉구,서울특별시 도봉구 방학동 446-5,127.027937,37.662157,임시주거시설,620
1698,신계초등학교,서울특별시,노원구,서울특별시 노원구 월계동 602-0,127.052974,37.630432,임시주거시설,498
1701,영원중학교,서울특별시,영등포구,서울특별시 영등포구 영등포동 576-6,126.913732,37.515559,임시주거시설,513
1702,구립영등포본동경로당,서울특별시,영등포구,서울특별시 영등포구 영등포동 620-50,126.906682,37.512955,임시주거시설,292
1703,창문여자중학교,서울특별시,강북구,서울특별시 강북구 미아동 8-6,127.036475,37.61305,임시주거시설,2789
1704,성암국제무역고등학교,서울특별시,강북구,서울특별시 강북구 미아동 320-1,127.024733,37.620981,임시주거시설,288
1705,삼각산중학교,서울특별시,강북구,서울특별시 강북구 미아동 1353-10,127.014849,37.615966,임시주거시설,1181
1706,삼각산초등학교,서울특별시,강북구,서울특별시 강북구 미아동 1353-10,127.014881,37.616042,임시주거시설,751
1707,수송초등학교,서울특별시,강북구,서울특별시 강북구 번동 456-0,127.033523,37.637414,임시주거시설,8887
1708,수송초등학교,서울특별시,강북구,서울특별시 강북구 번동 456-0,127.033392,37.637216,임시주거시설,1075
1709,수송중학교,서울특별시,강북구,서울특별시 강북구 번동 456-1,127.034107,37.636911,임시주거시설,1292
1710,번동중학교,서울특별시,강북구,서울특별시 강북구 번동 231-0,127.036766,37.631947,임시주거시설,845
1711,강북웰빙스포츠센터,서울특별시,강북구,서울특별시 강북구 번동 318-0,127.037858,37.630664,임시주거시설,1166
1712,번동초등학교,서울특별시,강북구,서울특별시 강북구 번동 236-0,127.040448,37.629445,임시주거시설,969
1713,오현초등학교,서울특별시,강북구,서울특별시 강북구 번동 248-0,127.046612,37.623531,임시주거시설,450
1716,월계중학교,서울특별시,노원구,서울특별시 노원구 월계동 602-1,127.052131,37.630204,임시주거시설,1430
1717,녹천초등학교,서울특별시,노원구,서울특별시 노원구 월계동 322-2,127.063246,37.628931,임시주거시설,720
1718,녹천중학교,서울특별시,노원구,서울특별시 노원구 월계동 321-7,127.062212,37.631519,임시주거시설,1117
1719,용원초등학교,서울특별시,노원구,서울특별시 노원구 공릉동 709-0,127.068968,37.629914,임시주거시설,1227
1720,공릉중학교,서울특별시,노원구,서울특별시 노원구 공릉동 250-0,127.083575,37.62217,임시주거시설,2395
1721,불암중학교,서울특별시,노원구,서울특별시 노원구 하계동 288-3,127.07376,37.646019,임시주거시설,877
1722,중평초등학교,서울특별시,노원구,서울특별시 노원구 하계동 271-0,127.063758,37.637522,임시주거시설,608
1723,삼양초등학교,서울특별시,강북구,서울특별시 강북구 미아동 791-1932,127.016578,37.623594,임시주거시설,7660
1724,강북구 보훈회관,서울특별시,강북구,서울특별시 강북구 미아동 198-55,127.02964,37.626614,임시주거시설,294
1725,송중초등학교,서울특별시,강북구,서울특별시 강북구 미아동 94-1,127.031357,37.61672,임시주거시설,904
1726,화계초등학교,서울특별시,강북구,서울특별시 강북구 미아동 127-2,127.029364,37.623891,임시주거시설,699
1727,송중초등학교,서울특별시,강북구,서울특별시 강북구 미아동 94-1,127.030958,37.617156,임시주거시설,457
1734,이태원1동 주민센터,서울특별시,용산구,서울특별시 용산구 이태원동 100-3,126.995072,37.532454,임시주거시설,112
1735,이태원초등학교,서울특별시,용산구,서울특별시 용산구 이태원동 406,126.988025,37.535867,임시주거시설,1206
1736,이태원2동 주민센터,서울특별시,용산구,서울특별시 용산구 이태원동 255-54,126.990191,37.541867,임시주거시설,62
1895,가재울고등학교,서울특별시,서대문구,서울특별시 서대문구 북가좌동 476-0,126.909506,37.574311,임시주거시설,742
1835,강명중학교,서울특별시,강동구,서울특별시 강동구 강일동 737-0,127.174846,37.555556,임시주거시설,2670
1836,강빛초중이음학교,서울특별시,강동구,서울특별시 강동구 강일동 120-4,127.171201,37.574209,임시주거시설,1334
1837,강명초등학교,서울특별시,강동구,서울특별시 강동구 상일동 480-0,127.173533,37.554669,임시주거시설,3971
1838,상일1동주민센터,서울특별시,강동구,서울특별시 강동구 상일동 513-2,127.168341,37.550689,임시주거시설,225
1839,서울고일초등학교,서울특별시,강동구,서울특별시 강동구 상일동 125-0,127.168835,37.552003,임시주거시설,747
1840,상일제2동주민센터,서울특별시,강동구,서울특별시 강동구 상일동 산77-27,127.179835,37.555114,임시주거시설,153
1841,대명초등학교,서울특별시,강동구,서울특별시 강동구 명일동 234,127.15329,37.547137,임시주거시설,750
1842,명덕초등학교,서울특별시,강동구,서울특별시 강동구 고덕동 487-15,127.146058,37.556958,임시주거시설,498
1843,묘곡초등학교,서울특별시,강동구,서울특별시 강동구 고덕동 498-0,127.15317,37.558963,임시주거시설,833
1844,고덕1동주민센터,서울특별시,강동구,서울특별시 강동구 고덕동 691-6,127.152536,37.555477,임시주거시설,135
1845,암사2동주민센터,서울특별시,강동구,서울특별시 강동구 암사동 503-8,127.127317,37.551686,임시주거시설,560
1846,강일중학교,서울특별시,강동구,서울특별시 강동구 암사동 414-17,127.135811,37.556165,임시주거시설,648
1848,성내중학교,서울특별시,강동구,서울특별시 강동구 성내동 448-7,127.128884,37.524542,임시주거시설,759
1849,서울제일교회,서울특별시,강동구,서울특별시 강동구 성내동 437-36,127.132174,37.525277,임시주거시설,331
1850,길동주민센터,서울특별시,강동구,서울특별시 강동구 길동 228-6,127.142646,37.534671,임시주거시설,190
1851,둔촌제1동주민센터,서울특별시,강동구,서울특별시 강동구 둔촌동 172-5,127.136729,37.523403,임시주거시설,316
1852,선린초등학교,서울특별시,강동구,서울특별시 강동구 둔촌동 91-17,127.145749,37.529262,임시주거시설,1650
1853,둔촌고등학교,서울특별시,강동구,서울특별시 강동구 둔촌동 79-3,127.144019,37.530919,임시주거시설,1564
1854,한산중학교,서울특별시,강동구,서울특별시 강동구 둔촌동 161-1,127.140124,37.528328,임시주거시설,599
2432,목동종합사회복지관,서울특별시,양천구,서울특별시 양천구 목동 946-0,126.866327,37.544265,임시주거시설,185
2433,목2동주민센터,서울특별시,양천구,서울특별시 양천구 목동 530-6,126.871644,37.546126,임시주거시설,281
2434,양동중학교,서울특별시,양천구,서울특별시 양천구 목동 600-6,126.869351,37.547894,임시주거시설,1028
2435,목동보건지소,서울특별시,양천구,서울특별시 양천구 목동 717-28,126.866975,37.5401,임시주거시설,650
2436,목3동주민센터,서울특별시,양천구,서울특별시 양천구 목동 642-1,126.864403,37.544784,임시주거시설,125
2437,정목초등학교 체육관,서울특별시,양천구,서울특별시 양천구 목동 757-1,126.87006,37.536518,임시주거시설,617
2438,목4동주민센터,서울특별시,양천구,서울특별시 양천구 목동 904-19,126.86834,37.532382,임시주거시설,120
2439,신목중학교,서울특별시,양천구,서울특별시 양천구 목동 902-1,126.873165,37.536831,임시주거시설,735
2440,영도초등학교,서울특별시,양천구,서울특별시 양천구 목동 903-1,126.871449,37.535824,임시주거시설,931
2441,월촌초등학교 체육관,서울특별시,양천구,서울특별시 양천구 목동 901-1,126.876189,37.54002,임시주거시설,540
2442,목5동주민센터,서울특별시,양천구,서울특별시 양천구 목동 908-32,126.881736,37.537185,임시주거시설,468
2443,월촌중학교,서울특별시,양천구,서울특별시 양천구 목동 909-0,126.883202,37.537856,임시주거시설,934
2352,신묵초등학교,서울특별시,중랑구,서울특별시 중랑구 묵동 246-12,127.075552,37.60717,임시주거시설,675
2353,묵현초등학교,서울특별시,중랑구,서울특별시 중랑구 묵동 242-55,127.073652,37.608984,임시주거시설,714
2354,망우초등학교,서울특별시,중랑구,서울특별시 중랑구 망우동 153-1,127.103434,37.59833,임시주거시설,705
2548,회기동주민센터,서울특별시,동대문구,서울특별시 동대문구 회기동 347-9,127.055442,37.590769,임시주거시설,100
2549,청량초등학교,서울특별시,동대문구,서울특별시 동대문구 회기동 1-1,127.055554,37.591876,임시주거시설,704
2555,전동초등학교,서울특별시,동대문구,서울특별시 동대문구 전농동 45-41,127.061189,37.5791,임시주거시설,3500
2556,전농2동주민센터,서울특별시,동대문구,서울특별시 동대문구 전농동 688-2,127.060046,37.578074,임시주거시설,129
2557,전일중학교,서울특별시,동대문구,서울특별시 동대문구 전농동 60-1,127.058519,37.581837,임시주거시설,1191
2558,배봉초등학교,서울특별시,동대문구,서울특별시 동대문구 전농동 3-111,127.066784,37.580122,임시주거시설,1287
2559,답십리1동 주민센터,서울특별시,동대문구,서울특별시 동대문구 답십리동 477-9,127.051136,37.571959,임시주거시설,323
2560,답십리초등학교,서울특별시,동대문구,서울특별시 동대문구 답십리동 2-74,127.063027,37.569596,임시주거시설,3500
2561,답십리2동주민센터,서울특별시,동대문구,서울특별시 동대문구 답십리동 10-2,127.061323,37.567416,임시주거시설,239
2562,장평중학교,서울특별시,동대문구,서울특별시 동대문구 장안동 352-0,127.070703,37.566635,임시주거시설,992
2563,안평초등학교,서울특별시,동대문구,서울특별시 동대문구 장안동 353-1,127.071305,37.565764,임시주거시설,1096
2564,장안1동주민센터,서울특별시,동대문구,서울특별시 동대문구 장안동 395-3,127.066476,37.567754,임시주거시설,102
2565,장평초등학교,서울특별시,동대문구,서울특별시 동대문구 장안동 323-0,127.073263,37.573809,임시주거시설,1462
2566,장안2동주민센터,서울특별시,동대문구,서울특별시 동대문구 장안동 286-3,127.07061,37.57849,임시주거시설,180
2567,청량중학교,서울특별시,동대문구,서울특별시 동대문구 청량리동 14-0,127.050941,37.587426,임시주거시설,2007
2568,청량리동 주민센터,서울특별시,동대문구,서울특별시 동대문구 청량리동 235-6,127.04812,37.58298,임시주거시설,233
2569,청량고등학교,서울특별시,동대문구,서울특별시 동대문구 청량리동 61-95,127.050874,37.588767,임시주거시설,3500
2570,용신동주민센터,서울특별시,동대문구,서울특별시 동대문구 용두동 792-5,127.037285,37.575823,임시주거시설,267
2571,제기동주민센터,서울특별시,동대문구,서울특별시 동대문구 제기동 830-1,127.037825,37.583171,임시주거시설,150
2572,성일중학교,서울특별시,동대문구,서울특별시 동대문구 제기동 271-41,127.033855,37.58134,임시주거시설,2235
2573,홍파초등학교,서울특별시,동대문구,서울특별시 동대문구 제기동 678-0,127.039389,37.586306,임시주거시설,907
2574,전농초등학교,서울특별시,동대문구,서울특별시 동대문구 전농동 298-0,127.054553,37.574881,임시주거시설,977
2575,동대문중학교,서울특별시,동대문구,서울특별시 동대문구 전농동 322-5,127.052259,37.574643,임시주거시설,3500
2576,전농1동주민센터,서울특별시,동대문구,서울특별시 동대문구 전농동 678-1,127.047717,37.577983,임시주거시설,221
2577,전곡초등학교,서울특별시,동대문구,서울특별시 동대문구 전농동 188-0,127.056494,37.580459,임시주거시설,3500
2606,세종과학고등학교,서울특별시,구로구,서울특별시 구로구 궁동 232-0,126.82755,37.49748,임시주거시설,670
2607,궁동종합사회복지관,서울특별시,구로구,서울특별시 구로구 궁동 108-10,126.82963,37.499018,임시주거시설,137
2608,온수어르신복지관,서울특별시,구로구,서울특별시 구로구 온수동 155-5,126.823286,37.496673,임시주거시설,258
2609,양평2동주민센터,서울특별시,영등포구,서울특별시 영등포구 양평동4가 96-0,126.893998,37.536458,임시주거시설,570
2610,영원초등학교,서울특별시,영등포구,서울특별시 영등포구 영등포동 647-2,126.902334,37.510712,임시주거시설,590
2611,영등포본동주민센터,서울특별시,영등포구,서울특별시 영등포구 영등포동 592-70,126.909393,37.514712,임시주거시설,75
2623,세곡초등학교,서울특별시,구로구,서울특별시 구로구 고척동 253-129,126.849119,37.504817,임시주거시설,720
2624,구로구민체육센터,서울특별시,구로구,서울특별시 구로구 고척동 산9-14,126.852536,37.506133,임시주거시설,5264
2625,매봉초등학교,서울특별시,구로구,서울특별시 구로구 개봉동 3,126.844575,37.504402,임시주거시설,110
2626,경인중학교,서울특별시,구로구,서울특별시 구로구 개봉동 143-4,126.854658,37.498382,임시주거시설,858
2627,영등포여자고등학교,서울특별시,영등포구,서울특별시 영등포구 신길동 184-3,126.915565,37.515391,임시주거시설,923
2628,영등포동주민센터,서울특별시,영등포구,서울특별시 영등포구 영등포동2가 222-2,126.910637,37.520314,임시주거시설,336
2629,영등포동자치회관,서울특별시,영등포구,서울특별시 영등포구 영등포동7가 59-4,126.903608,37.525383,임시주거시설,196
2630,영중초등학교,서울특별시,영등포구,서울특별시 영등포구 영등포동7가 53-0,126.903964,37.523812,임시주거시설,597
2631,하이서울유스호스텔,서울특별시,영등포구,서울특별시 영등포구 영등포동7가 57-0,126.903438,37.525598,임시주거시설,9807
2632,여의도고등학교,서울특별시,영등포구,서울특별시 영등포구 여의도동 30-1,126.93412,37.525059,임시주거시설,631
2633,윤중초등학교,서울특별시,영등포구,서울특별시 영등포구 여의도동 38-0,126.922893,37.519797,임시주거시설,728
2634,여의동주민센터,서울특별시,영등포구,서울특별시 영등포구 여의도동 53-22,126.934514,37.517647,임시주거시설,140
2635,구립당산3가경로당,서울특별시,영등포구,서울특별시 영등포구 당산동3가 407-0,126.89395,37.526029,임시주거시설,132
2636,당산1동주민센터,서울특별시,영등포구,서울특별시 영등포구 당산동3가 250-0,126.897308,37.525013,임시주거시설,175
2637,서울영일초등학교,서울특별시,구로구,서울특별시 구로구 가리봉동 17-0,126.883437,37.484688,임시주거시설,856
2638,제이에스호스텔,서울특별시,구로구,서울특별시 구로구 가리봉동 135-25,126.891042,37.479498,임시주거시설,55
2639,고척중학교,서울특별시,구로구,서울특별시 구로구 고척동 76-2,126.862068,37.500226,임시주거시설,1046
2640,고산초등학교,서울특별시,구로구,서울특별시 구로구 고척동 76-10,126.865397,37.499342,임시주거시설,612
2641,고원초등학교,서울특별시,구로구,서울특별시 구로구 고척동 66-26,126.865797,37.497566,임시주거시설,713
2642,서울고척초등학교,서울특별시,구로구,서울특별시 구로구 고척동 129-3,126.857191,37.500949,임시주거시설,552
2660,한남동주민센터,서울특별시,용산구,서울특별시 용산구 한남동 685-43,127.000494,37.534564,임시주거시설,385
2661,매봉경로당,서울특별시,용산구,서울특별시 용산구 한남동 726-250,127.003713,37.543029,임시주거시설,233
2662,서빙고초등학교,서울특별시,용산구,서울특별시 용산구 서빙고동 235-1,126.992403,37.522146,임시주거시설,100
2663,서빙고동 주민센터,서울특별시,용산구,서울특별시 용산구 서빙고동 134,126.994637,37.520487,임시주거시설,60
2664,오산고등학교,서울특별시,용산구,서울특별시 용산구 보광동 168-4,126.999764,37.524544,임시주거시설,800
2665,창동고등학교,서울특별시,도봉구,서울특별시 도봉구 창동 694-10,127.038804,37.650964,임시주거시설,1494
2666,서울신화초등학교,서울특별시,도봉구,서울특별시 도봉구 창동 504-33,127.041224,37.632459,임시주거시설,623
2667,자운고등학교,서울특별시,도봉구,서울특별시 도봉구 창동 1-0,127.050673,37.659092,임시주거시설,791
2668,서울오봉초등학교,서울특별시,도봉구,서울특별시 도봉구 도봉동 608-22,127.040358,37.671664,임시주거시설,522
2669,누원고등학교,서울특별시,도봉구,서울특별시 도봉구 도봉동 646-0,127.049976,37.685527,임시주거시설,783
2670,효문고등학교,서울특별시,도봉구,서울특별시 도봉구 쌍문동 468-0,127.018175,37.652557,임시주거시설,540
2671,서울쌍문초등학교,서울특별시,도봉구,서울특별시 도봉구 쌍문동 360-4,127.024391,37.648603,임시주거시설,720
2672,덕성여자대학교,서울특별시,도봉구,서울특별시 도봉구 쌍문동 419-0,127.016977,37.651659,임시주거시설,1629
2673,신도봉중학교,서울특별시,도봉구,서울특별시 도봉구 쌍문동 94-1,127.033206,37.649252,임시주거시설,1316
2674,서울창도초등학교,서울특별시,도봉구,서울특별시 도봉구 방학동 722-9,127.049511,37.663694,임시주거시설,1160
2675,도봉 문화고등학교,서울특별시,도봉구,서울특별시 도봉구 방학동 723-0,127.047082,37.663451,임시주거시설,1514
2676,서울방학초등학교,서울특별시,도봉구,서울특별시 도봉구 방학동 667-1,127.032057,37.663921,임시주거시설,572
2444,서울경인초등학교,서울특별시,양천구,서울특별시 양천구 목동 911-4,126.886257,37.533116,임시주거시설,631
2445,신월보건지소,서울특별시,양천구,서울특별시 양천구 신월동 131-4,126.832067,37.532303,임시주거시설,160
2446,신월1동주민센터,서울특별시,양천구,서울특별시 양천구 신월동 135-18,126.831526,37.532786,임시주거시설,156
2988,서울은로초등학교,서울특별시,동작구,서울특별시 동작구 흑석동 245-1,126.965121,37.508605,임시주거시설,555
2989,강현중학교,서울특별시,동작구,서울특별시 동작구 상도동 335-5,126.931101,37.503075,임시주거시설,718
2990,대방중학교,서울특별시,동작구,서울특별시 동작구 신대방동 492-200,126.913763,37.495166,임시주거시설,952
2991,문창중학교,서울특별시,동작구,서울특별시 동작구 신대방동 364-58,126.921772,37.495826,임시주거시설,658
2992,서울상도초등학교,서울특별시,동작구,서울특별시 동작구 상도동 238-2,126.93723,37.49971,임시주거시설,680
2993,서울신상도초등학교,서울특별시,동작구,서울특별시 동작구 상도동 산65-59,126.944064,37.500276,임시주거시설,530
2995,동작고등학교,서울특별시,동작구,서울특별시 동작구 사당동 236-5,126.965239,37.482236,임시주거시설,540
2996,영등포고등학교,서울특별시,동작구,서울특별시 동작구 대방동 13-2,126.933666,37.508253,임시주거시설,873
2997,남사초등학교,서울특별시,동작구,서울특별시 동작구 사당동 1011-1,126.978862,37.482344,임시주거시설,180
2998,서울남성초등학교,서울특별시,동작구,서울특별시 동작구 사당동 324-18,126.975809,37.48461,임시주거시설,804
2999,서울대림초등학교,서울특별시,동작구,서울특별시 동작구 대방동 391-62,126.925733,37.500648,임시주거시설,880
3000,서울본동초등학교,서울특별시,동작구,서울특별시 동작구 본동 50-8,126.953903,37.510117,임시주거시설,638
3035,인왕초등학교,서울특별시,서대문구,서울특별시 서대문구 홍제동 241-113,126.94521,37.590504,임시주거시설,477
3036,홍제초등학교,서울특별시,서대문구,서울특별시 서대문구 홍은동 48,126.944641,37.593062,임시주거시설,675
3037,홍연초등학교 체육관,서울특별시,서대문구,서울특별시 서대문구 홍은동 305,126.931055,37.581708,임시주거시설,1100
3038,서대문문화체육회관,서울특별시,서대문구,서울특별시 서대문구 홍은동 산26-155,126.931731,37.58094,임시주거시설,508
3039,영은교회,서울특별시,영등포구,서울특별시 영등포구 양평동3가 8-2,126.889994,37.525344,임시주거시설,732
3040,당중초등학교,서울특별시,영등포구,서울특별시 영등포구 양평동3가 42-0,126.889988,37.526567,임시주거시설,558
3041,선유중학교,서울특별시,영등포구,서울특별시 영등포구 양평동3가 82-0,126.894588,37.533014,임시주거시설,540
3042,선유도서관,서울특별시,영등포구,서울특별시 영등포구 양평동3가 88-1,126.892988,37.533329,임시주거시설,137
3043,당산초등학교,서울특별시,영등포구,서울특별시 영등포구 양평동4가 323-0,126.89677,37.539697,임시주거시설,369
3044,선유고등학교,서울특별시,영등포구,서울특별시 영등포구 양평동4가 10-0,126.894816,37.533865,임시주거시설,730
3045,한강미디어고등학교,서울특별시,영등포구,서울특별시 영등포구 양평동4가 315-1,126.897257,37.539169,임시주거시설,721
3046,구립율산경로당,서울특별시,영등포구,서울특별시 영등포구 신길동 9-102,126.922626,37.51573,임시주거시설,198
3047,영신초등학교,서울특별시,영등포구,서울특별시 영등포구 신길동 121-0,126.917985,37.510033,임시주거시설,390
3048,신길교회,서울특별시,영등포구,서울특별시 영등포구 신길동 63-3,126.919539,37.515105,임시주거시설,631
3052,금화초등학교,서울특별시,서대문구,서울특별시 서대문구 천연동 13-1,126.963188,37.568651,임시주거시설,550
3053,북성초등학교,서울특별시,서대문구,서울특별시 서대문구 북아현동 215,126.951927,37.559292,임시주거시설,426
3054,아현감리교회,서울특별시,서대문구,서울특별시 서대문구 북아현동 126-10,126.95873,37.557683,임시주거시설,400
3055,북아현문화체육센터,서울특별시,서대문구,서울특별시 서대문구 북아현동 1012-2,126.955455,37.561883,임시주거시설,614
3056,대신초등학교,서울특별시,서대문구,서울특별시 서대문구 대현동 67-1,126.947618,37.558042,임시주거시설,405
3057,창서초등학교,서울특별시,서대문구,서울특별시 서대문구 창천동 53-38,126.933965,37.557612,임시주거시설,615
3058,연희초등학교,서울특별시,서대문구,서울특별시 서대문구 연희동 88-1,126.933892,37.56919,임시주거시설,600
3059,연북중학교,서울특별시,서대문구,서울특별시 서대문구 연희동 141-0,126.937728,37.577819,임시주거시설,836
3060,안산초등학교,서울특별시,서대문구,서울특별시 서대문구 홍제동 44,126.944031,37.585068,임시주거시설,1013
3061,홍제3동주민센터,서울특별시,서대문구,서울특별시 서대문구 홍제동 7-13,126.949763,37.593763,임시주거시설,40
3062,인왕중학교,서울특별시,서대문구,서울특별시 서대문구 홍제동 9-27,126.952043,37.59278,임시주거시설,816
3063,홍은중학교,서울특별시,서대문구,서울특별시 서대문구 홍제동 286-38,126.949603,37.59762,임시주거시설,606
2741,시흥3동주민센터,서울특별시,금천구,서울특별시 금천구 시흥동 956-3,126.905828,37.440277,임시주거시설,198
2742,남부여성발전센터,서울특별시,금천구,서울특별시 금천구 시흥동 산139-2,126.906036,37.46326,임시주거시설,491
2743,시흥4동주민센터,서울특별시,금천구,서울특별시 금천구 시흥동 812-38,126.906175,37.458948,임시주거시설,209
2744,시흥5동주민센터,서울특별시,금천구,서울특별시 금천구 시흥동 910-5,126.908302,37.452352,임시주거시설,160
2763,가산동주민센터,서울특별시,금천구,서울특별시 금천구 가산동 144-3,126.891763,37.476873,임시주거시설,135
2764,안천중학교,서울특별시,금천구,서울특별시 금천구 독산동 1089,126.887722,37.459219,임시주거시설,682
2765,금천한내어르신복지센터,서울특별시,금천구,서울특별시 금천구 독산동 293-14,126.886851,37.45794,임시주거시설,113
2968,도림초등학교,서울특별시,영등포구,서울특별시 영등포구 신길동 285-1,126.90678,37.508191,임시주거시설,800
2969,서울우신초등학교,서울특별시,영등포구,서울특별시 영등포구 신길동 210-0,126.911419,37.509572,임시주거시설,633
2970,신길4동주민센터,서울특별시,영등포구,서울특별시 영등포구 신길동 209-102,126.9113,37.50845,임시주거시설,184
2971,구립신길5동제2경로당,서울특별시,영등포구,서울특별시 영등포구 신길동 341-3,126.905482,37.501739,임시주거시설,168
2972,대영초등학교,서울특별시,영등포구,서울특별시 영등포구 신길동 341-1,126.906025,37.502352,임시주거시설,180
2973,영등포구제1스포츠센터,서울특별시,영등포구,서울특별시 영등포구 신길동 426-3,126.906741,37.500618,임시주거시설,651
2974,대림감리교회,서울특별시,영등포구,서울특별시 영등포구 신길동 4794-0,126.909766,37.494076,임시주거시설,1100
2975,영신고등학교,서울특별시,영등포구,서울특별시 영등포구 신길동 4656-2,126.909747,37.49767,임시주거시설,895
2976,서울대방초등학교,서울특별시,영등포구,서울특별시 영등포구 신길동 1444-0,126.918942,37.502299,임시주거시설,660
2977,구립신길7동경로당,서울특별시,영등포구,서울특별시 영등포구 신길동 897-3,126.921336,37.506396,임시주거시설,221
2978,구립대림1경로당,서울특별시,영등포구,서울특별시 영등포구 대림동 899-2,126.906022,37.495431,임시주거시설,60
2979,대림중학교,서울특별시,영등포구,서울특별시 영등포구 대림동 959-0,126.907674,37.492424,임시주거시설,711
2980,신대림초등학교,서울특별시,영등포구,서울특별시 영등포구 대림동 968-0,126.905601,37.492076,임시주거시설,663
2981,영림초등학교,서울특별시,영등포구,서울특별시 영등포구 대림동 993-16,126.902506,37.487352,임시주거시설,567
2987,서울영본초등학교,서울특별시,동작구,서울특별시 동작구 본동 205-326,126.948826,37.511154,임시주거시설,816
3226,인헌초등학교,서울특별시,관악구,서울특별시 관악구 봉천동 212-3,126.960175,37.476459,임시주거시설,595
3227,신림초등학교,서울특별시,관악구,서울특별시 관악구 신림동 1627-75,126.927581,37.477302,임시주거시설,630
3289,휘경중학교,서울특별시,동대문구,서울특별시 동대문구 휘경동 286-66,127.061751,37.587084,임시주거시설,459
3290,휘봉고등학교,서울특별시,동대문구,서울특별시 동대문구 휘경동 43-138,127.06892,37.58638,임시주거시설,3500
3291,휘경2동주민센터,서울특별시,동대문구,서울특별시 동대문구 휘경동 367-1,127.06858,37.590134,임시주거시설,157
3292,휘봉초등학교,서울특별시,동대문구,서울특별시 동대문구 휘경동 49-27,127.070152,37.586323,임시주거시설,3500
3293,이문1동주민센터,서울특별시,동대문구,서울특별시 동대문구 이문동 120-1,127.065478,37.597835,임시주거시설,150
3294,이문초등학교,서울특별시,동대문구,서울특별시 동대문구 이문동 164-26,127.063844,37.602643,임시주거시설,887
3295,이문2동주민센터,서울특별시,동대문구,서울특별시 동대문구 이문동 237-1,127.065116,37.603329,임시주거시설,203
3321,휘경1동주민센터,서울특별시,동대문구,서울특별시 동대문구 휘경동 135-9,127.065763,37.59293,임시주거시설,171
3322,서울반도체고등학교,서울특별시,동대문구,서울특별시 동대문구 휘경동 49-327,127.069537,37.585333,임시주거시설,1237
3643,동작중학교,서울특별시,동작구,서울특별시 동작구 동작동 59-1,126.976271,37.495084,임시주거시설,539
3406,금나래문화체육센터,서울특별시,금천구,서울특별시 금천구 독산동 1148-0,126.895998,37.458838,임시주거시설,812
3407,독산어르신체육센터,서울특별시,금천구,서울특별시 금천구 독산동 234-86,126.905802,37.474353,임시주거시설,438
3453,종로노인복지관 무악센터,서울특별시,종로구,서울특별시 종로구 무악동 60-2,126.958034,37.575829,임시주거시설,797
3454,종로노인종합복지관,서울특별시,종로구,서울특별시 종로구 이화동 25-1,127.006028,37.57672,임시주거시설,389
3455,종로구웰니스센터,서울특별시,종로구,서울특별시 종로구 원서동 181-5,126.988998,37.577859,임시주거시설,175
3574,서울동작초등학교,서울특별시,동작구,서울특별시 동작구 사당동 산9-1,126.976509,37.494105,임시주거시설,922
3575,사당중학교,서울특별시,동작구,서울특별시 동작구 사당동 209-16,126.968895,37.487813,임시주거시설,1131
3576,사당종합체육관,서울특별시,동작구,서울특별시 동작구 사당동 산21-9,126.969538,37.492666,임시주거시설,2495
3577,남성중학교,서울특별시,동작구,서울특별시 동작구 사당동 304-45,126.972489,37.478825,임시주거시설,610
3578,서울공업고등학교,서울특별시,동작구,서울특별시 동작구 대방동 390-5,126.922383,37.501597,임시주거시설,717
3761,중앙대학교 체육관,서울특별시,동작구,서울특별시 동작구 흑석동 221-0,126.955559,37.504522,임시주거시설,941
3909,원촌초등학교,서울특별시,서초구,서울특별시 서초구 반포동 21-0,127.012717,37.506101,임시주거시설,555
3910,반포1동주민센터,서울특별시,서초구,서울특별시 서초구 반포동 20-48,127.01,37.51,임시주거시설,239
3911,신반포중학교,서울특별시,서초구,서울특별시 서초구 반포동 3-1,126.995764,37.505971,임시주거시설,863
3912,잠원초등학교,서울특별시,서초구,서울특별시 서초구 반포동 17-0,126.997902,37.501954,임시주거시설,685
3913,심산기념문화센터,서울특별시,서초구,서울특별시 서초구 반포동 114-3,126.99157,37.499037,임시주거시설,917
3914,경원중학교,서울특별시,서초구,서울특별시 서초구 잠원동 66-1,127.008875,37.510755,임시주거시설,723
3915,반원초등학교,서울특별시,서초구,서울특별시 서초구 잠원동 72-0,127.003876,37.510121,임시주거시설,374
3916,방배중학교,서울특별시,서초구,서울특별시 서초구 반포동 586-1,126.998482,37.494253,임시주거시설,99
3917,반포4동주민센터,서울특별시,서초구,서울특별시 서초구 반포동 74-7,127.0,37.5,임시주거시설,319
3918,남서울중학교,서울특별시,관악구,서울특별시 관악구 신림동 1690-3,126.921469,37.481895,임시주거시설,863
3919,난우중학교,서울특별시,관악구,서울특별시 관악구 신림동 652-156,126.92268,37.46663,임시주거시설,766
3920,서일초등학교,서울특별시,서초구,서울특별시 서초구 서초동 1436-8,127.02235,37.485166,임시주거시설,653
3921,서이초등학교,서울특별시,서초구,서울특별시 서초구 서초동 1334-2,127.025993,37.491606,임시주거시설,458
3922,서운중학교,서울특별시,서초구,서울특별시 서초구 서초동 1325-1,127.024521,37.493983,임시주거시설,770
3923,상문고등학교,서울특별시,서초구,서울특별시 서초구 방배동 1000-1,127.004834,37.479464,임시주거시설,2100
3924,삼성초등학교,서울특별시,관악구,서울특별시 관악구 신림동 233-1,126.941029,37.468039,임시주거시설,993
3925,삼성중학교,서울특별시,관악구,서울특별시 관악구 신림동 220-1,126.942816,37.467871,임시주거시설,979
3926,신우초등학교,서울특별시,관악구,서울특별시 관악구 신림동 315,126.932425,37.462739,임시주거시설,889
3927,미성중학교,서울특별시,관악구,서울특별시 관악구 신림동 745-24,126.912426,37.475216,임시주거시설,587
3932,서래초등학교,서울특별시,서초구,서울특별시 서초구 방배동 771-0,126.989296,37.496302,임시주거시설,682
3933,방배본동주민센터,서울특별시,서초구,서울특별시 서초구 방배동 774-9,126.99,37.49,임시주거시설,324
3934,신중초등학교,서울특별시,서초구,서울특별시 서초구 서초동 1466-5,127.009344,37.480193,임시주거시설,784
3935,서울고등학교,서울특별시,서초구,서울특별시 서초구 서초동 1526-1,127.00557,37.48372,임시주거시설,2078
3936,서일중학교,서울특별시,서초구,서울특별시 서초구 서초동 1313-0,127.022184,37.499287,임시주거시설,630
3937,서초4동주민센터,서울특별시,서초구,서울특별시 서초구 서초동 1302-6,127.02,37.5,임시주거시설,871
3938,신동초등학교,서울특별시,서초구,서울특별시 서초구 잠원동 54-5,127.011894,37.516895,임시주거시설,577
3939,신동중학교,서울특별시,서초구,서울특별시 서초구 잠원동 54-6,127.013202,37.516602,임시주거시설,730
4305,인수초등학교,서울특별시,강북구,서울특별시 강북구 수유동 551-19,127.010312,37.642795,임시주거시설,764
4306,강북중학교,서울특별시,강북구,서울특별시 강북구 수유동 694-0,127.026254,37.645071,임시주거시설,543
4059,서초종합체육관,서울특별시,서초구,서울특별시 서초구 원지동 29-10,127.042275,37.45896,임시주거시설,500
4060,방배초등학교,서울특별시,서초구,서울특별시 서초구 방배동 861-1,126.987179,37.487461,임시주거시설,726
4061,방일초등학교,서울특별시,서초구,서울특별시 서초구 방배동 167-4,126.998405,37.485397,임시주거시설,561
4081,대치1문화센터,서울특별시,강남구,서울특별시 강남구 대치동 646-2,127.056771,37.493246,임시주거시설,188
4082,서문여자고등학교,서울특별시,서초구,서울특별시 서초구 방배동 1514-0,126.985498,37.489342,임시주거시설,1063
4083,양재초등학교,서울특별시,서초구,서울특별시 서초구 양재동 101-0,127.031911,37.474192,임시주거시설,558
4084,우면초등학교,서울특별시,서초구,서울특별시 서초구 우면동 690-0,127.023601,37.464659,임시주거시설,764
4085,양재1동주민센터,서울특별시,서초구,서울특별시 서초구 우면동 68-2,127.03,37.47,임시주거시설,321
4086,언남중학교,서울특별시,서초구,서울특별시 서초구 양재동 310-0,127.044113,37.472535,임시주거시설,590
4087,매헌초등학교,서울특별시,서초구,서울특별시 서초구 양재동 311-1,127.042031,37.471242,임시주거시설,665
4088,언남문화체육센터,서울특별시,서초구,서울특별시 서초구 양재동 309-0,127.043372,37.472319,임시주거시설,330
4089,양재2동주민센터,서울특별시,서초구,서울특별시 서초구 양재동 323-1,127.04,37.47,임시주거시설,350
4115,서울삼전초등학교,서울특별시,송파구,서울특별시 송파구 삼전동 63,127.092589,37.501442,임시주거시설,5427
4116,대명중학교,서울특별시,강남구,서울특별시 강남구 대치동 952-0,127.060388,37.506225,임시주거시설,700
4117,대치4문화센터,서울특별시,강남구,서울특별시 강남구 대치동 928-22,127.057884,37.499674,임시주거시설,527
4118,도곡초등학교,서울특별시,강남구,서울특별시 강남구 대치동 924-10,127.054468,37.499549,임시주거시설,958
4119,역삼1문화센터,서울특별시,강남구,서울특별시 강남구 역삼동 829-20,127.033266,37.495395,임시주거시설,255
4120,도성초등학교,서울특별시,강남구,서울특별시 강남구 역삼동 714,127.049183,37.500908,임시주거시설,946
4121,역삼중학교,서울특별시,강남구,서울특별시 강남구 역삼동 767-20,127.048597,37.49595,임시주거시설,1042
4122,언주초등학교,서울특별시,강남구,서울특별시 강남구 도곡동 922,127.037033,37.486646,임시주거시설,785
4123,대도초등학교,서울특별시,강남구,서울특별시 강남구 도곡동 106-1,127.052832,37.492723,임시주거시설,646
4124,언남초등학교,서울특별시,서초구,서울특별시 서초구 내곡동 122-0,127.061895,37.453963,임시주거시설,330
4125,내곡중학교,서울특별시,서초구,서울특별시 서초구 신원동 294-0,127.054329,37.452038,임시주거시설,765
4126,오라카이 청계산 호텔,서울특별시,서초구,서울특별시 서초구 신원동 604-0,127.046963,37.462209,임시주거시설,20177
4127,논현1문화센터,서울특별시,강남구,서울특별시 강남구 논현동 133-13,127.028512,37.511501,임시주거시설,425
4128,논현2문화센터,서울특별시,강남구,서울특별시 강남구 논현동 114-24,127.03705,37.517374,임시주거시설,463
4129,언북초등학교,서울특별시,강남구,서울특별시 강남구 청담동 27,127.045637,37.519989,임시주거시설,1086
4130,청담중학교,서울특별시,강남구,서울특별시 강남구 청담동 143-0,127.045542,37.528518,임시주거시설,884
4131,경기고등학교,서울특별시,강남구,서울특별시 강남구 삼성동 74-4,127.056003,37.517426,임시주거시설,614
4132,봉은초등학교,서울특별시,강남구,서울특별시 강남구 삼성동 79-2,127.060791,37.520101,임시주거시설,1056
4133,구룡초등학교,서울특별시,강남구,서울특별시 강남구 개포동 655-0,127.052053,37.481323,임시주거시설,896
4134,세명초등학교,서울특별시,강남구,서울특별시 강남구 세곡동 529-0,127.09134,37.468935,임시주거시설,3128
4135,서울로봇고등학교,서울특별시,강남구,서울특별시 강남구 일원동 738-0,127.084708,37.480634,임시주거시설,1204
4136,중동고등학교,서울특별시,강남구,서울특별시 강남구 일원동 618,127.080772,37.493132,임시주거시설,1478
4137,영희초등학교,서울특별시,강남구,서울특별시 강남구 일원동 617-0,127.081001,37.492273,임시주거시설,939
4138,수서중학교,서울특별시,강남구,서울특별시 강남구 수서동 710-0,127.102389,37.491066,임시주거시설,862
4139,풍성중학교,서울특별시,송파구,서울특별시 송파구 풍납동 388-16,127.113067,37.525367,임시주거시설,1922
4140,서울토성초등학교,서울특별시,송파구,서울특별시 송파구 풍납동 251-0,127.115853,37.532112,임시주거시설,1070
4141,송파구체육문화회관,서울특별시,송파구,서울특별시 송파구 거여동 289,127.142825,37.490627,임시주거시설,2461
4148,서울영풍초등학교,서울특별시,송파구,서울특별시 송파구 거여동 12-0,127.143163,37.496081,임시주거시설,2971
4149,서울방이초등학교,서울특별시,송파구,서울특별시 송파구 방이동 167-0,127.120814,37.513036,임시주거시설,2925
4150,방산고등학교,서울특별시,송파구,서울특별시 송파구 방이동 220-5,127.120555,37.508447,임시주거시설,3435
4151,오륜중학교,서울특별시,송파구,서울특별시 송파구 방이동 89-7,127.1389,37.516352,임시주거시설,851
4152,대치중학교,서울특별시,강남구,서울특별시 강남구 도곡동 460-0,127.047462,37.484604,임시주거시설,1006
4153,구룡중학교,서울특별시,강남구,서울특별시 강남구 개포동 650-0,127.055745,37.486102,임시주거시설,1129
4154,양전초등학교,서울특별시,강남구,서울특별시 강남구 개포동 183-0,127.069121,37.490257,임시주거시설,998
4155,개원중학교,서울특별시,강남구,서울특별시 강남구 개포동 184-0,127.071735,37.49172,임시주거시설,2034
4156,대진초등학교,서울특별시,강남구,서울특별시 강남구 개포동 13-0,127.078031,37.496678,임시주거시설,330
4157,중동중학교,서울특별시,강남구,서울특별시 강남구 일원동 692-0,127.078707,37.488327,임시주거시설,1970
4158,포이초등학교,서울특별시,강남구,서울특별시 강남구 개포동 1273-0,127.052878,37.476029,임시주거시설,1826
4616,신목고등학교,서울특별시,양천구,서울특별시 양천구 신정동 330-3,126.873736,37.512605,임시주거시설,415
4617,서울서정초등학교,서울특별시,양천구,서울특별시 양천구 목동 927-5,126.867516,37.524243,임시주거시설,600
4618,목운초등학교,서울특별시,양천구,서울특별시 양천구 목동 922-0,126.873029,37.526841,임시주거시설,1281
4619,양화초등학교 체육관,서울특별시,양천구,서울특별시 양천구 목동 542,126.874544,37.543381,임시주거시설,632
4620,목동문화체육센터,서울특별시,양천구,서울특별시 양천구 목동 946-1,126.869047,37.542793,임시주거시설,620
4621,서울광남초등학교,서울특별시,광진구,서울특별시 광진구 광장동 554,127.100806,37.541118,임시주거시설,750
4622,서울광장초등학교,서울특별시,광진구,서울특별시 광진구 광장동 389-1,127.101796,37.548618,임시주거시설,800
4623,옥수초등학교,서울특별시,성동구,서울특별시 성동구 금호동4가 440-12,127.021923,37.549585,임시주거시설,576
4624,금호4가동주민센터,서울특별시,성동구,서울특별시 성동구 금호동4가 803-0,127.022373,37.547199,임시주거시설,255
4625,옥정초등학교,서울특별시,성동구,서울특별시 성동구 옥수동 233-16,127.01556,37.541934,임시주거시설,2722
4567,남가좌1동주민센터,서울특별시,서대문구,서울특별시 서대문구 남가좌동 385-3,126.919834,37.573246,임시주거시설,188
4568,명지대방목학술정보관,서울특별시,서대문구,서울특별시 서대문구 남가좌동 50-3,126.921374,37.580354,임시주거시설,900
4569,북가좌초등학교,서울특별시,서대문구,서울특별시 서대문구 북가좌동 186-108,126.907642,37.577146,임시주거시설,588
4570,가재울중학교,서울특별시,서대문구,서울특별시 서대문구 북가좌동 472-0,126.909842,37.575387,임시주거시설,375
4626,옥수동주민센터,서울특별시,성동구,서울특별시 성동구 옥수동 276-6,127.013492,37.543654,임시주거시설,229
4627,경일중학교,서울특별시,성동구,서울특별시 성동구 성수동1가 22-27,127.048106,37.543598,임시주거시설,676
4628,성수1가제1동주민센터,서울특별시,성동구,서울특별시 성동구 성수동1가 27-23,127.04968,37.542089,임시주거시설,195
4629,성수중학교,서울특별시,성동구,서울특별시 성동구 성수동1가 685-143,127.038974,37.547222,임시주거시설,1386
4630,성수고등학교,서울특별시,성동구,서울특별시 성동구 성수동1가 685-549,127.038223,37.547833,임시주거시설,1988
4631,성수1가제2동주민센터,서울특별시,성동구,서울특별시 성동구 성수동1가 685-580,127.044337,37.5463,임시주거시설,213
4632,성원중학교,서울특별시,성동구,서울특별시 성동구 성수동2가 333-17,127.052308,37.539352,임시주거시설,1568
4633,성수2가제1동주민센터,서울특별시,성동구,서울특별시 성동구 성수동2가 333-134,127.053985,37.539505,임시주거시설,140
4634,성수2가제3동주민센터,서울특별시,성동구,서울특별시 성동구 성수동2가 299-240,127.055243,37.548233,임시주거시설,190
4635,대현산체육관,서울특별시,성동구,서울특별시 성동구 행당동 산30-40,127.030107,37.553961,임시주거시설,1090
4636,행당제2동주민센터,서울특별시,성동구,서울특별시 성동구 행당동 347-1,127.029365,37.558234,임시주거시설,126
4637,응봉초등학교,서울특별시,성동구,서울특별시 성동구 응봉동 193-0,127.033493,37.550151,임시주거시설,380
4638,금호고등학교,서울특별시,성동구,서울특별시 성동구 금호동1가 1822-0,127.023494,37.553647,임시주거시설,670
4639,금호1가동주민센터,서울특별시,성동구,서울특별시 성동구 금호동1가 127-2,127.021662,37.55484,임시주거시설,270
4640,금북초등학교,서울특별시,성동구,서울특별시 성동구 금호동1가 1-72,127.023668,37.557345,임시주거시설,240
4641,금호초등학교,서울특별시,성동구,서울특별시 성동구 금호동2가 511-0,126.964886,37.574163,임시주거시설,2680
4642,금호2-3가동주민센터,서울특별시,성동구,서울특별시 성동구 금호동2가 1212-0,127.020994,37.553177,임시주거시설,266
4643,금호공원체육관,서울특별시,성동구,서울특별시 성동구 금호동3가 1266-0,127.018711,37.549396,임시주거시설,660
4644,별장여관,서울특별시,성동구,서울특별시 성동구 금호동3가 208-0,127.025326,37.548305,임시주거시설,32
4645,금옥초등학교,서울특별시,성동구,서울특별시 성동구 금호동4가 987-0,127.017579,37.546695,임시주거시설,561
4646,무학여자고등학교,서울특별시,성동구,서울특별시 성동구 행당동 322-1,127.033196,37.557667,임시주거시설,1178
4647,자양문화체육센터,서울특별시,광진구,서울특별시 광진구 자양동 594-0,127.077468,37.529196,임시주거시설,660
4648,자양제3동주민센터,서울특별시,광진구,서울특별시 광진구 자양동 519-10,127.072746,37.533941,임시주거시설,141
4649,구의제2동주민센터,서울특별시,광진구,서울특별시 광진구 구의동 63-7,127.089905,37.547255,임시주거시설,294
4650,중랑초등학교,서울특별시,중랑구,서울특별시 중랑구 면목동 192-1,127.075785,37.589181,임시주거시설,810
4651,광남중학교,서울특별시,광진구,서울특별시 광진구 광장동 554-15,127.101691,37.540771,임시주거시설,939
4652,양진중학교,서울특별시,광진구,서울특별시 광진구 광장동 32-0,127.098343,37.544573,임시주거시설,629
4653,서울자양초등학교,서울특별시,광진구,서울특별시 광진구 자양동 222-6,127.079541,37.536798,임시주거시설,774
4654,광양고등학교,서울특별시,광진구,서울특별시 광진구 자양동 674-1,127.086086,37.529349,임시주거시설,2856
4655,광진중학교,서울특별시,광진구,서울특별시 광진구 자양동 693-0,127.089529,37.532263,임시주거시설,630
4656,서울신자초등학교,서울특별시,광진구,서울특별시 광진구 자양동 591-0,127.075586,37.530238,임시주거시설,2061
4657,서울동자초등학교,서울특별시,광진구,서울특별시 광진구 자양동 516-4,127.073088,37.534675,임시주거시설,728
4658,자양중학교,서울특별시,광진구,서울특별시 광진구 자양동 516-4,127.074461,37.535586,임시주거시설,1140
4659,자양고등학교,서울특별시,광진구,서울특별시 광진구 자양동 711-2,127.073081,37.536062,임시주거시설,975
4660,신양중학교,서울특별시,광진구,서울특별시 광진구 자양동 57-164,127.063321,37.533449,임시주거시설,1142
4661,서울광진초등학교,서울특별시,광진구,서울특별시 광진구 구의동 60-44,127.091433,37.547561,임시주거시설,11848
4662,서울구남초등학교,서울특별시,광진구,서울특별시 광진구 구의동 215-29,127.092106,37.537173,임시주거시설,405
4663,성수초등학교,서울특별시,성동구,서울특별시 성동구 성수동2가 277-32,127.063435,37.544241,임시주거시설,320
4664,송원초등학교,서울특별시,성동구,서울특별시 성동구 송정동 72-8,127.069348,37.554055,임시주거시설,680
4665,송정동주민센터,서울특별시,성동구,서울특별시 성동구 송정동 72-31,127.069585,37.554523,임시주거시설,79
4666,서울새활용플라자,서울특별시,성동구,서울특별시 성동구 용답동 250-14,127.057632,37.558581,임시주거시설,1630
4667,용답동주민센터,서울특별시,성동구,서울특별시 성동구 용답동 5-6,127.055565,37.564098,임시주거시설,150
4668,구의중학교,서울특별시,광진구,서울특별시 광진구 화양동 303-18,127.079257,37.542754,임시주거시설,7069
4669,서울구의초등학교,서울특별시,광진구,서울특별시 광진구 화양동 303-9,127.079547,37.543007,임시주거시설,1630
4670,중곡제1동주민센터,서울특별시,광진구,서울특별시 광진구 중곡동 259-10,127.080144,37.560695,임시주거시설,198
4671,서울용곡초등학교,서울특별시,광진구,서울특별시 광진구 중곡동 176-1,127.088537,37.566836,임시주거시설,2637
4672,능동주민센터,서울특별시,광진구,서울특별시 광진구 능동 232-4,127.0804,37.553752,임시주거시설,255
4708,중목초등학교,서울특별시,중랑구,서울특별시 중랑구 면목동 180-5,127.079339,37.590045,임시주거시설,577
4709,용마중학교,서울특별시,중랑구,서울특별시 중랑구 면목동 378-2,127.085949,37.57422,임시주거시설,540
4710,중곡초등학교,서울특별시,중랑구,서울특별시 중랑구 면목동 380,127.083759,37.574264,임시주거시설,786
4711,면목5동 주민센터,서울특별시,중랑구,서울특별시 중랑구 면목동 175-18,127.079482,37.585833,임시주거시설,147
4712,면동초등학교,서울특별시,중랑구,서울특별시 중랑구 면목동 551,127.086674,37.585269,임시주거시설,630
4713,면목초등학교,서울특별시,중랑구,서울특별시 중랑구 면목동 221,127.087486,37.590737,임시주거시설,627
4714,면목본동 주민센터,서울특별시,중랑구,서울특별시 중랑구 면목동 115-18,127.087497,37.587491,임시주거시설,212
4715,면남초등학교,서울특별시,중랑구,서울특별시 중랑구 면목동 583-15,127.088251,37.577207,임시주거시설,527
4716,면목고등학교,서울특별시,중랑구,서울특별시 중랑구 면목동 77,127.100763,37.587417,임시주거시설,1130
4717,화양동주민센터,서울특별시,광진구,서울특별시 광진구 화양동 122-0,127.071322,37.546597,임시주거시설,135
4718,광남고등학교,서울특별시,광진구,서울특별시 광진구 광장동 554-11,127.101699,37.541736,임시주거시설,273
4719,광장동주민센터,서울특별시,광진구,서울특별시 광진구 광장동 248-24,127.102983,37.546956,임시주거시설,177
4720,자양제1동주민센터,서울특별시,광진구,서울특별시 광진구 자양동 630-1,127.082515,37.534484,임시주거시설,156
4721,광양중학교,서울특별시,광진구,서울특별시 광진구 자양동 674-0,127.085416,37.530389,임시주거시설,939
4722,자양2동주민센터,서울특별시,광진구,서울특별시 광진구 자양동 669-2,127.084536,37.528853,임시주거시설,170
6040,대림도서관,서울특별시,영등포구,서울특별시 영등포구 대림동 608-2,126.896054,37.504313,임시주거시설,216
6041,숭실대학교,서울특별시,동작구,서울특별시 동작구 상도동 511-0,126.95828,37.497243,임시주거시설,851
6042,국사봉중학교,서울특별시,동작구,서울특별시 동작구 상도동 214-437,126.945022,37.493712,임시주거시설,907
6114,난우초등학교,서울특별시,관악구,서울특별시 관악구 신림동 589-1,126.917696,37.476578,임시주거시설,501
6115,미성체육관,서울특별시,관악구,서울특별시 관악구 신림동 594-9,126.919309,37.477868,임시주거시설,977
6116,봉천초등학교,서울특별시,관악구,서울특별시 관악구 봉천동 산79-7,126.957873,37.482654,임시주거시설,1126
6117,관악중학교,서울특별시,관악구,서울특별시 관악구 봉천동 100-569,126.962009,37.480729,임시주거시설,580
6118,청룡초등학교,서울특별시,관악구,서울특별시 관악구 봉천동 390-3,126.951289,37.475877,임시주거시설,340
6119,청룡산체육관,서울특별시,관악구,서울특별시 관악구 봉천동 산175-36,126.949371,37.474125,임시주거시설,684
6120,봉림중학교,서울특별시,관악구,서울특별시 관악구 봉천동 1531-38,126.93819,37.480736,임시주거시설,555
6121,은천초등학교,서울특별시,관악구,서울특별시 관악구 봉천동 622-1,126.943129,37.486838,임시주거시설,805
6122,서울관광고등학교,서울특별시,관악구,서울특별시 관악구 봉천동 1694-0,126.94377,37.487846,임시주거시설,432
6123,신봉초등학교,서울특별시,관악구,서울특별시 관악구 봉천동 458-0,126.949271,37.48571,임시주거시설,868
6124,인헌고등학교,서울특별시,관악구,서울특별시 관악구 봉천동 174-5,126.970026,37.471717,임시주거시설,794
5585,신정4동주민센터,서울특별시,양천구,서울특별시 양천구 신정동 949-5,126.855824,37.52464,임시주거시설,144
5586,목일중학교,서울특별시,양천구,서울특별시 양천구 신정동 330-2,126.874308,37.513309,임시주거시설,644
5587,양천구청 본관,서울특별시,양천구,서울특별시 양천구 신정동 321-4,126.866631,37.516984,임시주거시설,396
5588,해누리타운(양천구청 별관),서울특별시,양천구,서울특별시 양천구 신정동 322-11,126.86382,37.516035,임시주거시설,350
5606,신월4동주민센터,서울특별시,양천구,서울특별시 양천구 신월동 425-2,126.840078,37.524709,임시주거시설,232
5607,신월중학교,서울특별시,양천구,서울특별시 양천구 신월동 17-6,126.828871,37.541029,임시주거시설,723
5608,강신초등학교 교사시설,서울특별시,양천구,서울특별시 양천구 신월동 6-7,126.829448,37.542539,임시주거시설,120
5609,신월5동주민센터,서울특별시,양천구,서울특별시 양천구 신월동 52-2,126.827185,37.538579,임시주거시설,150
5610,신월6동주민센터,서울특별시,양천구,서울특별시 양천구 신월동 1078-1,126.840951,37.514548,임시주거시설,181
5611,강신중학교,서울특별시,양천구,서울특별시 양천구 신월동 1010-0,126.838911,37.515242,임시주거시설,936
5612,강월초등학교 체육관,서울특별시,양천구,서울특별시 양천구 신월동 987-3,126.834725,37.515897,임시주거시설,796
5613,양천중학교,서울특별시,양천구,서울특별시 양천구 신월동 948-0,126.830616,37.519523,임시주거시설,970
5614,지양경로당,서울특별시,양천구,서울특별시 양천구 신월동 331-104,126.828219,37.522655,임시주거시설,146
5615,신서중학교 체육관,서울특별시,양천구,서울특별시 양천구 신정동 310-6,126.856161,37.515658,임시주거시설,860
5616,신서초등학교 체육관,서울특별시,양천구,서울특별시 양천구 신정동 312-1,126.862415,37.520276,임시주거시설,793
5617,신정종합사회복지관,서울특별시,양천구,서울특별시 양천구 신정동 919-6,126.860493,37.526495,임시주거시설,238
5618,신정1동주민센터,서울특별시,양천구,서울특별시 양천구 신정동 1051-11,126.854215,37.518586,임시주거시설,140
5619,목동초등학교 체육관,서울특별시,양천구,서울특별시 양천구 신정동 86-2,126.872085,37.522482,임시주거시설,810
5620,목동중학교 체육관,서울특별시,양천구,서울특별시 양천구 신정동 85-168,126.870889,37.520104,임시주거시설,620
5621,신목초등학교 체육관,서울특별시,양천구,서울특별시 양천구 신정동 281-2,126.873275,37.516979,임시주거시설,661
5622,남명초등학교,서울특별시,양천구,서울특별시 양천구 신정동 653-4,126.853923,37.515394,임시주거시설,577
5623,금옥중학교 체육관,서울특별시,양천구,서울특별시 양천구 신정동 729,126.843845,37.510652,임시주거시설,621
5624,신정3동넒은들민원센터,서울특별시,양천구,서울특별시 양천구 신정동 1287-5,126.841522,37.511437,임시주거시설,372
5625,서울지향초등학교,서울특별시,양천구,서울특별시 양천구 신정동 1284-0,126.837162,37.513239,임시주거시설,650
5626,서울신은초등학교,서울특별시,양천구,서울특별시 양천구 신정동 1319-0,126.831893,37.514078,임시주거시설,700
5627,서울장수초등학교,서울특별시,양천구,서울특별시 양천구 신정동 1288-2,126.844938,37.512778,임시주거시설,478
5628,양목초등학교,서울특별시,양천구,서울특별시 양천구 신정동 1001,126.86123,37.52369,임시주거시설,2986
5629,신서고등학교,서울특별시,양천구,서울특별시 양천구 신정동 984-1,126.859937,37.523831,임시주거시설,844
6125,신관중학교,서울특별시,관악구,서울특별시 관악구 신림동 87-81,126.933953,37.480276,임시주거시설,935
6126,남부초등학교,서울특별시,관악구,서울특별시 관악구 신림동 467,126.922099,37.484888,임시주거시설,612
6127,난향초등학교,서울특별시,관악구,서울특별시 관악구 신림동 672,126.917891,37.462102,임시주거시설,168
6128,조원초등학교,서울특별시,관악구,서울특별시 관악구 신림동 548-2,126.90946,37.484215,임시주거시설,1271
6129,영등포중학교,서울특별시,동작구,서울특별시 동작구 대방동 13-2,126.934257,37.507527,임시주거시설,861
6130,서울영화초등학교,서울특별시,동작구,서울특별시 동작구 대방동 44-3,126.932717,37.509224,임시주거시설,772
6131,강남중학교,서울특별시,동작구,서울특별시 동작구 대방동 390-6,126.921876,37.502788,임시주거시설,593
6132,서울신길초등학교,서울특별시,동작구,서울특별시 동작구 대방동 353-8,126.926322,37.510068,임시주거시설,351
6133,대방동주민센터,서울특별시,동작구,서울특별시 동작구 대방동 350-8,126.926254,37.508174,임시주거시설,231
6134,서울문창초등학교,서울특별시,동작구,서울특별시 동작구 신대방동 640,126.913912,37.488915,임시주거시설,1014
6135,수도여자고등학교,서울특별시,동작구,서울특별시 동작구 신대방동 470-13,126.915514,37.493069,임시주거시설,202
6136,서울보라매초등학교,서울특별시,동작구,서울특별시 동작구 신대방동 488-1,126.916228,37.496004,임시주거시설,1092
6137,당곡고등학교,서울특별시,관악구,서울특별시 관악구 봉천동 679-0,126.934694,37.491732,임시주거시설,382
6138,당곡중학교,서울특별시,관악구,서울특별시 관악구 봉천동 676-10,126.933161,37.491905,임시주거시설,856
6139,구암고등학교,서울특별시,관악구,서울특별시 관악구 봉천동 1712-25,126.950337,37.49232,임시주거시설,852
6140,구암중학교,서울특별시,관악구,서울특별시 관악구 봉천동 1712-5,126.948362,37.492677,임시주거시설,525
6141,구암초등학교,서울특별시,관악구,서울특별시 관악구 봉천동 483-3,126.947164,37.48964,임시주거시설,513
6147,양강초등학교 체육관,서울특별시,양천구,서울특별시 양천구 신월동 495-1,126.848589,37.52415,임시주거시설,613
6148,양강중학교 체육관,서울특별시,양천구,서울특별시 양천구 신월동 499-2,126.850318,37.524444,임시주거시설,684
6149,신월2동주민센터,서울특별시,양천구,서울특별시 양천구 신월동 483-11,126.844634,37.525031,임시주거시설,174
6150,양원초등학교,서울특별시,양천구,서울특별시 양천구 신월동 40-1,126.823043,37.53865,임시주거시설,662
6151,서울신원초등학교,서울특별시,양천구,서울특별시 양천구 신월동 202-1,126.83053,37.529291,임시주거시설,580
6152,신월3동주민센터,서울특별시,양천구,서울특별시 양천구 신월동 167-5,126.829176,37.533756,임시주거시설,115
6153,강서초등학교 체육관,서울특별시,양천구,서울특별시 양천구 신월동 441,126.840059,37.522012,임시주거시설,663
5678,계남초등학교 체육관,서울특별시,양천구,서울특별시 양천구 신정동 325-7,126.860935,37.509799,임시주거시설,983
5679,갈산초등학교,서울특별시,양천구,서울특별시 양천구 신정동 330-10,126.869629,37.51145,임시주거시설,660
5680,양천어르신종합복지관,서울특별시,양천구,서울특별시 양천구 신정동 325-3,126.858616,37.510433,임시주거시설,160
5681,갈산문화예술센터,서울특별시,양천구,서울특별시 양천구 신정동 1325-3,126.870713,37.510419,임시주거시설,168
5682,염경초등학교,서울특별시,강서구,서울특별시 강서구 염창동 79,126.871235,37.554774,임시주거시설,843
5683,염경중학교,서울특별시,강서구,서울특별시 강서구 염창동 79-8,126.870684,37.554496,임시주거시설,690
5684,JK블라썸 호텔,서울특별시,강서구,서울특별시 강서구 염창동 20-85,126.867609,37.556842,임시주거시설,8284
5685,백석초등학교,서울특별시,강서구,서울특별시 강서구 등촌동 650-14,126.862035,37.553252,임시주거시설,750
5686,백석중학교,서울특별시,강서구,서울특별시 강서구 등촌동 520-5,126.859303,37.54819,임시주거시설,600
5687,등촌중학교,서울특별시,강서구,서울특별시 강서구 등촌동 534-9,126.859403,37.552463,임시주거시설,862
5688,등마초등학교,서울특별시,강서구,서울특별시 강서구 등촌동 718-0,126.861622,37.541924,임시주거시설,649
5689,화원중학교,서울특별시,강서구,서울특별시 강서구 화곡동 351-94,126.842567,37.536716,임시주거시설,581
6194,올림픽기념국민생활관,서울특별시,종로구,서울특별시 종로구 혜화동 1-21,126.9988,37.590339,임시주거시설,1224
6195,종로구민회관,서울특별시,종로구,서울특별시 종로구 창신동 222-8,127.014372,37.573464,임시주거시설,953
6196,종로구보훈회관,서울특별시,종로구,서울특별시 종로구 이화동 13-10,127.005682,37.57642,임시주거시설,213
5979,서울삼일초등학교,서울특별시,동작구,서울특별시 동작구 사당동 105-23,126.975203,37.488285,임시주거시설,630
6039,신영초등학교,서울특별시,영등포구,서울특별시 영등포구 대림동 781-0,126.895334,37.500499,임시주거시설,552
